{"type": "FeatureCollection", "features": [{"id": "0", "type": "Feature", "properties": {"name": "Dhemaji Civil Hospital", "amenity": "hospital", "facility_type": "district_hospital", "beds": 100, "district": "Dhemaji", "osm_id": 405788, "is_flooded": true, "flood_depth_m": 1.47, "settlements_served": 0, "population_served": 0, "is_operational": false}, "geometry": {"type": "Point", "coordinates": [94.585, 27.485]}}, {"id": "1", "type": "Feature", "properties": {"name": "Silapathar PHC", "amenity": "hospital", "facility_type": "phc", "beds": 30, "district": "Dhemaji", "osm_id": 902564, "is_flooded": true, "flood_depth_m": 5.62, "settlements_served": 0, "population_served": 0, "is_operational": false}, "geometry": {"type": "Point", "coordinates": [94.718, 27.592]}}, {"id": "2", "type": "Feature", "properties": {"name": "Gogamukh CHC", "amenity": "hospital", "facility_type": "chc", "beds": 30, "district": "Dhemaji", "osm_id": 809434, "is_flooded": false, "flood_depth_m": 0.0, "settlements_served": 1, "population_served": 12750, "is_operational": true}, "geometry": {"type": "Point", "coordinates": [94.432, 27.382]}}, {"id": "3", "type": "Feature", "properties": {"name": "Jonai CHC", "amenity": "hospital", "facility_type": "chc", "beds": 30, "district": "Dhemaji", "osm_id": 525074, "is_flooded": false, "flood_depth_m": 0.0, "settlements_served": 2, "population_served": 23920, "is_operational": true}, "geometry": {"type": "Point", "coordinates": [95.218, 27.831]}}, {"id": "4", "type": "Feature", "properties": {"name": "Sissiborgaon PHC", "amenity": "hospital", "facility_type": "phc", "beds": 15, "district": "Dhemaji", "osm_id": 432774, "is_flooded": true, "flood_depth_m": 3.59, "settlements_served": 0, "population_served": 0, "is_operational": false}, "geometry": {"type": "Point", "coordinates": [94.678, 27.548]}}, {"id": "5", "type": "Feature", "properties": {"name": "Bordoloni Mini PHC", "amenity": "hospital", "facility_type": "mini_phc", "beds": 6, "district": "Dhemaji", "osm_id": 202344, "is_flooded": true, "flood_depth_m": 1.69, "settlements_served": 0, "population_served": 0, "is_operational": false}, "geometry": {"type": "Point", "coordinates": [94.618, 27.518]}}, {"id": "6", "type": "Feature", "properties": {"name": "Machkhowa PHC", "amenity": "hospital", "facility_type": "phc", "beds": 15, "district": "Dhemaji", "osm_id": 208299, "is_flooded": true, "flood_depth_m": 0.55, "settlements_served": 2, "population_served": 4480, "is_operational": false}, "geometry": {"type": "Point", "coordinates": [94.498, 27.418]}}, {"id": "7", "type": "Feature", "properties": {"name": "Lakhimpur Medical College & Hospital", "amenity": "hospital", "facility_type": "medical_college", "beds": 500, "district": "Lakhimpur", "osm_id": 643183, "is_flooded": true, "flood_depth_m": 3.76, "settlements_served": 0, "population_served": 0, "is_operational": false}, "geometry": {"type": "Point", "coordinates": [94.108, 27.238]}}, {"id": "8", "type": "Feature", "properties": {"name": "North Lakhimpur Civil Hospital", "amenity": "hospital", "facility_type": "district_hospital", "beds": 150, "district": "Lakhimpur", "osm_id": 804336, "is_flooded": true, "flood_depth_m": 4.56, "settlements_served": 0, "population_served": 0, "is_operational": false}, "geometry": {"type": "Point", "coordinates": [94.102, 27.234]}}, {"id": "9", "type": "Feature", "properties": {"name": "Dhakuakhana PHC", "amenity": "hospital", "facility_type": "phc", "beds": 30, "district": "Lakhimpur", "osm_id": 89595, "is_flooded": true, "flood_depth_m": 0.67, "settlements_served": 0, "population_served": 0, "is_operational": false}, "geometry": {"type": "Point", "coordinates": [94.168, 27.068]}}, {"id": "10", "type": "Feature", "properties": {"name": "Bihpuria CHC", "amenity": "hospital", "facility_type": "chc", "beds": 30, "district": "Lakhimpur", "osm_id": 912092, "is_flooded": true, "flood_depth_m": 0.67, "settlements_served": 0, "population_served": 0, "is_operational": false}, "geometry": {"type": "Point", "coordinates": [93.912, 27.022]}}, {"id": "11", "type": "Feature", "properties": {"name": "Narayanpur PHC", "amenity": "hospital", "facility_type": "phc", "beds": 15, "district": "Lakhimpur", "osm_id": 212029, "is_flooded": true, "flood_depth_m": 2.28, "settlements_served": 0, "population_served": 0, "is_operational": false}, "geometry": {"type": "Point", "coordinates": [94.048, 27.198]}}, {"id": "12", "type": "Feature", "properties": {"name": "Nowboicha Mini PHC", "amenity": "hospital", "facility_type": "mini_phc", "beds": 6, "district": "Lakhimpur", "osm_id": 196586, "is_flooded": true, "flood_depth_m": 1.76, "settlements_served": 0, "population_served": 0, "is_operational": false}, "geometry": {"type": "Point", "coordinates": [93.978, 27.248]}}, {"id": "13", "type": "Feature", "properties": {"name": "Boginadi PHC", "amenity": "hospital", "facility_type": "phc", "beds": 15, "district": "Lakhimpur", "osm_id": 150720, "is_flooded": true, "flood_depth_m": 3.11, "settlements_served": 0, "population_served": 0, "is_operational": false}, "geometry": {"type": "Point", "coordinates": [94.228, 27.298]}}, {"id": "14", "type": "Feature", "properties": {"name": "Laluk PHC", "amenity": "hospital", "facility_type": "phc", "beds": 15, "district": "Lakhimpur", "osm_id": 897789, "is_flooded": true, "flood_depth_m": 2.3, "settlements_served": 0, "population_served": 0, "is_operational": false}, "geometry": {"type": "Point", "coordinates": [94.068, 27.278]}}, {"id": "15", "type": "Feature", "properties": {"name": "Garamur State Dispensary", "amenity": "hospital", "facility_type": "dispensary", "beds": 20, "district": "Majuli", "osm_id": 123215, "is_flooded": true, "flood_depth_m": 2.23, "settlements_served": 0, "population_served": 0, "is_operational": false}, "geometry": {"type": "Point", "coordinates": [94.172, 26.952]}}, {"id": "16", "type": "Feature", "properties": {"name": "Kamalabari PHC", "amenity": "hospital", "facility_type": "phc", "beds": 30, "district": "Majuli", "osm_id": 317866, "is_flooded": true, "flood_depth_m": 1.03, "settlements_served": 0, "population_served": 0, "is_operational": false}, "geometry": {"type": "Point", "coordinates": [94.222, 26.932]}}, {"id": "17", "type": "Feature", "properties": {"name": "Jengraimukh PHC", "amenity": "hospital", "facility_type": "phc", "beds": 15, "district": "Majuli", "osm_id": 276135, "is_flooded": true, "flood_depth_m": 1.59, "settlements_served": 0, "population_served": 0, "is_operational": false}, "geometry": {"type": "Point", "coordinates": [94.298, 26.978]}}, {"id": "18", "type": "Feature", "properties": {"name": "Auniati Mini PHC", "amenity": "hospital", "facility_type": "mini_phc", "beds": 6, "district": "Majuli", "osm_id": 47008, "is_flooded": true, "flood_depth_m": 2.44, "settlements_served": 0, "population_served": 0, "is_operational": false}, "geometry": {"type": "Point", "coordinates": [94.198, 26.958]}}, {"id": "19", "type": "Feature", "properties": {"name": "Salmora Health Sub-Centre", "amenity": "hospital", "facility_type": "sub_centre", "beds": 4, "district": "Majuli", "osm_id": 579440, "is_flooded": true, "flood_depth_m": 2.67, "settlements_served": 0, "population_served": 0, "is_operational": false}, "geometry": {"type": "Point", "coordinates": [94.252, 26.892]}}]}