{"type": "FeatureCollection", "features": [{"id": "0", "type": "Feature", "properties": {"name": "Dhemaji", "settlement_type": "town", "est_population": 25340, "district": "Dhemaji", "place": "town", "osm_id": 442576, "is_flooded": true, "flood_depth_m": 1.47, "pre_travel_time": 0.0, "nearest_dest_dist": 0.0, "pre_reachable": 1, "pre_connected": true, "pre_isolation": 0.95, "post_travel_time": Infinity, "post_reachable": 0, "post_connected": false, "post_isolation": 1.0, "connectivity_lost": true, "newly_isolated": true, "travel_time_increase": 0.0, "accessibility_change": 1.0, "accessibility_status": "critically_isolated", "score_accessibility": 1.0, "score_population": 0.414, "score_infrastructure": 1.0, "score_isolation": 1.0, "score_flood": 0.292, "priority_score": 0.783, "priority_rank": 4, "priority_category": "very_high"}, "geometry": {"type": "Point", "coordinates": [94.5833, 27.4833]}}, {"id": "1", "type": "Feature", "properties": {"name": "Silapathar", "settlement_type": "town", "est_population": 22985, "district": "Dhemaji", "place": "town", "osm_id": 215447, "is_flooded": true, "flood_depth_m": 5.03, "pre_travel_time": 0.0, "nearest_dest_dist": 0.0, "pre_reachable": 3, "pre_connected": true, "pre_isolation": 0.85, "post_travel_time": Infinity, "post_reachable": 0, "post_connected": false, "post_isolation": 1.0, "connectivity_lost": true, "newly_isolated": true, "travel_time_increase": 0.0, "accessibility_change": 1.0, "accessibility_status": "critically_isolated", "score_accessibility": 1.0, "score_population": 0.397, "score_infrastructure": 1.0, "score_isolation": 1.0, "score_flood": 1.0, "priority_score": 0.849, "priority_rank": 2, "priority_category": "critical"}, "geometry": {"type": "Point", "coordinates": [94.72, 27.5953]}}, {"id": "2", "type": "Feature", "properties": {"name": "Jonai", "settlement_type": "town", "est_population": 15420, "district": "Dhemaji", "place": "town", "osm_id": 54043, "is_flooded": false, "flood_depth_m": 0.0, "pre_travel_time": 0.0, "nearest_dest_dist": 0.0, "pre_reachable": 1, "pre_connected": true, "pre_isolation": 0.95, "post_travel_time": 0.0, "post_reachable": 2, "post_connected": true, "post_isolation": 0.9, "connectivity_lost": false, "newly_isolated": false, "travel_time_increase": 0.0, "accessibility_change": -1.0, "accessibility_status": "accessible", "score_accessibility": 0.571, "score_population": 0.11, "score_infrastructure": 0.0, "score_isolation": 0.0, "score_flood": 0.0, "priority_score": 0.199, "priority_rank": 46, "priority_category": "low"}, "geometry": {"type": "Point", "coordinates": [95.22, 27.83]}}, {"id": "3", "type": "Feature", "properties": {"name": "Gogamukh", "settlement_type": "town", "est_population": 12750, "district": "Dhemaji", "place": "town", "osm_id": 648490, "is_flooded": false, "flood_depth_m": 0.0, "pre_travel_time": 0.0, "nearest_dest_dist": 0.0, "pre_reachable": 3, "pre_connected": true, "pre_isolation": 0.85, "post_travel_time": 0.0, "post_reachable": 14, "post_connected": true, "post_isolation": 0.3, "connectivity_lost": false, "newly_isolated": false, "travel_time_increase": 0.0, "accessibility_change": -3.6666666666666665, "accessibility_status": "accessible", "score_accessibility": 0.0, "score_population": 0.091, "score_infrastructure": 0.0, "score_isolation": 0.0, "score_flood": 0.0, "priority_score": 0.023, "priority_rank": 49, "priority_category": "low"}, "geometry": {"type": "Point", "coordinates": [94.43, 27.38]}}, {"id": "4", "type": "Feature", "properties": {"name": "Sissiborgaon", "settlement_type": "village", "est_population": 5200, "district": "Dhemaji", "place": "village", "osm_id": 887574, "is_flooded": true, "flood_depth_m": 3.59, "pre_travel_time": 0.0, "nearest_dest_dist": 0.0, "pre_reachable": 1, "pre_connected": true, "pre_isolation": 0.95, "post_travel_time": Infinity, "post_reachable": 0, "post_connected": false, "post_isolation": 1.0, "connectivity_lost": true, "newly_isolated": true, "travel_time_increase": 0.0, "accessibility_change": 1.0, "accessibility_status": "critically_isolated", "score_accessibility": 1.0, "score_population": 0.266, "score_infrastructure": 1.0, "score_isolation": 1.0, "score_flood": 0.714, "priority_score": 0.788, "priority_rank": 3, "priority_category": "very_high"}, "geometry": {"type": "Point", "coordinates": [94.68, 27.55]}}, {"id": "5", "type": "Feature", "properties": {"name": "Machkhowa", "settlement_type": "village", "est_population": 3800, "district": "Dhemaji", "place": "village", "osm_id": 107842, "is_flooded": true, "flood_depth_m": 0.55, "pre_travel_time": 0.0, "nearest_dest_dist": 0.0, "pre_reachable": 3, "pre_connected": true, "pre_isolation": 0.85, "post_travel_time": 0.0, "post_reachable": 4, "post_connected": true, "post_isolation": 0.8, "connectivity_lost": false, "newly_isolated": false, "travel_time_increase": 0.0, "accessibility_change": -0.3333333333333333, "accessibility_status": "accessible", "score_accessibility": 0.571, "score_population": 0.256, "score_infrastructure": 0.0, "score_isolation": 0.0, "score_flood": 0.109, "priority_score": 0.246, "priority_rank": 45, "priority_category": "moderate"}, "geometry": {"type": "Point", "coordinates": [94.5, 27.42]}}, {"id": "6", "type": "Feature", "properties": {"name": "Bordoloni", "settlement_type": "village", "est_population": 4100, "district": "Dhemaji", "place": "village", "osm_id": 525282, "is_flooded": true, "flood_depth_m": 1.69, "pre_travel_time": 0.0, "nearest_dest_dist": 0.0, "pre_reachable": 1, "pre_connected": true, "pre_isolation": 0.95, "post_travel_time": Infinity, "post_reachable": 0, "post_connected": false, "post_isolation": 1.0, "connectivity_lost": true, "newly_isolated": true, "travel_time_increase": 0.0, "accessibility_change": 1.0, "accessibility_status": "isolated", "score_accessibility": 1.0, "score_population": 0.258, "score_infrastructure": 1.0, "score_isolation": 0.8, "score_flood": 0.336, "priority_score": 0.718, "priority_rank": 26, "priority_category": "very_high"}, "geometry": {"type": "Point", "coordinates": [94.62, 27.52]}}, {"id": "7", "type": "Feature", "properties": {"name": "Dimow", "settlement_type": "village", "est_population": 3200, "district": "Dhemaji", "place": "village", "osm_id": 810374, "is_flooded": true, "flood_depth_m": 2.02, "pre_travel_time": 11.91, "nearest_dest_dist": 5.955, "pre_reachable": 2, "pre_connected": true, "pre_isolation": 0.9, "post_travel_time": Infinity, "post_reachable": 0, "post_connected": false, "post_isolation": 1.0, "connectivity_lost": true, "newly_isolated": true, "travel_time_increase": Infinity, "accessibility_change": 1.0, "accessibility_status": "isolated", "score_accessibility": 1.0, "score_population": 0.252, "score_infrastructure": 1.0, "score_isolation": 0.8, "score_flood": 0.402, "priority_score": 0.723, "priority_rank": 23, "priority_category": "very_high"}, "geometry": {"type": "Point", "coordinates": [94.8108, 27.6761]}}, {"id": "8", "type": "Feature", "properties": {"name": "Jonai Bazar", "settlement_type": "village", "est_population": 8500, "district": "Dhemaji", "place": "village", "osm_id": 830667, "is_flooded": false, "flood_depth_m": 0.0, "pre_travel_time": 0.0, "nearest_dest_dist": 0.0, "pre_reachable": 1, "pre_connected": true, "pre_isolation": 0.95, "post_travel_time": 0.0, "post_reachable": 2, "post_connected": true, "post_isolation": 0.9, "connectivity_lost": false, "newly_isolated": false, "travel_time_increase": 0.0, "accessibility_change": -1.0, "accessibility_status": "accessible", "score_accessibility": 0.571, "score_population": 0.06, "score_infrastructure": 0.0, "score_isolation": 0.0, "score_flood": 0.0, "priority_score": 0.186, "priority_rank": 47, "priority_category": "low"}, "geometry": {"type": "Point", "coordinates": [95.2214, 27.8329]}}, {"id": "9", "type": "Feature", "properties": {"name": "Telam", "settlement_type": "village", "est_population": 2100, "district": "Dhemaji", "place": "village", "osm_id": 276454, "is_flooded": false, "flood_depth_m": 0.0, "pre_travel_time": -1.0, "nearest_dest_dist": -1.0, "pre_reachable": 0, "pre_connected": false, "pre_isolation": 1.0, "post_travel_time": -1.0, "post_reachable": 0, "post_connected": false, "post_isolation": 1.0, "connectivity_lost": false, "newly_isolated": true, "travel_time_increase": 999.0, "accessibility_change": 1.0, "accessibility_status": "isolated", "score_accessibility": 0.8, "score_population": 0.013, "score_infrastructure": 1.0, "score_isolation": 0.8, "score_flood": 0.0, "priority_score": 0.563, "priority_rank": 43, "priority_category": "high"}, "geometry": {"type": "Point", "coordinates": [95.05, 27.7]}}, {"id": "10", "type": "Feature", "properties": {"name": "Murkongselek", "settlement_type": "village", "est_population": 6200, "district": "Dhemaji", "place": "village", "osm_id": 840979, "is_flooded": true, "flood_depth_m": 0.35, "pre_travel_time": -1.0, "nearest_dest_dist": -1.0, "pre_reachable": 0, "pre_connected": false, "pre_isolation": 1.0, "post_travel_time": Infinity, "post_reachable": 0, "post_connected": false, "post_isolation": 1.0, "connectivity_lost": false, "newly_isolated": true, "travel_time_increase": 0.0, "accessibility_change": 1.0, "accessibility_status": "critically_isolated", "score_accessibility": 0.8, "score_population": 0.274, "score_infrastructure": 1.0, "score_isolation": 1.0, "score_flood": 0.07, "priority_score": 0.665, "priority_rank": 37, "priority_category": "very_high"}, "geometry": {"type": "Point", "coordinates": [95.02, 27.63]}}, {"id": "11", "type": "Feature", "properties": {"name": "Kulajan", "settlement_type": "village", "est_population": 1800, "district": "Dhemaji", "place": "village", "osm_id": 36528, "is_flooded": true, "flood_depth_m": 1.09, "pre_travel_time": -1.0, "nearest_dest_dist": -1.0, "pre_reachable": 0, "pre_connected": false, "pre_isolation": 1.0, "post_travel_time": Infinity, "post_reachable": 0, "post_connected": false, "post_isolation": 1.0, "connectivity_lost": false, "newly_isolated": true, "travel_time_increase": 0.0, "accessibility_change": 1.0, "accessibility_status": "isolated", "score_accessibility": 0.8, "score_population": 0.241, "score_infrastructure": 1.0, "score_isolation": 0.8, "score_flood": 0.217, "priority_score": 0.642, "priority_rank": 40, "priority_category": "very_high"}, "geometry": {"type": "Point", "coordinates": [94.55, 27.46]}}, {"id": "12", "type": "Feature", "properties": {"name": "Jiadhal Nalkata", "settlement_type": "hamlet", "est_population": 950, "district": "Dhemaji", "place": "hamlet", "osm_id": 540001, "is_flooded": true, "flood_depth_m": 1.11, "pre_travel_time": -1.0, "nearest_dest_dist": -1.0, "pre_reachable": 0, "pre_connected": false, "pre_isolation": 1.0, "post_travel_time": Infinity, "post_reachable": 0, "post_connected": false, "post_isolation": 1.0, "connectivity_lost": false, "newly_isolated": true, "travel_time_increase": 0.0, "accessibility_change": 1.0, "accessibility_status": "isolated", "score_accessibility": 0.8, "score_population": 0.235, "score_infrastructure": 1.0, "score_isolation": 0.8, "score_flood": 0.221, "priority_score": 0.641, "priority_rank": 41, "priority_category": "very_high"}, "geometry": {"type": "Point", "coordinates": [94.75, 27.51]}}, {"id": "13", "type": "Feature", "properties": {"name": "Auni-ati Chapori", "settlement_type": "hamlet", "est_population": 680, "district": "Dhemaji", "place": "hamlet", "osm_id": 682919, "is_flooded": false, "flood_depth_m": 0.0, "pre_travel_time": -1.0, "nearest_dest_dist": -1.0, "pre_reachable": 0, "pre_connected": false, "pre_isolation": 1.0, "post_travel_time": 0.0, "post_reachable": 4, "post_connected": true, "post_isolation": 0.8, "connectivity_lost": false, "newly_isolated": true, "travel_time_increase": 0.0, "accessibility_change": 0.0, "accessibility_status": "accessible", "score_accessibility": 0.6, "score_population": 0.002, "score_infrastructure": 0.0, "score_isolation": 0.0, "score_flood": 0.0, "priority_score": 0.181, "priority_rank": 48, "priority_category": "low"}, "geometry": {"type": "Point", "coordinates": [94.48, 27.44]}}, {"id": "14", "type": "Feature", "properties": {"name": "Ghilamora", "settlement_type": "village", "est_population": 2800, "district": "Dhemaji", "place": "village", "osm_id": 690028, "is_flooded": true, "flood_depth_m": 4.04, "pre_travel_time": 0.0, "nearest_dest_dist": 0.0, "pre_reachable": 3, "pre_connected": true, "pre_isolation": 0.85, "post_travel_time": Infinity, "post_reachable": 0, "post_connected": false, "post_isolation": 1.0, "connectivity_lost": true, "newly_isolated": true, "travel_time_increase": 0.0, "accessibility_change": 1.0, "accessibility_status": "isolated", "score_accessibility": 1.0, "score_population": 0.249, "score_infrastructure": 1.0, "score_isolation": 0.8, "score_flood": 0.803, "priority_score": 0.762, "priority_rank": 10, "priority_category": "very_high"}, "geometry": {"type": "Point", "coordinates": [94.7, 27.58]}}, {"id": "15", "type": "Feature", "properties": {"name": "Joypur", "settlement_type": "village", "est_population": 1650, "district": "Dhemaji", "place": "village", "osm_id": 345168, "is_flooded": true, "flood_depth_m": 2.56, "pre_travel_time": -1.0, "nearest_dest_dist": -1.0, "pre_reachable": 0, "pre_connected": false, "pre_isolation": 1.0, "post_travel_time": Infinity, "post_reachable": 0, "post_connected": false, "post_isolation": 1.0, "connectivity_lost": false, "newly_isolated": true, "travel_time_increase": 0.0, "accessibility_change": 1.0, "accessibility_status": "isolated", "score_accessibility": 0.8, "score_population": 0.24, "score_infrastructure": 1.0, "score_isolation": 0.8, "score_flood": 0.509, "priority_score": 0.671, "priority_rank": 35, "priority_category": "very_high"}, "geometry": {"type": "Point", "coordinates": [94.6, 27.47]}}, {"id": "16", "type": "Feature", "properties": {"name": "North Lakhimpur", "settlement_type": "town", "est_population": 105376, "district": "Lakhimpur", "place": "town", "osm_id": 665090, "is_flooded": true, "flood_depth_m": 3.76, "pre_travel_time": 0.0, "nearest_dest_dist": 0.0, "pre_reachable": 2, "pre_connected": true, "pre_isolation": 0.9, "post_travel_time": Infinity, "post_reachable": 0, "post_connected": false, "post_isolation": 1.0, "connectivity_lost": true, "newly_isolated": true, "travel_time_increase": 0.0, "accessibility_change": 1.0, "accessibility_status": "critically_isolated", "score_accessibility": 1.0, "score_population": 1.0, "score_infrastructure": 1.0, "score_isolation": 1.0, "score_flood": 0.748, "priority_score": 0.975, "priority_rank": 1, "priority_category": "critical"}, "geometry": {"type": "Point", "coordinates": [94.1056, 27.2358]}}, {"id": "17", "type": "Feature", "properties": {"name": "Dhakuakhana", "settlement_type": "town", "est_population": 12800, "district": "Lakhimpur", "place": "town", "osm_id": 17984, "is_flooded": true, "flood_depth_m": 0.67, "pre_travel_time": 0.0, "nearest_dest_dist": 0.0, "pre_reachable": 1, "pre_connected": true, "pre_isolation": 0.95, "post_travel_time": Infinity, "post_reachable": 0, "post_connected": false, "post_isolation": 1.0, "connectivity_lost": true, "newly_isolated": true, "travel_time_increase": 0.0, "accessibility_change": 1.0, "accessibility_status": "critically_isolated", "score_accessibility": 1.0, "score_population": 0.322, "score_infrastructure": 1.0, "score_isolation": 1.0, "score_flood": 0.133, "priority_score": 0.744, "priority_rank": 14, "priority_category": "very_high"}, "geometry": {"type": "Point", "coordinates": [94.17, 27.07]}}, {"id": "18", "type": "Feature", "properties": {"name": "Narayanpur", "settlement_type": "town", "est_population": 8900, "district": "Lakhimpur", "place": "town", "osm_id": 871778, "is_flooded": true, "flood_depth_m": 2.12, "pre_travel_time": 0.0, "nearest_dest_dist": 0.0, "pre_reachable": 2, "pre_connected": true, "pre_isolation": 0.9, "post_travel_time": Infinity, "post_reachable": 0, "post_connected": false, "post_isolation": 1.0, "connectivity_lost": true, "newly_isolated": true, "travel_time_increase": 0.0, "accessibility_change": 1.0, "accessibility_status": "critically_isolated", "score_accessibility": 1.0, "score_population": 0.293, "score_infrastructure": 1.0, "score_isolation": 1.0, "score_flood": 0.421, "priority_score": 0.765, "priority_rank": 9, "priority_category": "very_high"}, "geometry": {"type": "Point", "coordinates": [94.05, 27.2]}}, {"id": "19", "type": "Feature", "properties": {"name": "Bihpuria", "settlement_type": "town", "est_population": 10500, "district": "Lakhimpur", "place": "town", "osm_id": 68271, "is_flooded": true, "flood_depth_m": 0.67, "pre_travel_time": 0.0, "nearest_dest_dist": 0.0, "pre_reachable": 2, "pre_connected": true, "pre_isolation": 0.9, "post_travel_time": Infinity, "post_reachable": 0, "post_connected": false, "post_isolation": 1.0, "connectivity_lost": true, "newly_isolated": true, "travel_time_increase": 0.0, "accessibility_change": 1.0, "accessibility_status": "critically_isolated", "score_accessibility": 1.0, "score_population": 0.305, "score_infrastructure": 1.0, "score_isolation": 1.0, "score_flood": 0.133, "priority_score": 0.74, "priority_rank": 15, "priority_category": "very_high"}, "geometry": {"type": "Point", "coordinates": [93.91, 27.02]}}, {"id": "20", "type": "Feature", "properties": {"name": "Laluk", "settlement_type": "village", "est_population": 5400, "district": "Lakhimpur", "place": "village", "osm_id": 227116, "is_flooded": true, "flood_depth_m": 2.95, "pre_travel_time": 0.0, "nearest_dest_dist": 0.0, "pre_reachable": 1, "pre_connected": true, "pre_isolation": 0.95, "post_travel_time": Infinity, "post_reachable": 0, "post_connected": false, "post_isolation": 1.0, "connectivity_lost": true, "newly_isolated": true, "travel_time_increase": 0.0, "accessibility_change": 1.0, "accessibility_status": "critically_isolated", "score_accessibility": 1.0, "score_population": 0.268, "score_infrastructure": 1.0, "score_isolation": 1.0, "score_flood": 0.586, "priority_score": 0.776, "priority_rank": 5, "priority_category": "very_high"}, "geometry": {"type": "Point", "coordinates": [94.07, 27.28]}}, {"id": "21", "type": "Feature", "properties": {"name": "Nowboicha", "settlement_type": "village", "est_population": 4200, "district": "Lakhimpur", "place": "village", "osm_id": 500825, "is_flooded": true, "flood_depth_m": 1.42, "pre_travel_time": 0.0, "nearest_dest_dist": 0.0, "pre_reachable": 1, "pre_connected": true, "pre_isolation": 0.95, "post_travel_time": Infinity, "post_reachable": 0, "post_connected": false, "post_isolation": 1.0, "connectivity_lost": true, "newly_isolated": true, "travel_time_increase": 0.0, "accessibility_change": 1.0, "accessibility_status": "isolated", "score_accessibility": 1.0, "score_population": 0.259, "score_infrastructure": 1.0, "score_isolation": 0.8, "score_flood": 0.282, "priority_score": 0.713, "priority_rank": 28, "priority_category": "very_high"}, "geometry": {"type": "Point", "coordinates": [93.98, 27.25]}}, {"id": "22", "type": "Feature", "properties": {"name": "Bandarmari", "settlement_type": "village", "est_population": 2800, "district": "Lakhimpur", "place": "village", "osm_id": 219772, "is_flooded": true, "flood_depth_m": 4.27, "pre_travel_time": 48.760000000000005, "nearest_dest_dist": 24.380000000000003, "pre_reachable": 1, "pre_connected": true, "pre_isolation": 0.95, "post_travel_time": Infinity, "post_reachable": 0, "post_connected": false, "post_isolation": 1.0, "connectivity_lost": true, "newly_isolated": true, "travel_time_increase": Infinity, "accessibility_change": 1.0, "accessibility_status": "isolated", "score_accessibility": 1.0, "score_population": 0.249, "score_infrastructure": 1.0, "score_isolation": 0.8, "score_flood": 0.849, "priority_score": 0.767, "priority_rank": 6, "priority_category": "very_high"}, "geometry": {"type": "Point", "coordinates": [94.08, 27.15]}}, {"id": "23", "type": "Feature", "properties": {"name": "Ghunasuti", "settlement_type": "village", "est_population": 3100, "district": "Lakhimpur", "place": "village", "osm_id": 62287, "is_flooded": true, "flood_depth_m": 1.35, "pre_travel_time": -1.0, "nearest_dest_dist": -1.0, "pre_reachable": 0, "pre_connected": false, "pre_isolation": 1.0, "post_travel_time": Infinity, "post_reachable": 0, "post_connected": false, "post_isolation": 1.0, "connectivity_lost": false, "newly_isolated": true, "travel_time_increase": 0.0, "accessibility_change": 1.0, "accessibility_status": "isolated", "score_accessibility": 0.8, "score_population": 0.251, "score_infrastructure": 1.0, "score_isolation": 0.8, "score_flood": 0.268, "priority_score": 0.65, "priority_rank": 38, "priority_category": "very_high"}, "geometry": {"type": "Point", "coordinates": [94.15, 27.18]}}, {"id": "24", "type": "Feature", "properties": {"name": "Kadam", "settlement_type": "village", "est_population": 2200, "district": "Lakhimpur", "place": "village", "osm_id": 62098, "is_flooded": false, "flood_depth_m": 0.0, "pre_travel_time": -1.0, "nearest_dest_dist": -1.0, "pre_reachable": 0, "pre_connected": false, "pre_isolation": 1.0, "post_travel_time": Infinity, "post_reachable": 0, "post_connected": false, "post_isolation": 1.0, "connectivity_lost": false, "newly_isolated": true, "travel_time_increase": 0.0, "accessibility_change": 1.0, "accessibility_status": "isolated", "score_accessibility": 0.8, "score_population": 0.014, "score_infrastructure": 1.0, "score_isolation": 0.8, "score_flood": 0.0, "priority_score": 0.563, "priority_rank": 43, "priority_category": "high"}, "geometry": {"type": "Point", "coordinates": [94.2, 27.13]}}, {"id": "25", "type": "Feature", "properties": {"name": "Boginadi", "settlement_type": "village", "est_population": 3500, "district": "Lakhimpur", "place": "village", "osm_id": 439498, "is_flooded": true, "flood_depth_m": 3.5, "pre_travel_time": 0.0, "nearest_dest_dist": 0.0, "pre_reachable": 1, "pre_connected": true, "pre_isolation": 0.95, "post_travel_time": Infinity, "post_reachable": 0, "post_connected": false, "post_isolation": 1.0, "connectivity_lost": true, "newly_isolated": true, "travel_time_increase": 0.0, "accessibility_change": 1.0, "accessibility_status": "isolated", "score_accessibility": 1.0, "score_population": 0.254, "score_infrastructure": 1.0, "score_isolation": 0.8, "score_flood": 0.696, "priority_score": 0.753, "priority_rank": 11, "priority_category": "very_high"}, "geometry": {"type": "Point", "coordinates": [94.23, 27.3]}}, {"id": "26", "type": "Feature", "properties": {"name": "Harmoti", "settlement_type": "village", "est_population": 4800, "district": "Lakhimpur", "place": "village", "osm_id": 271272, "is_flooded": true, "flood_depth_m": 1.23, "pre_travel_time": -1.0, "nearest_dest_dist": -1.0, "pre_reachable": 0, "pre_connected": false, "pre_isolation": 1.0, "post_travel_time": Infinity, "post_reachable": 0, "post_connected": false, "post_isolation": 1.0, "connectivity_lost": false, "newly_isolated": true, "travel_time_increase": 0.0, "accessibility_change": 1.0, "accessibility_status": "isolated", "score_accessibility": 0.8, "score_population": 0.263, "score_infrastructure": 1.0, "score_isolation": 0.8, "score_flood": 0.245, "priority_score": 0.65, "priority_rank": 38, "priority_category": "very_high"}, "geometry": {"type": "Point", "coordinates": [94.02, 27.32]}}, {"id": "27", "type": "Feature", "properties": {"name": "Panigaon", "settlement_type": "village", "est_population": 1900, "district": "Lakhimpur", "place": "village", "osm_id": 366273, "is_flooded": true, "flood_depth_m": 0.73, "pre_travel_time": -1.0, "nearest_dest_dist": -1.0, "pre_reachable": 0, "pre_connected": false, "pre_isolation": 1.0, "post_travel_time": Infinity, "post_reachable": 0, "post_connected": false, "post_isolation": 1.0, "connectivity_lost": false, "newly_isolated": true, "travel_time_increase": 0.0, "accessibility_change": 1.0, "accessibility_status": "isolated", "score_accessibility": 0.8, "score_population": 0.242, "score_infrastructure": 1.0, "score_isolation": 0.8, "score_flood": 0.145, "priority_score": 0.635, "priority_rank": 42, "priority_category": "very_high"}, "geometry": {"type": "Point", "coordinates": [93.96, 27.08]}}, {"id": "28", "type": "Feature", "properties": {"name": "Telahi", "settlement_type": "village", "est_population": 2600, "district": "Lakhimpur", "place": "village", "osm_id": 900649, "is_flooded": true, "flood_depth_m": 0.91, "pre_travel_time": 30.29, "nearest_dest_dist": 15.145000000000001, "pre_reachable": 1, "pre_connected": true, "pre_isolation": 0.95, "post_travel_time": Infinity, "post_reachable": 0, "post_connected": false, "post_isolation": 1.0, "connectivity_lost": true, "newly_isolated": true, "travel_time_increase": Infinity, "accessibility_change": 1.0, "accessibility_status": "isolated", "score_accessibility": 1.0, "score_population": 0.247, "score_infrastructure": 1.0, "score_isolation": 0.8, "score_flood": 0.181, "priority_score": 0.7, "priority_rank": 33, "priority_category": "very_high"}, "geometry": {"type": "Point", "coordinates": [94.0, 27.16]}}, {"id": "29", "type": "Feature", "properties": {"name": "Naoboicha Pathar", "settlement_type": "hamlet", "est_population": 1100, "district": "Lakhimpur", "place": "hamlet", "osm_id": 692760, "is_flooded": true, "flood_depth_m": 2.45, "pre_travel_time": -1.0, "nearest_dest_dist": -1.0, "pre_reachable": 0, "pre_connected": false, "pre_isolation": 1.0, "post_travel_time": Infinity, "post_reachable": 0, "post_connected": false, "post_isolation": 1.0, "connectivity_lost": false, "newly_isolated": true, "travel_time_increase": 0.0, "accessibility_change": 1.0, "accessibility_status": "isolated", "score_accessibility": 0.8, "score_population": 0.236, "score_infrastructure": 1.0, "score_isolation": 0.8, "score_flood": 0.487, "priority_score": 0.668, "priority_rank": 36, "priority_category": "very_high"}, "geometry": {"type": "Point", "coordinates": [93.95, 27.22]}}, {"id": "30", "type": "Feature", "properties": {"name": "Dikrong Chapori", "settlement_type": "hamlet", "est_population": 750, "district": "Lakhimpur", "place": "hamlet", "osm_id": 39741, "is_flooded": true, "flood_depth_m": 4.54, "pre_travel_time": -1.0, "nearest_dest_dist": -1.0, "pre_reachable": 0, "pre_connected": false, "pre_isolation": 1.0, "post_travel_time": Infinity, "post_reachable": 0, "post_connected": false, "post_isolation": 1.0, "connectivity_lost": false, "newly_isolated": true, "travel_time_increase": 0.0, "accessibility_change": 1.0, "accessibility_status": "isolated", "score_accessibility": 0.8, "score_population": 0.234, "score_infrastructure": 1.0, "score_isolation": 0.8, "score_flood": 0.903, "priority_score": 0.709, "priority_rank": 30, "priority_category": "very_high"}, "geometry": {"type": "Point", "coordinates": [94.18, 27.27]}}, {"id": "31", "type": "Feature", "properties": {"name": "Garamur", "settlement_type": "town", "est_population": 8500, "district": "Majuli", "place": "town", "osm_id": 615762, "is_flooded": true, "flood_depth_m": 2.23, "pre_travel_time": 0.0, "nearest_dest_dist": 0.0, "pre_reachable": 5, "pre_connected": true, "pre_isolation": 0.75, "post_travel_time": Infinity, "post_reachable": 0, "post_connected": false, "post_isolation": 1.0, "connectivity_lost": true, "newly_isolated": true, "travel_time_increase": 0.0, "accessibility_change": 1.0, "accessibility_status": "critically_isolated", "score_accessibility": 1.0, "score_population": 0.29, "score_infrastructure": 1.0, "score_isolation": 1.0, "score_flood": 0.443, "priority_score": 0.767, "priority_rank": 6, "priority_category": "very_high"}, "geometry": {"type": "Point", "coordinates": [94.17, 26.95]}}, {"id": "32", "type": "Feature", "properties": {"name": "Kamalabari", "settlement_type": "town", "est_population": 12200, "district": "Majuli", "place": "town", "osm_id": 615338, "is_flooded": true, "flood_depth_m": 1.08, "pre_travel_time": 0.0, "nearest_dest_dist": 0.0, "pre_reachable": 5, "pre_connected": true, "pre_isolation": 0.75, "post_travel_time": Infinity, "post_reachable": 0, "post_connected": false, "post_isolation": 1.0, "connectivity_lost": true, "newly_isolated": true, "travel_time_increase": 0.0, "accessibility_change": 1.0, "accessibility_status": "critically_isolated", "score_accessibility": 1.0, "score_population": 0.318, "score_infrastructure": 1.0, "score_isolation": 1.0, "score_flood": 0.215, "priority_score": 0.751, "priority_rank": 13, "priority_category": "very_high"}, "geometry": {"type": "Point", "coordinates": [94.22, 26.93]}}, {"id": "33", "type": "Feature", "properties": {"name": "Jengraimukh", "settlement_type": "town", "est_population": 7800, "district": "Majuli", "place": "town", "osm_id": 505496, "is_flooded": true, "flood_depth_m": 1.59, "pre_travel_time": 0.0, "nearest_dest_dist": 0.0, "pre_reachable": 5, "pre_connected": true, "pre_isolation": 0.75, "post_travel_time": Infinity, "post_reachable": 0, "post_connected": false, "post_isolation": 1.0, "connectivity_lost": true, "newly_isolated": true, "travel_time_increase": 0.0, "accessibility_change": 1.0, "accessibility_status": "critically_isolated", "score_accessibility": 1.0, "score_population": 0.285, "score_infrastructure": 1.0, "score_isolation": 1.0, "score_flood": 0.316, "priority_score": 0.753, "priority_rank": 11, "priority_category": "very_high"}, "geometry": {"type": "Point", "coordinates": [94.3, 26.98]}}, {"id": "34", "type": "Feature", "properties": {"name": "Auniati", "settlement_type": "village", "est_population": 4500, "district": "Majuli", "place": "village", "osm_id": 869889, "is_flooded": true, "flood_depth_m": 2.44, "pre_travel_time": 0.0, "nearest_dest_dist": 0.0, "pre_reachable": 5, "pre_connected": true, "pre_isolation": 0.75, "post_travel_time": Infinity, "post_reachable": 0, "post_connected": false, "post_isolation": 1.0, "connectivity_lost": true, "newly_isolated": true, "travel_time_increase": 0.0, "accessibility_change": 1.0, "accessibility_status": "isolated", "score_accessibility": 1.0, "score_population": 0.261, "score_infrastructure": 1.0, "score_isolation": 0.8, "score_flood": 0.485, "priority_score": 0.734, "priority_rank": 19, "priority_category": "very_high"}, "geometry": {"type": "Point", "coordinates": [94.2, 26.96]}}, {"id": "35", "type": "Feature", "properties": {"name": "Dakhinpat", "settlement_type": "village", "est_population": 3200, "district": "Majuli", "place": "village", "osm_id": 548206, "is_flooded": true, "flood_depth_m": 2.05, "pre_travel_time": 13.5, "nearest_dest_dist": 6.75, "pre_reachable": 5, "pre_connected": true, "pre_isolation": 0.75, "post_travel_time": Infinity, "post_reachable": 0, "post_connected": false, "post_isolation": 1.0, "connectivity_lost": true, "newly_isolated": true, "travel_time_increase": Infinity, "accessibility_change": 1.0, "accessibility_status": "isolated", "score_accessibility": 1.0, "score_population": 0.252, "score_infrastructure": 1.0, "score_isolation": 0.8, "score_flood": 0.408, "priority_score": 0.724, "priority_rank": 22, "priority_category": "very_high"}, "geometry": {"type": "Point", "coordinates": [94.28, 26.92]}}, {"id": "36", "type": "Feature", "properties": {"name": "Bengena-ati", "settlement_type": "village", "est_population": 2800, "district": "Majuli", "place": "village", "osm_id": 820831, "is_flooded": true, "flood_depth_m": 0.84, "pre_travel_time": 14.89, "nearest_dest_dist": 7.445, "pre_reachable": 5, "pre_connected": true, "pre_isolation": 0.75, "post_travel_time": Infinity, "post_reachable": 0, "post_connected": false, "post_isolation": 1.0, "connectivity_lost": true, "newly_isolated": true, "travel_time_increase": Infinity, "accessibility_change": 1.0, "accessibility_status": "isolated", "score_accessibility": 1.0, "score_population": 0.249, "score_infrastructure": 1.0, "score_isolation": 0.8, "score_flood": 0.167, "priority_score": 0.699, "priority_rank": 34, "priority_category": "very_high"}, "geometry": {"type": "Point", "coordinates": [94.15, 26.91]}}, {"id": "37", "type": "Feature", "properties": {"name": "Salmora", "settlement_type": "village", "est_population": 3100, "district": "Majuli", "place": "village", "osm_id": 322239, "is_flooded": true, "flood_depth_m": 2.67, "pre_travel_time": 0.0, "nearest_dest_dist": 0.0, "pre_reachable": 5, "pre_connected": true, "pre_isolation": 0.75, "post_travel_time": Infinity, "post_reachable": 0, "post_connected": false, "post_isolation": 1.0, "connectivity_lost": true, "newly_isolated": true, "travel_time_increase": 0.0, "accessibility_change": 1.0, "accessibility_status": "isolated", "score_accessibility": 1.0, "score_population": 0.251, "score_infrastructure": 1.0, "score_isolation": 0.8, "score_flood": 0.531, "priority_score": 0.736, "priority_rank": 16, "priority_category": "very_high"}, "geometry": {"type": "Point", "coordinates": [94.25, 26.89]}}, {"id": "38", "type": "Feature", "properties": {"name": "Rawnapar", "settlement_type": "village", "est_population": 1800, "district": "Majuli", "place": "village", "osm_id": 312003, "is_flooded": true, "flood_depth_m": 2.38, "pre_travel_time": 16.98, "nearest_dest_dist": 8.49, "pre_reachable": 4, "pre_connected": true, "pre_isolation": 0.8, "post_travel_time": Infinity, "post_reachable": 0, "post_connected": false, "post_isolation": 1.0, "connectivity_lost": true, "newly_isolated": true, "travel_time_increase": Infinity, "accessibility_change": 1.0, "accessibility_status": "isolated", "score_accessibility": 1.0, "score_population": 0.241, "score_infrastructure": 1.0, "score_isolation": 0.8, "score_flood": 0.473, "priority_score": 0.728, "priority_rank": 21, "priority_category": "very_high"}, "geometry": {"type": "Point", "coordinates": [94.25, 26.97]}}, {"id": "39", "type": "Feature", "properties": {"name": "Bongaon", "settlement_type": "village", "est_population": 2200, "district": "Majuli", "place": "village", "osm_id": 934388, "is_flooded": true, "flood_depth_m": 2.08, "pre_travel_time": 11.96, "nearest_dest_dist": 5.98, "pre_reachable": 5, "pre_connected": true, "pre_isolation": 0.75, "post_travel_time": Infinity, "post_reachable": 0, "post_connected": false, "post_isolation": 1.0, "connectivity_lost": true, "newly_isolated": true, "travel_time_increase": Infinity, "accessibility_change": 1.0, "accessibility_status": "isolated", "score_accessibility": 1.0, "score_population": 0.244, "score_infrastructure": 1.0, "score_isolation": 0.8, "score_flood": 0.414, "priority_score": 0.722, "priority_rank": 24, "priority_category": "very_high"}, "geometry": {"type": "Point", "coordinates": [94.12, 26.94]}}, {"id": "40", "type": "Feature", "properties": {"name": "Ahatguri", "settlement_type": "village", "est_population": 1500, "district": "Majuli", "place": "village", "osm_id": 642374, "is_flooded": true, "flood_depth_m": 1.69, "pre_travel_time": 16.98, "nearest_dest_dist": 8.49, "pre_reachable": 4, "pre_connected": true, "pre_isolation": 0.8, "post_travel_time": Infinity, "post_reachable": 0, "post_connected": false, "post_isolation": 1.0, "connectivity_lost": true, "newly_isolated": true, "travel_time_increase": Infinity, "accessibility_change": 1.0, "accessibility_status": "isolated", "score_accessibility": 1.0, "score_population": 0.239, "score_infrastructure": 1.0, "score_isolation": 0.8, "score_flood": 0.336, "priority_score": 0.713, "priority_rank": 28, "priority_category": "very_high"}, "geometry": {"type": "Point", "coordinates": [94.27, 26.965]}}, {"id": "41", "type": "Feature", "properties": {"name": "Ratanpur", "settlement_type": "village", "est_population": 1900, "district": "Majuli", "place": "village", "osm_id": 727910, "is_flooded": true, "flood_depth_m": 1.02, "pre_travel_time": 0.0, "nearest_dest_dist": 0.0, "pre_reachable": 5, "pre_connected": true, "pre_isolation": 0.75, "post_travel_time": Infinity, "post_reachable": 0, "post_connected": false, "post_isolation": 1.0, "connectivity_lost": true, "newly_isolated": true, "travel_time_increase": 0.0, "accessibility_change": 1.0, "accessibility_status": "isolated", "score_accessibility": 1.0, "score_population": 0.242, "score_infrastructure": 1.0, "score_isolation": 0.8, "score_flood": 0.203, "priority_score": 0.701, "priority_rank": 32, "priority_category": "very_high"}, "geometry": {"type": "Point", "coordinates": [94.18, 26.925]}}, {"id": "42", "type": "Feature", "properties": {"name": "Rangachahi", "settlement_type": "village", "est_population": 1400, "district": "Majuli", "place": "village", "osm_id": 457413, "is_flooded": true, "flood_depth_m": 1.39, "pre_travel_time": 0.0, "nearest_dest_dist": 0.0, "pre_reachable": 5, "pre_connected": true, "pre_isolation": 0.75, "post_travel_time": Infinity, "post_reachable": 0, "post_connected": false, "post_isolation": 1.0, "connectivity_lost": true, "newly_isolated": true, "travel_time_increase": 0.0, "accessibility_change": 1.0, "accessibility_status": "isolated", "score_accessibility": 1.0, "score_population": 0.238, "score_infrastructure": 1.0, "score_isolation": 0.8, "score_flood": 0.276, "priority_score": 0.707, "priority_rank": 31, "priority_category": "very_high"}, "geometry": {"type": "Point", "coordinates": [94.2, 26.9]}}, {"id": "43", "type": "Feature", "properties": {"name": "Phulani", "settlement_type": "village", "est_population": 1100, "district": "Majuli", "place": "village", "osm_id": 226941, "is_flooded": true, "flood_depth_m": 2.88, "pre_travel_time": 20.95, "nearest_dest_dist": 10.475, "pre_reachable": 5, "pre_connected": true, "pre_isolation": 0.75, "post_travel_time": Infinity, "post_reachable": 0, "post_connected": false, "post_isolation": 1.0, "connectivity_lost": true, "newly_isolated": true, "travel_time_increase": Infinity, "accessibility_change": 1.0, "accessibility_status": "isolated", "score_accessibility": 1.0, "score_population": 0.236, "score_infrastructure": 1.0, "score_isolation": 0.8, "score_flood": 0.573, "priority_score": 0.736, "priority_rank": 16, "priority_category": "very_high"}, "geometry": {"type": "Point", "coordinates": [94.32, 26.935]}}, {"id": "44", "type": "Feature", "properties": {"name": "Nayabazaar", "settlement_type": "village", "est_population": 2500, "district": "Majuli", "place": "village", "osm_id": 139766, "is_flooded": true, "flood_depth_m": 2.02, "pre_travel_time": 0.0, "nearest_dest_dist": 0.0, "pre_reachable": 5, "pre_connected": true, "pre_isolation": 0.75, "post_travel_time": Infinity, "post_reachable": 0, "post_connected": false, "post_isolation": 1.0, "connectivity_lost": true, "newly_isolated": true, "travel_time_increase": 0.0, "accessibility_change": 1.0, "accessibility_status": "isolated", "score_accessibility": 1.0, "score_population": 0.247, "score_infrastructure": 1.0, "score_isolation": 0.8, "score_flood": 0.402, "priority_score": 0.722, "priority_rank": 24, "priority_category": "very_high"}, "geometry": {"type": "Point", "coordinates": [94.19, 26.955]}}, {"id": "45", "type": "Feature", "properties": {"name": "Karatipar", "settlement_type": "village", "est_population": 900, "district": "Majuli", "place": "village", "osm_id": 284334, "is_flooded": true, "flood_depth_m": 2.89, "pre_travel_time": 20.95, "nearest_dest_dist": 10.475, "pre_reachable": 5, "pre_connected": true, "pre_isolation": 0.75, "post_travel_time": Infinity, "post_reachable": 0, "post_connected": false, "post_isolation": 1.0, "connectivity_lost": true, "newly_isolated": true, "travel_time_increase": Infinity, "accessibility_change": 1.0, "accessibility_status": "isolated", "score_accessibility": 1.0, "score_population": 0.235, "score_infrastructure": 1.0, "score_isolation": 0.8, "score_flood": 0.575, "priority_score": 0.736, "priority_rank": 16, "priority_category": "very_high"}, "geometry": {"type": "Point", "coordinates": [94.3, 26.915]}}, {"id": "46", "type": "Feature", "properties": {"name": "Borguri", "settlement_type": "village", "est_population": 1600, "district": "Majuli", "place": "village", "osm_id": 799116, "is_flooded": true, "flood_depth_m": 4.35, "pre_travel_time": 11.96, "nearest_dest_dist": 5.98, "pre_reachable": 5, "pre_connected": true, "pre_isolation": 0.75, "post_travel_time": Infinity, "post_reachable": 0, "post_connected": false, "post_isolation": 1.0, "connectivity_lost": true, "newly_isolated": true, "travel_time_increase": Infinity, "accessibility_change": 1.0, "accessibility_status": "isolated", "score_accessibility": 1.0, "score_population": 0.24, "score_infrastructure": 1.0, "score_isolation": 0.8, "score_flood": 0.865, "priority_score": 0.766, "priority_rank": 8, "priority_category": "very_high"}, "geometry": {"type": "Point", "coordinates": [94.13, 26.97]}}, {"id": "47", "type": "Feature", "properties": {"name": "Bali Chapori", "settlement_type": "hamlet", "est_population": 500, "district": "Majuli", "place": "hamlet", "osm_id": 52514, "is_flooded": true, "flood_depth_m": 1.96, "pre_travel_time": 14.89, "nearest_dest_dist": 7.445, "pre_reachable": 5, "pre_connected": true, "pre_isolation": 0.75, "post_travel_time": Infinity, "post_reachable": 0, "post_connected": false, "post_isolation": 1.0, "connectivity_lost": true, "newly_isolated": true, "travel_time_increase": Infinity, "accessibility_change": 1.0, "accessibility_status": "isolated", "score_accessibility": 1.0, "score_population": 0.232, "score_infrastructure": 1.0, "score_isolation": 0.8, "score_flood": 0.39, "priority_score": 0.717, "priority_rank": 27, "priority_category": "very_high"}, "geometry": {"type": "Point", "coordinates": [94.17, 26.88]}}, {"id": "48", "type": "Feature", "properties": {"name": "Maijan Chapori", "settlement_type": "hamlet", "est_population": 350, "district": "Majuli", "place": "hamlet", "osm_id": 357397, "is_flooded": true, "flood_depth_m": 2.74, "pre_travel_time": 0.0, "nearest_dest_dist": 0.0, "pre_reachable": 5, "pre_connected": true, "pre_isolation": 0.75, "post_travel_time": Infinity, "post_reachable": 0, "post_connected": false, "post_isolation": 1.0, "connectivity_lost": true, "newly_isolated": true, "travel_time_increase": 0.0, "accessibility_change": 1.0, "accessibility_status": "isolated", "score_accessibility": 1.0, "score_population": 0.231, "score_infrastructure": 1.0, "score_isolation": 0.8, "score_flood": 0.545, "priority_score": 0.732, "priority_rank": 20, "priority_category": "very_high"}, "geometry": {"type": "Point", "coordinates": [94.35, 26.98]}}]}