{"type": "FeatureCollection", "features": [{"id": "0", "type": "Feature", "properties": {"osm_id": 3547099282, "name": "Health Sub Centre", "amenity": "hospital", "beds": 50, "facility_type": "hospital", "district": "Dhemaji", "is_flooded": false, "flood_depth_m": 0.0, "settlements_served": 10, "population_served": 4750, "is_operational": true}, "geometry": {"type": "Point", "coordinates": [95.0720967, 27.7551763]}}, {"id": "1", "type": "Feature", "properties": {"osm_id": 5843462204, "name": "Boikunthapur Health Sub-Centre", "amenity": "hospital", "beds": 50, "facility_type": "hospital", "district": "Dhemaji", "is_flooded": false, "flood_depth_m": 0.0, "settlements_served": 10, "population_served": 4750, "is_operational": true}, "geometry": {"type": "Point", "coordinates": [95.0526353, 27.7500133]}}, {"id": "2", "type": "Feature", "properties": {"osm_id": 6913038564, "name": "Happy Nursing Home", "amenity": "clinic", "beds": 15, "facility_type": "clinic", "district": "Lakhimpur", "is_flooded": false, "flood_depth_m": 0.0, "settlements_served": 1, "population_served": 105376, "is_operational": true}, "geometry": {"type": "Point", "coordinates": [94.1090235, 27.2388555]}}, {"id": "3", "type": "Feature", "properties": {"osm_id": 6913293197, "name": "Mid Town Hospital and Research Institute", "amenity": "hospital", "beds": 50, "facility_type": "hospital", "district": "Lakhimpur", "is_flooded": false, "flood_depth_m": 0.0, "settlements_served": 1, "population_served": 105376, "is_operational": true}, "geometry": {"type": "Point", "coordinates": [94.1045107, 27.2482332]}}, {"id": "4", "type": "Feature", "properties": {"osm_id": 7150745420, "name": "Dhakuakhana F.R.U", "amenity": "hospital", "beds": 50, "facility_type": "hospital", "district": "Lakhimpur", "is_flooded": false, "flood_depth_m": 0.0, "settlements_served": 0, "population_served": 0, "is_operational": true}, "geometry": {"type": "Point", "coordinates": [94.4223158, 27.1958851]}}, {"id": "5", "type": "Feature", "properties": {"osm_id": 7150745429, "name": "Matmora State Dispensary", "amenity": "clinic", "beds": 15, "facility_type": "clinic", "district": "Lakhimpur", "is_flooded": false, "flood_depth_m": 0.0, "settlements_served": 0, "population_served": 0, "is_operational": true}, "geometry": {"type": "Point", "coordinates": [94.5079045, 27.2062639]}}, {"id": "6", "type": "Feature", "properties": {"osm_id": 7150745443, "name": "State DispensaryCH, Gormur", "amenity": "clinic", "beds": 15, "facility_type": "clinic", "district": "Majuli", "is_flooded": false, "flood_depth_m": 0.0, "settlements_served": 0, "population_served": 0, "is_operational": true}, "geometry": {"type": "Point", "coordinates": [94.143375, 26.975469]}}, {"id": "7", "type": "Feature", "properties": {"osm_id": 7150745444, "name": "Laluk Model Hospital", "amenity": "hospital", "beds": 50, "facility_type": "hospital", "district": "Lakhimpur", "is_flooded": false, "flood_depth_m": 0.0, "settlements_served": 2, "population_served": 15750, "is_operational": true}, "geometry": {"type": "Point", "coordinates": [93.9295187, 27.1239777]}}, {"id": "8", "type": "Feature", "properties": {"osm_id": 7150745446, "name": "Ramdhan Dikhari Hospital", "amenity": "hospital", "beds": 50, "facility_type": "hospital", "district": "Dhemaji", "is_flooded": false, "flood_depth_m": 0.0, "settlements_served": 10, "population_served": 4750, "is_operational": true}, "geometry": {"type": "Point", "coordinates": [95.0564931, 27.7246434]}}, {"id": "9", "type": "Feature", "properties": {"osm_id": 7150745450, "name": "Bengenagarah Hospital", "amenity": "hospital", "beds": 50, "facility_type": "hospital", "district": "Lakhimpur", "is_flooded": false, "flood_depth_m": 0.0, "settlements_served": 0, "population_served": 0, "is_operational": true}, "geometry": {"type": "Point", "coordinates": [94.543537, 27.350498]}}, {"id": "10", "type": "Feature", "properties": {"osm_id": 7150745458, "name": "Bebejia State Dispensary", "amenity": "clinic", "beds": 15, "facility_type": "clinic", "district": "Lakhimpur", "is_flooded": false, "flood_depth_m": 0.0, "settlements_served": 0, "population_served": 0, "is_operational": true}, "geometry": {"type": "Point", "coordinates": [94.3159217, 27.2205871]}}, {"id": "11", "type": "Feature", "properties": {"osm_id": 7150745460, "name": "Bongaon State Dispensary", "amenity": "clinic", "beds": 15, "facility_type": "clinic", "district": "Majuli", "is_flooded": false, "flood_depth_m": 0.0, "settlements_served": 0, "population_served": 0, "is_operational": true}, "geometry": {"type": "Point", "coordinates": [94.2791079, 26.9591552]}}, {"id": "12", "type": "Feature", "properties": {"osm_id": 7150745466, "name": "Dhemaji Civil Hospital", "amenity": "hospital", "beds": 50, "facility_type": "hospital", "district": "Dhemaji", "is_flooded": false, "flood_depth_m": 0.0, "settlements_served": 1, "population_served": 25340, "is_operational": true}, "geometry": {"type": "Point", "coordinates": [94.5743654, 27.4580357]}}, {"id": "13", "type": "Feature", "properties": {"osm_id": 7150745477, "name": "Dolouhat Tea Garden Hospital", "amenity": "hospital", "beds": 50, "facility_type": "hospital", "district": "Lakhimpur", "is_flooded": false, "flood_depth_m": 0.0, "settlements_served": 2, "population_served": 15750, "is_operational": true}, "geometry": {"type": "Point", "coordinates": [93.964693, 27.183871]}}, {"id": "14", "type": "Feature", "properties": {"osm_id": 7150745490, "name": "Deezo Tea Garden Hospital", "amenity": "hospital", "beds": 50, "facility_type": "hospital", "district": "Lakhimpur", "is_flooded": false, "flood_depth_m": 0.0, "settlements_served": 2, "population_served": 1500, "is_operational": true}, "geometry": {"type": "Point", "coordinates": [94.0174109, 27.2727496]}}, {"id": "15", "type": "Feature", "properties": {"osm_id": 7150745498, "name": "Panigaon Hospital", "amenity": "hospital", "beds": 50, "facility_type": "hospital", "district": "Lakhimpur", "is_flooded": false, "flood_depth_m": 0.0, "settlements_served": 1, "population_served": 1900, "is_operational": true}, "geometry": {"type": "Point", "coordinates": [94.1092315, 27.1401547]}}, {"id": "16", "type": "Feature", "properties": {"osm_id": 7150745508, "name": "Azad State Dispensary", "amenity": "clinic", "beds": 15, "facility_type": "clinic", "district": "Lakhimpur", "is_flooded": false, "flood_depth_m": 0.0, "settlements_served": 0, "population_served": 0, "is_operational": true}, "geometry": {"type": "Point", "coordinates": [94.1323744, 27.1875599]}}, {"id": "17", "type": "Feature", "properties": {"osm_id": 7150745515, "name": "Kherajkhat State Dispensary", "amenity": "clinic", "beds": 15, "facility_type": "clinic", "district": "Lakhimpur", "is_flooded": false, "flood_depth_m": 0.0, "settlements_served": 0, "population_served": 0, "is_operational": true}, "geometry": {"type": "Point", "coordinates": [93.834513, 27.028934]}}, {"id": "18", "type": "Feature", "properties": {"osm_id": 7150745518, "name": "Narayanpur Model Hospital", "amenity": "hospital", "beds": 50, "facility_type": "hospital", "district": "Lakhimpur", "is_flooded": false, "flood_depth_m": 0.0, "settlements_served": 0, "population_served": 0, "is_operational": true}, "geometry": {"type": "Point", "coordinates": [93.8661852, 26.9666701]}}, {"id": "19", "type": "Feature", "properties": {"osm_id": 7150745527, "name": "Civil Hospital, North Lakhimpur", "amenity": "hospital", "beds": 50, "facility_type": "hospital", "district": "Lakhimpur", "is_flooded": false, "flood_depth_m": 0.0, "settlements_served": 1, "population_served": 105376, "is_operational": true}, "geometry": {"type": "Point", "coordinates": [94.1003308, 27.2613471]}}, {"id": "20", "type": "Feature", "properties": {"osm_id": 7150745532, "name": "Jonai Civil Hospital", "amenity": "hospital", "beds": 50, "facility_type": "hospital", "district": "Dhemaji", "is_flooded": false, "flood_depth_m": 0.0, "settlements_served": 0, "population_served": 0, "is_operational": true}, "geometry": {"type": "Point", "coordinates": [95.211262, 27.837655]}}, {"id": "21", "type": "Feature", "properties": {"osm_id": 7532350971, "name": "Dhemaji Eye Clinic", "amenity": "clinic", "beds": 15, "facility_type": "clinic", "district": "Dhemaji", "is_flooded": false, "flood_depth_m": 0.0, "settlements_served": 0, "population_served": 0, "is_operational": true}, "geometry": {"type": "Point", "coordinates": [94.5612264, 27.4742893]}}, {"id": "22", "type": "Feature", "properties": {"osm_id": 7532350985, "name": "Dr. Brinchi", "amenity": "doctors", "beds": 5, "facility_type": "doctors", "district": "Dhemaji", "is_flooded": false, "flood_depth_m": 0.0, "settlements_served": 0, "population_served": 0, "is_operational": true}, "geometry": {"type": "Point", "coordinates": [94.5698492, 27.4862203]}}, {"id": "23", "type": "Feature", "properties": {"osm_id": 7532350993, "name": "Mili Nursing Home", "amenity": "clinic", "beds": 15, "facility_type": "clinic", "district": "Dhemaji", "is_flooded": false, "flood_depth_m": 0.0, "settlements_served": 0, "population_served": 0, "is_operational": true}, "geometry": {"type": "Point", "coordinates": [94.5578241, 27.4727248]}}, {"id": "24", "type": "Feature", "properties": {"osm_id": 7532351000, "name": "BCB Care Hospital", "amenity": "hospital", "beds": 50, "facility_type": "hospital", "district": "Dhemaji", "is_flooded": false, "flood_depth_m": 0.0, "settlements_served": 0, "population_served": 0, "is_operational": true}, "geometry": {"type": "Point", "coordinates": [94.5580656, 27.4701787]}}, {"id": "25", "type": "Feature", "properties": {"osm_id": 7532351004, "name": "Mili Hospital & Recharch Centre", "amenity": "hospital", "beds": 50, "facility_type": "hospital", "district": "Dhemaji", "is_flooded": false, "flood_depth_m": 0.0, "settlements_served": 0, "population_served": 0, "is_operational": true}, "geometry": {"type": "Point", "coordinates": [94.5580985, 27.4723298]}}, {"id": "26", "type": "Feature", "properties": {"osm_id": 618204345, "name": "", "amenity": "hospital", "beds": 50, "facility_type": "hospital", "district": "Dhemaji", "is_flooded": false, "flood_depth_m": 0.0, "settlements_served": 10, "population_served": 4750, "is_operational": true}, "geometry": {"type": "Point", "coordinates": [95.05263802, 27.750048400000004]}}, {"id": "27", "type": "Feature", "properties": {"osm_id": 618206959, "name": "Laimekuri", "amenity": "hospital", "beds": 50, "facility_type": "hospital", "district": "Dhemaji", "is_flooded": false, "flood_depth_m": 0.0, "settlements_served": 10, "population_served": 4750, "is_operational": true}, "geometry": {"type": "Point", "coordinates": [95.07214361999999, 27.75527336]}}, {"id": "28", "type": "Feature", "properties": {"osm_id": 638488504, "name": "Veterinary Hospital", "amenity": "hospital", "beds": 50, "facility_type": "hospital", "district": "Lakhimpur", "is_flooded": false, "flood_depth_m": 0.0, "settlements_served": 0, "population_served": 0, "is_operational": true}, "geometry": {"type": "Point", "coordinates": [93.91480323333333, 27.0242517]}}, {"id": "29", "type": "Feature", "properties": {"osm_id": 1042846435, "name": "Silapathar Model Hospital", "amenity": "hospital", "beds": 50, "facility_type": "hospital", "district": "Dhemaji", "is_flooded": false, "flood_depth_m": 0.0, "settlements_served": 14, "population_served": 32935, "is_operational": true}, "geometry": {"type": "Point", "coordinates": [94.71922367142858, 27.587912585714285]}}, {"id": "30", "type": "Feature", "properties": {"osm_id": 1092483327, "name": "Lakhimpur Cancer Centre", "amenity": "hospital", "beds": 50, "facility_type": "hospital", "district": "Lakhimpur", "is_flooded": false, "flood_depth_m": 0.0, "settlements_served": 1, "population_served": 105376, "is_operational": true}, "geometry": {"type": "Point", "coordinates": [94.0998605, 27.26138966]}}, {"id": "31", "type": "Feature", "properties": {"osm_id": 1092483328, "name": "Maternity and Child Health Hospital", "amenity": "hospital", "beds": 50, "facility_type": "hospital", "district": "Lakhimpur", "is_flooded": false, "flood_depth_m": 0.0, "settlements_served": 1, "population_served": 105376, "is_operational": true}, "geometry": {"type": "Point", "coordinates": [94.1014461, 27.261852179999998]}}, {"id": "32", "type": "Feature", "properties": {"osm_id": 1092483354, "name": "Lakhimpur Medical College and Hospital", "amenity": "hospital", "beds": 50, "facility_type": "hospital", "district": "Lakhimpur", "is_flooded": false, "flood_depth_m": 0.0, "settlements_served": 1, "population_served": 105376, "is_operational": true}, "geometry": {"type": "Point", "coordinates": [94.10581164, 27.261313159999997]}}]}