{"type": "FeatureCollection", "features": [{"id": "0", "type": "Feature", "properties": {"serves_settlement": "Jonai", "district": "Dhemaji", "population": 15420, "water_gap_km": 0.74, "status": "critically_isolated"}, "geometry": {"type": "Point", "coordinates": [95.2227554, 27.8358076]}}, {"id": "1", "type": "Feature", "properties": {"serves_settlement": "Dhakuakhana", "district": "Lakhimpur", "population": 12800, "water_gap_km": 0.92, "status": "critically_isolated"}, "geometry": {"type": "Point", "coordinates": [94.4484291, 27.1964144]}}, {"id": "2", "type": "Feature", "properties": {"serves_settlement": "Gogamukh", "district": "Dhemaji", "population": 12750, "water_gap_km": 23.18, "status": "critically_isolated"}, "geometry": {"type": "Point", "coordinates": [94.3050377, 27.2265484]}}, {"id": "3", "type": "Feature", "properties": {"serves_settlement": "Kamalabari", "district": "Majuli", "population": 12200, "water_gap_km": 3.85, "status": "critically_isolated"}, "geometry": {"type": "Point", "coordinates": [94.1447403, 26.9756838]}}, {"id": "4", "type": "Feature", "properties": {"serves_settlement": "Bihpuria", "district": "Lakhimpur", "population": 10500, "water_gap_km": 0.18, "status": "critically_isolated"}, "geometry": {"type": "Point", "coordinates": [93.9149532, 27.0192599]}}, {"id": "5", "type": "Feature", "properties": {"serves_settlement": "Garamur", "district": "Majuli", "population": 8500, "water_gap_km": 1.08, "status": "critically_isolated"}, "geometry": {"type": "Point", "coordinates": [94.146634, 26.9789782]}}, {"id": "6", "type": "Feature", "properties": {"serves_settlement": "Auniati", "district": "Majuli", "population": 4500, "water_gap_km": 4.33, "status": "isolated"}, "geometry": {"type": "Point", "coordinates": [94.1313588, 26.9748025]}}, {"id": "7", "type": "Feature", "properties": {"serves_settlement": "Bordoloni", "district": "Dhemaji", "population": 4100, "water_gap_km": 11.96, "status": "isolated"}, "geometry": {"type": "Point", "coordinates": [94.5329788, 27.4548615]}}, {"id": "8", "type": "Feature", "properties": {"serves_settlement": "Dakhinpat", "district": "Majuli", "population": 3200, "water_gap_km": 5.0, "status": "isolated"}, "geometry": {"type": "Point", "coordinates": [94.2770943, 26.957931]}}, {"id": "9", "type": "Feature", "properties": {"serves_settlement": "Dimow", "district": "Dhemaji", "population": 3200, "water_gap_km": 6.94, "status": "isolated"}, "geometry": {"type": "Point", "coordinates": [94.7723523, 27.6197022]}}, {"id": "10", "type": "Feature", "properties": {"serves_settlement": "Kadam", "district": "Lakhimpur", "population": 2200, "water_gap_km": 5.81, "status": "isolated"}, "geometry": {"type": "Point", "coordinates": [94.1291758, 27.2720084]}}, {"id": "11", "type": "Feature", "properties": {"serves_settlement": "Jangraimukh", "district": "Lakhimpur", "population": 750, "water_gap_km": 14.27, "status": "isolated"}, "geometry": {"type": "Point", "coordinates": [94.2770286, 26.9639849]}}, {"id": "12", "type": "Feature", "properties": {"serves_settlement": "Bilmukh", "district": "Lakhimpur", "population": 750, "water_gap_km": 8.82, "status": "isolated"}, "geometry": {"type": "Point", "coordinates": [94.314824, 27.2240451]}}, {"id": "13", "type": "Feature", "properties": {"serves_settlement": "Naryanpur", "district": "Lakhimpur", "population": 750, "water_gap_km": 1.82, "status": "isolated"}, "geometry": {"type": "Point", "coordinates": [93.8652845, 26.9661965]}}, {"id": "14", "type": "Feature", "properties": {"serves_settlement": "Nargargaon", "district": "Lakhimpur", "population": 750, "water_gap_km": 4.07, "status": "isolated"}, "geometry": {"type": "Point", "coordinates": [94.146634, 26.9789782]}}, {"id": "15", "type": "Feature", "properties": {"serves_settlement": "Pahumara", "district": "Lakhimpur", "population": 750, "water_gap_km": 0.21, "status": "isolated"}, "geometry": {"type": "Point", "coordinates": [94.0519983, 27.1998517]}}, {"id": "16", "type": "Feature", "properties": {"serves_settlement": "Deodia", "district": "Majuli", "population": 520, "water_gap_km": 3.11, "status": "isolated"}, "geometry": {"type": "Point", "coordinates": [94.1447403, 26.9756838]}}, {"id": "17", "type": "Feature", "properties": {"serves_settlement": "Birinabari", "district": "Majuli", "population": 520, "water_gap_km": 8.71, "status": "isolated"}, "geometry": {"type": "Point", "coordinates": [94.1211914, 26.9794243]}}, {"id": "18", "type": "Feature", "properties": {"serves_settlement": "Kakarikata", "district": "Majuli", "population": 520, "water_gap_km": 4.79, "status": "isolated"}, "geometry": {"type": "Point", "coordinates": [94.1313588, 26.9748025]}}, {"id": "19", "type": "Feature", "properties": {"serves_settlement": "Kaibatra", "district": "Majuli", "population": 520, "water_gap_km": 0.75, "status": "isolated"}, "geometry": {"type": "Point", "coordinates": [94.146634, 26.9789782]}}, {"id": "20", "type": "Feature", "properties": {"serves_settlement": "Mathuri Pathar", "district": "Dhemaji", "population": 450, "water_gap_km": 4.56, "status": "isolated"}, "geometry": {"type": "Point", "coordinates": [94.7322777, 27.6031347]}}, {"id": "21", "type": "Feature", "properties": {"serves_settlement": "Dijmur", "district": "Dhemaji", "population": 450, "water_gap_km": 10.91, "status": "isolated"}, "geometry": {"type": "Point", "coordinates": [94.788306, 27.5931799]}}, {"id": "22", "type": "Feature", "properties": {"serves_settlement": "Sikari", "district": "Dhemaji", "population": 450, "water_gap_km": 0.84, "status": "isolated"}, "geometry": {"type": "Point", "coordinates": [95.0882333, 27.7456647]}}, {"id": "23", "type": "Feature", "properties": {"serves_settlement": "Burisuti", "district": "Dhemaji", "population": 450, "water_gap_km": 0.79, "status": "isolated"}, "geometry": {"type": "Point", "coordinates": [95.0425586, 27.6929751]}}, {"id": "24", "type": "Feature", "properties": {"serves_settlement": "Majarbari Ghat", "district": "Dhemaji", "population": 450, "water_gap_km": 11.83, "status": "isolated"}, "geometry": {"type": "Point", "coordinates": [94.788306, 27.5931799]}}, {"id": "25", "type": "Feature", "properties": {"serves_settlement": "Huliagaon", "district": "Dhemaji", "population": 450, "water_gap_km": 8.12, "status": "isolated"}, "geometry": {"type": "Point", "coordinates": [94.5261553, 27.5081384]}}, {"id": "26", "type": "Feature", "properties": {"serves_settlement": "Phukangaon", "district": "Dhemaji", "population": 450, "water_gap_km": 4.78, "status": "isolated"}, "geometry": {"type": "Point", "coordinates": [94.6518375, 27.5422772]}}, {"id": "27", "type": "Feature", "properties": {"serves_settlement": "Kuli Tiniali", "district": "Dhemaji", "population": 450, "water_gap_km": 4.15, "status": "isolated"}, "geometry": {"type": "Point", "coordinates": [95.2041018, 27.8365461]}}, {"id": "28", "type": "Feature", "properties": {"serves_settlement": "Borodondi", "district": "Dhemaji", "population": 450, "water_gap_km": 1.45, "status": "isolated"}, "geometry": {"type": "Point", "coordinates": [95.0513783, 27.7512168]}}, {"id": "29", "type": "Feature", "properties": {"serves_settlement": "Borhati", "district": "Dhemaji", "population": 450, "water_gap_km": 2.66, "status": "isolated"}, "geometry": {"type": "Point", "coordinates": [95.0513783, 27.7512168]}}, {"id": "30", "type": "Feature", "properties": {"serves_settlement": "Telam B\u00e9dum", "district": "Dhemaji", "population": 450, "water_gap_km": 4.8, "status": "isolated"}, "geometry": {"type": "Point", "coordinates": [95.0513783, 27.7512168]}}, {"id": "31", "type": "Feature", "properties": {"serves_settlement": "Gali", "district": "Dhemaji", "population": 450, "water_gap_km": 3.48, "status": "isolated"}, "geometry": {"type": "Point", "coordinates": [95.0882333, 27.7456647]}}, {"id": "32", "type": "Feature", "properties": {"serves_settlement": "Junkareng", "district": "Dhemaji", "population": 450, "water_gap_km": 7.15, "status": "isolated"}, "geometry": {"type": "Point", "coordinates": [95.2041018, 27.8365461]}}, {"id": "33", "type": "Feature", "properties": {"serves_settlement": "Jalakia Suti", "district": "Dhemaji", "population": 450, "water_gap_km": 0.95, "status": "isolated"}, "geometry": {"type": "Point", "coordinates": [94.7723523, 27.6197022]}}, {"id": "34", "type": "Feature", "properties": {"serves_settlement": "Seren", "district": "Dhemaji", "population": 450, "water_gap_km": 14.5, "status": "isolated"}, "geometry": {"type": "Point", "coordinates": [95.0513783, 27.7512168]}}, {"id": "35", "type": "Feature", "properties": {"serves_settlement": "Lakhipur B\u00e9dum", "district": "Dhemaji", "population": 450, "water_gap_km": 2.82, "status": "isolated"}, "geometry": {"type": "Point", "coordinates": [95.0513783, 27.7512168]}}, {"id": "36", "type": "Feature", "properties": {"serves_settlement": "Ghagara Adi", "district": "Dhemaji", "population": 450, "water_gap_km": 5.19, "status": "isolated"}, "geometry": {"type": "Point", "coordinates": [94.7532208, 27.6206763]}}, {"id": "37", "type": "Feature", "properties": {"serves_settlement": "Joriguri", "district": "Dhemaji", "population": 450, "water_gap_km": 1.7, "status": "isolated"}, "geometry": {"type": "Point", "coordinates": [94.7701137, 27.5839109]}}, {"id": "38", "type": "Feature", "properties": {"serves_settlement": "Kendugurigaon", "district": "Dhemaji", "population": 450, "water_gap_km": 0.91, "status": "isolated"}, "geometry": {"type": "Point", "coordinates": [94.6959696, 27.5750039]}}, {"id": "39", "type": "Feature", "properties": {"serves_settlement": "Bormuria Chapori", "district": "Dhemaji", "population": 450, "water_gap_km": 0.4, "status": "isolated"}, "geometry": {"type": "Point", "coordinates": [94.7368976, 27.5460777]}}, {"id": "40", "type": "Feature", "properties": {"serves_settlement": "Barati Gaon", "district": "Dhemaji", "population": 450, "water_gap_km": 2.07, "status": "isolated"}, "geometry": {"type": "Point", "coordinates": [94.7035128, 27.5813988]}}, {"id": "41", "type": "Feature", "properties": {"serves_settlement": "Amguri Bali", "district": "Dhemaji", "population": 450, "water_gap_km": 4.17, "status": "isolated"}, "geometry": {"type": "Point", "coordinates": [94.7104339, 27.4867286]}}, {"id": "42", "type": "Feature", "properties": {"serves_settlement": "Majorbari", "district": "Dhemaji", "population": 450, "water_gap_km": 5.96, "status": "isolated"}, "geometry": {"type": "Point", "coordinates": [94.788306, 27.5931799]}}, {"id": "43", "type": "Feature", "properties": {"serves_settlement": "Archipathar", "district": "Dhemaji", "population": 450, "water_gap_km": 4.49, "status": "isolated"}, "geometry": {"type": "Point", "coordinates": [94.7723523, 27.6197022]}}, {"id": "44", "type": "Feature", "properties": {"serves_settlement": "Kali Ghat", "district": "Lakhimpur", "population": 250, "water_gap_km": 6.02, "status": "isolated"}, "geometry": {"type": "Point", "coordinates": [94.1053247, 27.1160844]}}, {"id": "45", "type": "Feature", "properties": {"serves_settlement": "Malani", "district": "Dhemaji", "population": 150, "water_gap_km": 4.96, "status": "isolated"}, "geometry": {"type": "Point", "coordinates": [94.7532208, 27.6206763]}}, {"id": "46", "type": "Feature", "properties": {"serves_settlement": "Kailashpur", "district": "Dhemaji", "population": 150, "water_gap_km": 3.68, "status": "isolated"}, "geometry": {"type": "Point", "coordinates": [94.68068, 27.5770212]}}, {"id": "47", "type": "Feature", "properties": {"serves_settlement": "Dhekiani Bam", "district": "Dhemaji", "population": 150, "water_gap_km": 1.98, "status": "isolated"}, "geometry": {"type": "Point", "coordinates": [94.68068, 27.5770212]}}, {"id": "48", "type": "Feature", "properties": {"serves_settlement": "Durpai", "district": "Dhemaji", "population": 150, "water_gap_km": 22.79, "status": "isolated"}, "geometry": {"type": "Point", "coordinates": [94.5261553, 27.5081384]}}]}