{"type": "FeatureCollection", "features": [{"id": "0", "type": "Feature", "properties": {"osm_id": 245754786, "name": "Naryanpur", "place": "village", "population": "", "est_population": 750, "settlement_type": "village", "district": "Lakhimpur", "is_flooded": false, "flood_depth_m": 0.0, "pre_travel_time": 2.7969999999999993, "nearest_dest_dist": 1.3984999999999996, "pre_reachable": 1, "pre_connected": true, "pre_isolation": 0.0, "post_travel_time": -1.0, "post_reachable": 0, "post_connected": false, "post_isolation": 1.0, "connectivity_lost": true, "newly_isolated": true, "travel_time_increase": 999.0, "accessibility_change": 1.0, "accessibility_status": "isolated", "care_time_min": Infinity, "has_care_access": false, "staging_lon": 93.86528, "staging_lat": 26.9662, "staging_gap_km": 1.82, "score_accessibility": 1.0, "score_population": 0.006, "score_infrastructure": 1.0, "score_isolation": 0.8, "score_flood": 0.0, "priority_score": 0.621, "priority_rank": 16, "priority_category": "very_high"}, "geometry": {"type": "Point", "coordinates": [93.8561117, 26.9520479]}}, {"id": "1", "type": "Feature", "properties": {"osm_id": 245755518, "name": "Nargargaon", "place": "village", "population": "", "est_population": 750, "settlement_type": "village", "district": "Lakhimpur", "is_flooded": false, "flood_depth_m": 0.0, "pre_travel_time": 13.123000000000001, "nearest_dest_dist": 6.5615000000000006, "pre_reachable": 1, "pre_connected": true, "pre_isolation": 0.0, "post_travel_time": -1.0, "post_reachable": 0, "post_connected": false, "post_isolation": 1.0, "connectivity_lost": true, "newly_isolated": true, "travel_time_increase": 999.0, "accessibility_change": 1.0, "accessibility_status": "isolated", "care_time_min": Infinity, "has_care_access": false, "staging_lon": 94.14663, "staging_lat": 26.97898, "staging_gap_km": 4.07, "score_accessibility": 1.0, "score_population": 0.006, "score_infrastructure": 1.0, "score_isolation": 0.8, "score_flood": 0.0, "priority_score": 0.621, "priority_rank": 16, "priority_category": "very_high"}, "geometry": {"type": "Point", "coordinates": [94.1652801, 27.0116178]}}, {"id": "2", "type": "Feature", "properties": {"osm_id": 245757287, "name": "North Lakhimpur", "place": "town", "population": "50000", "est_population": 105376, "settlement_type": "town", "district": "Lakhimpur", "is_flooded": false, "flood_depth_m": 0.0, "pre_travel_time": 0.824, "nearest_dest_dist": 0.412, "pre_reachable": 1, "pre_connected": true, "pre_isolation": 0.0, "post_travel_time": 0.824, "post_reachable": 1, "post_connected": true, "post_isolation": 0.0, "connectivity_lost": false, "newly_isolated": false, "travel_time_increase": 0.0, "accessibility_change": 0.0, "accessibility_status": "accessible", "care_time_min": 0.8, "has_care_access": true, "staging_lon": null, "staging_lat": null, "staging_gap_km": null, "score_accessibility": 0.0, "score_population": 1.0, "score_infrastructure": 0.0, "score_isolation": 0.0, "score_flood": 0.0, "priority_score": 0.25, "priority_rank": 50, "priority_category": "moderate"}, "geometry": {"type": "Point", "coordinates": [94.1038765, 27.236211]}}, {"id": "3", "type": "Feature", "properties": {"osm_id": 245757880, "name": "Dejoo", "place": "village", "population": "", "est_population": 750, "settlement_type": "village", "district": "Lakhimpur", "is_flooded": false, "flood_depth_m": 0.0, "pre_travel_time": 4.039000000000001, "nearest_dest_dist": 2.0195000000000003, "pre_reachable": 1, "pre_connected": true, "pre_isolation": 0.0, "post_travel_time": 4.039000000000001, "post_reachable": 1, "post_connected": true, "post_isolation": 0.0, "connectivity_lost": false, "newly_isolated": false, "travel_time_increase": 0.0, "accessibility_change": 0.0, "accessibility_status": "accessible", "care_time_min": 4.0, "has_care_access": true, "staging_lon": null, "staging_lat": null, "staging_gap_km": null, "score_accessibility": 0.0, "score_population": 0.006, "score_infrastructure": 0.0, "score_isolation": 0.0, "score_flood": 0.0, "priority_score": 0.001, "priority_rank": 58, "priority_category": "low"}, "geometry": {"type": "Point", "coordinates": [94.024071, 27.2727813]}}, {"id": "4", "type": "Feature", "properties": {"osm_id": 245760898, "name": "Dijmur", "place": "village", "population": "", "est_population": 450, "settlement_type": "village", "district": "Dhemaji", "is_flooded": false, "flood_depth_m": 0.0, "pre_travel_time": 35.391999999999996, "nearest_dest_dist": 17.695999999999998, "pre_reachable": 1, "pre_connected": true, "pre_isolation": 0.0, "post_travel_time": -1.0, "post_reachable": 0, "post_connected": false, "post_isolation": 1.0, "connectivity_lost": true, "newly_isolated": true, "travel_time_increase": 999.0, "accessibility_change": 1.0, "accessibility_status": "isolated", "care_time_min": Infinity, "has_care_access": false, "staging_lon": 94.78831, "staging_lat": 27.59318, "staging_gap_km": 10.91, "score_accessibility": 1.0, "score_population": 0.003, "score_infrastructure": 1.0, "score_isolation": 0.8, "score_flood": 0.0, "priority_score": 0.621, "priority_rank": 16, "priority_category": "very_high"}, "geometry": {"type": "Point", "coordinates": [94.8938544, 27.6228253]}}, {"id": "5", "type": "Feature", "properties": {"osm_id": 342099922, "name": "Majarbari Ghat", "place": "village", "population": "", "est_population": 450, "settlement_type": "village", "district": "Dhemaji", "is_flooded": false, "flood_depth_m": 0.0, "pre_travel_time": 42.370000000000005, "nearest_dest_dist": 21.185000000000002, "pre_reachable": 1, "pre_connected": true, "pre_isolation": 0.0, "post_travel_time": -1.0, "post_reachable": 0, "post_connected": false, "post_isolation": 1.0, "connectivity_lost": true, "newly_isolated": true, "travel_time_increase": 999.0, "accessibility_change": 1.0, "accessibility_status": "isolated", "care_time_min": Infinity, "has_care_access": false, "staging_lon": 94.78831, "staging_lat": 27.59318, "staging_gap_km": 11.83, "score_accessibility": 1.0, "score_population": 0.003, "score_infrastructure": 1.0, "score_isolation": 0.8, "score_flood": 0.0, "priority_score": 0.621, "priority_rank": 16, "priority_category": "very_high"}, "geometry": {"type": "Point", "coordinates": [94.9083595, 27.5946843]}}, {"id": "6", "type": "Feature", "properties": {"osm_id": 342100459, "name": "Kali Ghat", "place": "hamlet", "population": "", "est_population": 250, "settlement_type": "hamlet", "district": "Lakhimpur", "is_flooded": true, "flood_depth_m": 0.2, "pre_travel_time": 17.428, "nearest_dest_dist": 8.714, "pre_reachable": 1, "pre_connected": true, "pre_isolation": 0.0, "post_travel_time": -1.0, "post_reachable": 0, "post_connected": false, "post_isolation": 1.0, "connectivity_lost": true, "newly_isolated": true, "travel_time_increase": 999.0, "accessibility_change": 1.0, "accessibility_status": "isolated", "care_time_min": Infinity, "has_care_access": false, "staging_lon": 94.10532, "staging_lat": 27.11608, "staging_gap_km": 6.02, "score_accessibility": 1.0, "score_population": 0.301, "score_infrastructure": 1.0, "score_isolation": 0.8, "score_flood": 0.033, "priority_score": 0.699, "priority_rank": 5, "priority_category": "very_high"}, "geometry": {"type": "Point", "coordinates": [94.120265, 27.0636092]}}, {"id": "7", "type": "Feature", "properties": {"osm_id": 342100465, "name": "Pahumara", "place": "village", "population": "", "est_population": 750, "settlement_type": "village", "district": "Lakhimpur", "is_flooded": false, "flood_depth_m": 0.0, "pre_travel_time": 10.138999999999996, "nearest_dest_dist": 5.069499999999998, "pre_reachable": 1, "pre_connected": true, "pre_isolation": 0.0, "post_travel_time": -1.0, "post_reachable": 0, "post_connected": false, "post_isolation": 1.0, "connectivity_lost": true, "newly_isolated": true, "travel_time_increase": 999.0, "accessibility_change": 1.0, "accessibility_status": "isolated", "care_time_min": Infinity, "has_care_access": false, "staging_lon": 94.052, "staging_lat": 27.19985, "staging_gap_km": 0.21, "score_accessibility": 1.0, "score_population": 0.006, "score_infrastructure": 1.0, "score_isolation": 0.8, "score_flood": 0.0, "priority_score": 0.621, "priority_rank": 16, "priority_category": "very_high"}, "geometry": {"type": "Point", "coordinates": [94.053239, 27.2013447]}}, {"id": "8", "type": "Feature", "properties": {"osm_id": 1437215869, "name": "Bordoloni", "place": "village", "population": "", "est_population": 4100, "settlement_type": "village", "district": "Dhemaji", "is_flooded": true, "flood_depth_m": 0.2, "pre_travel_time": 15.848000000000004, "nearest_dest_dist": 7.924000000000001, "pre_reachable": 1, "pre_connected": true, "pre_isolation": 0.0, "post_travel_time": -1.0, "post_reachable": 0, "post_connected": false, "post_isolation": 1.0, "connectivity_lost": true, "newly_isolated": true, "travel_time_increase": 999.0, "accessibility_change": 1.0, "accessibility_status": "isolated", "care_time_min": Infinity, "has_care_access": false, "staging_lon": 94.53298, "staging_lat": 27.45486, "staging_gap_km": 11.96, "score_accessibility": 1.0, "score_population": 0.338, "score_infrastructure": 1.0, "score_isolation": 0.8, "score_flood": 0.033, "priority_score": 0.708, "priority_rank": 4, "priority_category": "very_high"}, "geometry": {"type": "Point", "coordinates": [94.4222545, 27.4111286]}}, {"id": "9", "type": "Feature", "properties": {"osm_id": 1437215871, "name": "Dhemaji", "place": "town", "population": "", "est_population": 25340, "settlement_type": "town", "district": "Dhemaji", "is_flooded": false, "flood_depth_m": 0.0, "pre_travel_time": 0.255, "nearest_dest_dist": 0.1275, "pre_reachable": 1, "pre_connected": true, "pre_isolation": 0.0, "post_travel_time": 10.444999999999997, "post_reachable": 1, "post_connected": true, "post_isolation": 0.0, "connectivity_lost": false, "newly_isolated": false, "travel_time_increase": 10.189999999999996, "accessibility_change": 0.0, "accessibility_status": "partially_accessible", "care_time_min": 10.4, "has_care_access": true, "staging_lon": null, "staging_lat": null, "staging_gap_km": null, "score_accessibility": 0.0, "score_population": 0.239, "score_infrastructure": 0.0, "score_isolation": 0.4, "score_flood": 0.0, "priority_score": 0.12, "priority_rank": 51, "priority_category": "low"}, "geometry": {"type": "Point", "coordinates": [94.5629622, 27.4763797]}}, {"id": "10", "type": "Feature", "properties": {"osm_id": 1676604025, "name": "Harmutigaon", "place": "village", "population": "", "est_population": 750, "settlement_type": "village", "district": "Lakhimpur", "is_flooded": false, "flood_depth_m": 0.0, "pre_travel_time": 7.667000000000001, "nearest_dest_dist": 3.8335, "pre_reachable": 1, "pre_connected": true, "pre_isolation": 0.0, "post_travel_time": 7.667000000000001, "post_reachable": 1, "post_connected": true, "post_isolation": 0.0, "connectivity_lost": false, "newly_isolated": false, "travel_time_increase": 0.0, "accessibility_change": 0.0, "accessibility_status": "accessible", "care_time_min": 7.7, "has_care_access": true, "staging_lon": null, "staging_lat": null, "staging_gap_km": null, "score_accessibility": 0.0, "score_population": 0.006, "score_infrastructure": 0.0, "score_isolation": 0.0, "score_flood": 0.0, "priority_score": 0.001, "priority_rank": 58, "priority_category": "low"}, "geometry": {"type": "Point", "coordinates": [93.8563873, 27.1255698]}}, {"id": "11", "type": "Feature", "properties": {"osm_id": 1699239233, "name": "Jonai", "place": "town", "population": "1000", "est_population": 15420, "settlement_type": "town", "district": "Dhemaji", "is_flooded": false, "flood_depth_m": 0.0, "pre_travel_time": 2.778, "nearest_dest_dist": 1.389, "pre_reachable": 1, "pre_connected": true, "pre_isolation": 0.0, "post_travel_time": -1.0, "post_reachable": 0, "post_connected": false, "post_isolation": 1.0, "connectivity_lost": true, "newly_isolated": true, "travel_time_increase": 999.0, "accessibility_change": 1.0, "accessibility_status": "critically_isolated", "care_time_min": Infinity, "has_care_access": false, "staging_lon": 95.22276, "staging_lat": 27.83581, "staging_gap_km": 0.74, "score_accessibility": 1.0, "score_population": 0.145, "score_infrastructure": 1.0, "score_isolation": 1.0, "score_flood": 0.0, "priority_score": 0.686, "priority_rank": 6, "priority_category": "very_high"}, "geometry": {"type": "Point", "coordinates": [95.2234184, 27.8291446]}}, {"id": "12", "type": "Feature", "properties": {"osm_id": 2885248522, "name": "Burisuti", "place": "village", "population": "", "est_population": 450, "settlement_type": "village", "district": "Dhemaji", "is_flooded": false, "flood_depth_m": 0.0, "pre_travel_time": 14.620999999999999, "nearest_dest_dist": 7.310499999999999, "pre_reachable": 1, "pre_connected": true, "pre_isolation": 0.0, "post_travel_time": -1.0, "post_reachable": 0, "post_connected": false, "post_isolation": 1.0, "connectivity_lost": true, "newly_isolated": true, "travel_time_increase": 999.0, "accessibility_change": 1.0, "accessibility_status": "isolated", "care_time_min": Infinity, "has_care_access": false, "staging_lon": 95.04256, "staging_lat": 27.69298, "staging_gap_km": 0.79, "score_accessibility": 1.0, "score_population": 0.003, "score_infrastructure": 1.0, "score_isolation": 0.8, "score_flood": 0.0, "priority_score": 0.621, "priority_rank": 16, "priority_category": "very_high"}, "geometry": {"type": "Point", "coordinates": [95.0391506, 27.6865466]}}, {"id": "13", "type": "Feature", "properties": {"osm_id": 2885248524, "name": "Dakhinpat", "place": "village", "population": "", "est_population": 3200, "settlement_type": "village", "district": "Majuli", "is_flooded": false, "flood_depth_m": 0.0, "pre_travel_time": 11.981000000000002, "nearest_dest_dist": 5.990500000000001, "pre_reachable": 1, "pre_connected": true, "pre_isolation": 0.0, "post_travel_time": -1.0, "post_reachable": 0, "post_connected": false, "post_isolation": 1.0, "connectivity_lost": true, "newly_isolated": true, "travel_time_increase": 999.0, "accessibility_change": 1.0, "accessibility_status": "isolated", "care_time_min": Infinity, "has_care_access": false, "staging_lon": 94.27709, "staging_lat": 26.95793, "staging_gap_km": 5.0, "score_accessibility": 1.0, "score_population": 0.029, "score_infrastructure": 1.0, "score_isolation": 0.8, "score_flood": 0.0, "priority_score": 0.627, "priority_rank": 13, "priority_category": "very_high"}, "geometry": {"type": "Point", "coordinates": [94.2760072, 26.9129592]}}, {"id": "14", "type": "Feature", "properties": {"osm_id": 2885275504, "name": "Deodia", "place": "village", "population": "", "est_population": 520, "settlement_type": "village", "district": "Majuli", "is_flooded": false, "flood_depth_m": 0.0, "pre_travel_time": 8.546000000000001, "nearest_dest_dist": 4.273000000000001, "pre_reachable": 1, "pre_connected": true, "pre_isolation": 0.0, "post_travel_time": -1.0, "post_reachable": 0, "post_connected": false, "post_isolation": 1.0, "connectivity_lost": true, "newly_isolated": true, "travel_time_increase": 999.0, "accessibility_change": 1.0, "accessibility_status": "isolated", "care_time_min": Infinity, "has_care_access": false, "staging_lon": 94.14474, "staging_lat": 26.97568, "staging_gap_km": 3.11, "score_accessibility": 1.0, "score_population": 0.004, "score_infrastructure": 1.0, "score_isolation": 0.8, "score_flood": 0.0, "priority_score": 0.621, "priority_rank": 16, "priority_category": "very_high"}, "geometry": {"type": "Point", "coordinates": [94.1676921, 26.956618]}}, {"id": "15", "type": "Feature", "properties": {"osm_id": 2885275505, "name": "Kaibatra", "place": "village", "population": "", "est_population": 520, "settlement_type": "village", "district": "Majuli", "is_flooded": false, "flood_depth_m": 0.0, "pre_travel_time": 3.7880000000000003, "nearest_dest_dist": 1.894, "pre_reachable": 1, "pre_connected": true, "pre_isolation": 0.0, "post_travel_time": -1.0, "post_reachable": 0, "post_connected": false, "post_isolation": 1.0, "connectivity_lost": true, "newly_isolated": true, "travel_time_increase": 999.0, "accessibility_change": 1.0, "accessibility_status": "isolated", "care_time_min": Infinity, "has_care_access": false, "staging_lon": 94.14663, "staging_lat": 26.97898, "staging_gap_km": 0.75, "score_accessibility": 1.0, "score_population": 0.004, "score_infrastructure": 1.0, "score_isolation": 0.8, "score_flood": 0.0, "priority_score": 0.621, "priority_rank": 16, "priority_category": "very_high"}, "geometry": {"type": "Point", "coordinates": [94.1540261, 26.9805515]}}, {"id": "16", "type": "Feature", "properties": {"osm_id": 2885275507, "name": "Kamalabari", "place": "town", "population": "", "est_population": 12200, "settlement_type": "town", "district": "Majuli", "is_flooded": false, "flood_depth_m": 0.0, "pre_travel_time": 9.793000000000001, "nearest_dest_dist": 4.8965000000000005, "pre_reachable": 1, "pre_connected": true, "pre_isolation": 0.0, "post_travel_time": -1.0, "post_reachable": 0, "post_connected": false, "post_isolation": 1.0, "connectivity_lost": true, "newly_isolated": true, "travel_time_increase": 999.0, "accessibility_change": 1.0, "accessibility_status": "critically_isolated", "care_time_min": Infinity, "has_care_access": false, "staging_lon": 94.14474, "staging_lat": 26.97568, "staging_gap_km": 3.85, "score_accessibility": 1.0, "score_population": 0.115, "score_infrastructure": 1.0, "score_isolation": 1.0, "score_flood": 0.0, "priority_score": 0.679, "priority_rank": 9, "priority_category": "very_high"}, "geometry": {"type": "Point", "coordinates": [94.1657745, 26.9465639]}}, {"id": "17", "type": "Feature", "properties": {"osm_id": 2885288331, "name": "Birinabari", "place": "village", "population": "", "est_population": 520, "settlement_type": "village", "district": "Majuli", "is_flooded": false, "flood_depth_m": 0.0, "pre_travel_time": 34.791000000000004, "nearest_dest_dist": 17.395500000000002, "pre_reachable": 1, "pre_connected": true, "pre_isolation": 0.0, "post_travel_time": -1.0, "post_reachable": 0, "post_connected": false, "post_isolation": 1.0, "connectivity_lost": true, "newly_isolated": true, "travel_time_increase": 999.0, "accessibility_change": 1.0, "accessibility_status": "isolated", "care_time_min": Infinity, "has_care_access": false, "staging_lon": 94.12119, "staging_lat": 26.97942, "staging_gap_km": 8.71, "score_accessibility": 1.0, "score_population": 0.004, "score_infrastructure": 1.0, "score_isolation": 0.8, "score_flood": 0.0, "priority_score": 0.621, "priority_rank": 16, "priority_category": "very_high"}, "geometry": {"type": "Point", "coordinates": [94.0585172, 26.9245446]}}, {"id": "18", "type": "Feature", "properties": {"osm_id": 2885288332, "name": "Kakarikata", "place": "village", "population": "", "est_population": 520, "settlement_type": "village", "district": "Majuli", "is_flooded": false, "flood_depth_m": 0.0, "pre_travel_time": 20.830000000000002, "nearest_dest_dist": 10.415000000000001, "pre_reachable": 1, "pre_connected": true, "pre_isolation": 0.0, "post_travel_time": -1.0, "post_reachable": 0, "post_connected": false, "post_isolation": 1.0, "connectivity_lost": true, "newly_isolated": true, "travel_time_increase": 999.0, "accessibility_change": 1.0, "accessibility_status": "isolated", "care_time_min": Infinity, "has_care_access": false, "staging_lon": 94.13136, "staging_lat": 26.9748, "staging_gap_km": 4.79, "score_accessibility": 1.0, "score_population": 0.004, "score_infrastructure": 1.0, "score_isolation": 0.8, "score_flood": 0.0, "priority_score": 0.621, "priority_rank": 16, "priority_category": "very_high"}, "geometry": {"type": "Point", "coordinates": [94.1212673, 26.9327158]}}, {"id": "19", "type": "Feature", "properties": {"osm_id": 2913304438, "name": "Gogamukh", "place": "town", "population": "", "est_population": 12750, "settlement_type": "town", "district": "Dhemaji", "is_flooded": false, "flood_depth_m": 0.0, "pre_travel_time": 27.106000000000005, "nearest_dest_dist": 13.553000000000003, "pre_reachable": 1, "pre_connected": true, "pre_isolation": 0.0, "post_travel_time": -1.0, "post_reachable": 0, "post_connected": false, "post_isolation": 1.0, "connectivity_lost": true, "newly_isolated": true, "travel_time_increase": 999.0, "accessibility_change": 1.0, "accessibility_status": "critically_isolated", "care_time_min": Infinity, "has_care_access": false, "staging_lon": 94.30504, "staging_lat": 27.22655, "staging_gap_km": 23.18, "score_accessibility": 1.0, "score_population": 0.12, "score_infrastructure": 1.0, "score_isolation": 1.0, "score_flood": 0.0, "priority_score": 0.68, "priority_rank": 7, "priority_category": "very_high"}, "geometry": {"type": "Point", "coordinates": [94.3160033, 27.4348123]}}, {"id": "20", "type": "Feature", "properties": {"osm_id": 3337652501, "name": "Niz Lakuk", "place": "town", "population": "", "est_population": 15000, "settlement_type": "town", "district": "Lakhimpur", "is_flooded": false, "flood_depth_m": 0.0, "pre_travel_time": 0.759, "nearest_dest_dist": 0.3795, "pre_reachable": 1, "pre_connected": true, "pre_isolation": 0.0, "post_travel_time": 1.048, "post_reachable": 1, "post_connected": true, "post_isolation": 0.0, "connectivity_lost": false, "newly_isolated": false, "travel_time_increase": 0.28900000000000003, "accessibility_change": 0.0, "accessibility_status": "accessible", "care_time_min": 1.0, "has_care_access": true, "staging_lon": null, "staging_lat": null, "staging_gap_km": null, "score_accessibility": 0.0, "score_population": 0.141, "score_infrastructure": 0.0, "score_isolation": 0.0, "score_flood": 0.0, "priority_score": 0.035, "priority_rank": 54, "priority_category": "low"}, "geometry": {"type": "Point", "coordinates": [93.9314185, 27.1206808]}}, {"id": "21", "type": "Feature", "properties": {"osm_id": 3546651598, "name": "Boikunthapur", "place": "village", "population": "700", "est_population": 700, "settlement_type": "village", "district": "Dhemaji", "is_flooded": false, "flood_depth_m": 0.0, "pre_travel_time": 0.0, "nearest_dest_dist": 0.0, "pre_reachable": 1, "pre_connected": true, "pre_isolation": 0.0, "post_travel_time": 0.0, "post_reachable": 1, "post_connected": true, "post_isolation": 0.0, "connectivity_lost": false, "newly_isolated": false, "travel_time_increase": 0.0, "accessibility_change": 0.0, "accessibility_status": "accessible", "care_time_min": 0.0, "has_care_access": true, "staging_lon": null, "staging_lat": null, "staging_gap_km": null, "score_accessibility": 0.0, "score_population": 0.005, "score_infrastructure": 0.0, "score_isolation": 0.0, "score_flood": 0.0, "priority_score": 0.001, "priority_rank": 58, "priority_category": "low"}, "geometry": {"type": "Point", "coordinates": [95.0536193, 27.7501363]}}, {"id": "22", "type": "Feature", "properties": {"osm_id": 3546733170, "name": "Laimekuri", "place": "village", "population": "", "est_population": 450, "settlement_type": "village", "district": "Dhemaji", "is_flooded": false, "flood_depth_m": 0.0, "pre_travel_time": 2.152, "nearest_dest_dist": 1.076, "pre_reachable": 1, "pre_connected": true, "pre_isolation": 0.0, "post_travel_time": 2.152, "post_reachable": 1, "post_connected": true, "post_isolation": 0.0, "connectivity_lost": false, "newly_isolated": false, "travel_time_increase": 0.0, "accessibility_change": 0.0, "accessibility_status": "accessible", "care_time_min": 2.2, "has_care_access": true, "staging_lon": null, "staging_lat": null, "staging_gap_km": null, "score_accessibility": 0.0, "score_population": 0.003, "score_infrastructure": 0.0, "score_isolation": 0.0, "score_flood": 0.0, "priority_score": 0.001, "priority_rank": 58, "priority_category": "low"}, "geometry": {"type": "Point", "coordinates": [95.0787185, 27.7453884]}}, {"id": "23", "type": "Feature", "properties": {"osm_id": 3546735198, "name": "Sikari", "place": "village", "population": "", "est_population": 450, "settlement_type": "village", "district": "Dhemaji", "is_flooded": false, "flood_depth_m": 0.0, "pre_travel_time": 4.148, "nearest_dest_dist": 2.074, "pre_reachable": 1, "pre_connected": true, "pre_isolation": 0.0, "post_travel_time": -1.0, "post_reachable": 0, "post_connected": false, "post_isolation": 1.0, "connectivity_lost": true, "newly_isolated": true, "travel_time_increase": 999.0, "accessibility_change": 1.0, "accessibility_status": "isolated", "care_time_min": Infinity, "has_care_access": false, "staging_lon": 95.08823, "staging_lat": 27.74566, "staging_gap_km": 0.84, "score_accessibility": 1.0, "score_population": 0.003, "score_infrastructure": 1.0, "score_isolation": 0.8, "score_flood": 0.0, "priority_score": 0.621, "priority_rank": 16, "priority_category": "very_high"}, "geometry": {"type": "Point", "coordinates": [95.0957413, 27.7491676]}}, {"id": "24", "type": "Feature", "properties": {"osm_id": 3546755824, "name": "Gali", "place": "village", "population": "", "est_population": 450, "settlement_type": "village", "district": "Dhemaji", "is_flooded": false, "flood_depth_m": 0.0, "pre_travel_time": 6.821000000000001, "nearest_dest_dist": 3.4105000000000003, "pre_reachable": 1, "pre_connected": true, "pre_isolation": 0.0, "post_travel_time": -1.0, "post_reachable": 0, "post_connected": false, "post_isolation": 1.0, "connectivity_lost": true, "newly_isolated": true, "travel_time_increase": 999.0, "accessibility_change": 1.0, "accessibility_status": "isolated", "care_time_min": Infinity, "has_care_access": false, "staging_lon": 95.08823, "staging_lat": 27.74566, "staging_gap_km": 3.48, "score_accessibility": 1.0, "score_population": 0.003, "score_infrastructure": 1.0, "score_isolation": 0.8, "score_flood": 0.0, "priority_score": 0.621, "priority_rank": 16, "priority_category": "very_high"}, "geometry": {"type": "Point", "coordinates": [95.1220316, 27.754749]}}, {"id": "25", "type": "Feature", "properties": {"osm_id": 3546761360, "name": "Junkareng", "place": "village", "population": "", "est_population": 450, "settlement_type": "village", "district": "Dhemaji", "is_flooded": false, "flood_depth_m": 0.0, "pre_travel_time": 11.915, "nearest_dest_dist": 5.9575, "pre_reachable": 1, "pre_connected": true, "pre_isolation": 0.0, "post_travel_time": -1.0, "post_reachable": 0, "post_connected": false, "post_isolation": 1.0, "connectivity_lost": true, "newly_isolated": true, "travel_time_increase": 999.0, "accessibility_change": 1.0, "accessibility_status": "isolated", "care_time_min": Infinity, "has_care_access": false, "staging_lon": 95.2041, "staging_lat": 27.83655, "staging_gap_km": 7.15, "score_accessibility": 1.0, "score_population": 0.003, "score_infrastructure": 1.0, "score_isolation": 0.8, "score_flood": 0.0, "priority_score": 0.621, "priority_rank": 16, "priority_category": "very_high"}, "geometry": {"type": "Point", "coordinates": [95.1667838, 27.781412]}}, {"id": "26", "type": "Feature", "properties": {"osm_id": 3546804846, "name": "Kuli Tiniali", "place": "village", "population": "", "est_population": 450, "settlement_type": "village", "district": "Dhemaji", "is_flooded": false, "flood_depth_m": 0.0, "pre_travel_time": 6.611000000000001, "nearest_dest_dist": 3.3055000000000003, "pre_reachable": 1, "pre_connected": true, "pre_isolation": 0.0, "post_travel_time": -1.0, "post_reachable": 0, "post_connected": false, "post_isolation": 1.0, "connectivity_lost": true, "newly_isolated": true, "travel_time_increase": 999.0, "accessibility_change": 1.0, "accessibility_status": "isolated", "care_time_min": Infinity, "has_care_access": false, "staging_lon": 95.2041, "staging_lat": 27.83655, "staging_gap_km": 4.15, "score_accessibility": 1.0, "score_population": 0.003, "score_infrastructure": 1.0, "score_isolation": 0.8, "score_flood": 0.0, "priority_score": 0.621, "priority_rank": 16, "priority_category": "very_high"}, "geometry": {"type": "Point", "coordinates": [95.2108218, 27.7997209]}}, {"id": "27", "type": "Feature", "properties": {"osm_id": 3547241346, "name": "Rest-Camp", "place": "village", "population": "", "est_population": 450, "settlement_type": "village", "district": "Dhemaji", "is_flooded": false, "flood_depth_m": 0.0, "pre_travel_time": 0.327, "nearest_dest_dist": 0.1635, "pre_reachable": 1, "pre_connected": true, "pre_isolation": 0.0, "post_travel_time": 0.269, "post_reachable": 1, "post_connected": true, "post_isolation": 0.0, "connectivity_lost": false, "newly_isolated": false, "travel_time_increase": -0.057999999999999996, "accessibility_change": 0.0, "accessibility_status": "accessible", "care_time_min": 0.3, "has_care_access": true, "staging_lon": null, "staging_lat": null, "staging_gap_km": null, "score_accessibility": 0.0, "score_population": 0.003, "score_infrastructure": 0.0, "score_isolation": 0.0, "score_flood": 0.0, "priority_score": 0.001, "priority_rank": 58, "priority_category": "low"}, "geometry": {"type": "Point", "coordinates": [95.050485, 27.7531909]}}, {"id": "28", "type": "Feature", "properties": {"osm_id": 3547243302, "name": "Rakut-Koke:", "place": "village", "population": "", "est_population": 450, "settlement_type": "village", "district": "Dhemaji", "is_flooded": false, "flood_depth_m": 0.0, "pre_travel_time": 2.553, "nearest_dest_dist": 1.2765, "pre_reachable": 1, "pre_connected": true, "pre_isolation": 0.0, "post_travel_time": 2.553, "post_reachable": 1, "post_connected": true, "post_isolation": 0.0, "connectivity_lost": false, "newly_isolated": false, "travel_time_increase": 0.0, "accessibility_change": 0.0, "accessibility_status": "accessible", "care_time_min": 2.6, "has_care_access": true, "staging_lon": null, "staging_lat": null, "staging_gap_km": null, "score_accessibility": 0.0, "score_population": 0.003, "score_infrastructure": 0.0, "score_isolation": 0.0, "score_flood": 0.0, "priority_score": 0.001, "priority_rank": 58, "priority_category": "low"}, "geometry": {"type": "Point", "coordinates": [95.0660418, 27.7472471]}}, {"id": "29", "type": "Feature", "properties": {"osm_id": 3547246363, "name": "Tako-G\u00edtung", "place": "village", "population": "", "est_population": 450, "settlement_type": "village", "district": "Dhemaji", "is_flooded": false, "flood_depth_m": 0.0, "pre_travel_time": 2.44, "nearest_dest_dist": 1.22, "pre_reachable": 1, "pre_connected": true, "pre_isolation": 0.0, "post_travel_time": 2.44, "post_reachable": 1, "post_connected": true, "post_isolation": 0.0, "connectivity_lost": false, "newly_isolated": false, "travel_time_increase": 0.0, "accessibility_change": 0.0, "accessibility_status": "accessible", "care_time_min": 2.4, "has_care_access": true, "staging_lon": null, "staging_lat": null, "staging_gap_km": null, "score_accessibility": 0.0, "score_population": 0.003, "score_infrastructure": 0.0, "score_isolation": 0.0, "score_flood": 0.0, "priority_score": 0.001, "priority_rank": 58, "priority_category": "low"}, "geometry": {"type": "Point", "coordinates": [95.0811695, 27.7460318]}}, {"id": "30", "type": "Feature", "properties": {"osm_id": 3547340610, "name": "Telam B\u00e9dum", "place": "village", "population": "", "est_population": 450, "settlement_type": "village", "district": "Dhemaji", "is_flooded": false, "flood_depth_m": 0.0, "pre_travel_time": 5.6259999999999994, "nearest_dest_dist": 2.8129999999999997, "pre_reachable": 1, "pre_connected": true, "pre_isolation": 0.0, "post_travel_time": -1.0, "post_reachable": 0, "post_connected": false, "post_isolation": 1.0, "connectivity_lost": true, "newly_isolated": true, "travel_time_increase": 999.0, "accessibility_change": 1.0, "accessibility_status": "isolated", "care_time_min": Infinity, "has_care_access": false, "staging_lon": 95.05138, "staging_lat": 27.75122, "staging_gap_km": 4.8, "score_accessibility": 1.0, "score_population": 0.003, "score_infrastructure": 1.0, "score_isolation": 0.8, "score_flood": 0.0, "priority_score": 0.621, "priority_rank": 16, "priority_category": "very_high"}, "geometry": {"type": "Point", "coordinates": [95.0043494, 27.7626574]}}, {"id": "31", "type": "Feature", "properties": {"osm_id": 3555382456, "name": "Majulipur", "place": "village", "population": "", "est_population": 450, "settlement_type": "village", "district": "Dhemaji", "is_flooded": false, "flood_depth_m": 0.0, "pre_travel_time": 2.4899999999999998, "nearest_dest_dist": 1.2449999999999999, "pre_reachable": 1, "pre_connected": true, "pre_isolation": 0.0, "post_travel_time": 2.4899999999999998, "post_reachable": 1, "post_connected": true, "post_isolation": 0.0, "connectivity_lost": false, "newly_isolated": false, "travel_time_increase": 0.0, "accessibility_change": 0.0, "accessibility_status": "accessible", "care_time_min": 2.5, "has_care_access": true, "staging_lon": null, "staging_lat": null, "staging_gap_km": null, "score_accessibility": 0.0, "score_population": 0.003, "score_infrastructure": 0.0, "score_isolation": 0.0, "score_flood": 0.0, "priority_score": 0.001, "priority_rank": 58, "priority_category": "low"}, "geometry": {"type": "Point", "coordinates": [95.0649173, 27.7559299]}}, {"id": "32", "type": "Feature", "properties": {"osm_id": 4509196601, "name": "Dimow", "place": "village", "population": "2000", "est_population": 3200, "settlement_type": "village", "district": "Dhemaji", "is_flooded": false, "flood_depth_m": 0.0, "pre_travel_time": 23.970000000000002, "nearest_dest_dist": 11.985000000000001, "pre_reachable": 1, "pre_connected": true, "pre_isolation": 0.0, "post_travel_time": -1.0, "post_reachable": 0, "post_connected": false, "post_isolation": 1.0, "connectivity_lost": true, "newly_isolated": true, "travel_time_increase": 999.0, "accessibility_change": 1.0, "accessibility_status": "isolated", "care_time_min": Infinity, "has_care_access": false, "staging_lon": 94.77235, "staging_lat": 27.6197, "staging_gap_km": 6.94, "score_accessibility": 1.0, "score_population": 0.029, "score_infrastructure": 1.0, "score_isolation": 0.8, "score_flood": 0.0, "priority_score": 0.627, "priority_rank": 13, "priority_category": "very_high"}, "geometry": {"type": "Point", "coordinates": [94.8111854, 27.6717985]}}, {"id": "33", "type": "Feature", "properties": {"osm_id": 4667620988, "name": "Phukangaon", "place": "village", "population": "", "est_population": 450, "settlement_type": "village", "district": "Dhemaji", "is_flooded": true, "flood_depth_m": 5.0, "pre_travel_time": 7.729, "nearest_dest_dist": 3.8645, "pre_reachable": 1, "pre_connected": true, "pre_isolation": 0.0, "post_travel_time": -1.0, "post_reachable": 0, "post_connected": false, "post_isolation": 1.0, "connectivity_lost": true, "newly_isolated": true, "travel_time_increase": 999.0, "accessibility_change": 1.0, "accessibility_status": "isolated", "care_time_min": Infinity, "has_care_access": false, "staging_lon": 94.65184, "staging_lat": 27.54228, "staging_gap_km": 4.78, "score_accessibility": 1.0, "score_population": 0.303, "score_infrastructure": 1.0, "score_isolation": 0.8, "score_flood": 0.833, "priority_score": 0.779, "priority_rank": 2, "priority_category": "very_high"}, "geometry": {"type": "Point", "coordinates": [94.6033303, 27.5409552]}}, {"id": "34", "type": "Feature", "properties": {"osm_id": 4667621489, "name": "Huliagaon", "place": "village", "population": "", "est_population": 450, "settlement_type": "village", "district": "Dhemaji", "is_flooded": false, "flood_depth_m": 0.0, "pre_travel_time": 38.80299999999999, "nearest_dest_dist": 19.401499999999995, "pre_reachable": 1, "pre_connected": true, "pre_isolation": 0.0, "post_travel_time": -1.0, "post_reachable": 0, "post_connected": false, "post_isolation": 1.0, "connectivity_lost": true, "newly_isolated": true, "travel_time_increase": 999.0, "accessibility_change": 1.0, "accessibility_status": "isolated", "care_time_min": Infinity, "has_care_access": false, "staging_lon": 94.52616, "staging_lat": 27.50814, "staging_gap_km": 8.12, "score_accessibility": 1.0, "score_population": 0.003, "score_infrastructure": 1.0, "score_isolation": 0.8, "score_flood": 0.0, "priority_score": 0.621, "priority_rank": 16, "priority_category": "very_high"}, "geometry": {"type": "Point", "coordinates": [94.5199249, 27.5809334]}}, {"id": "35", "type": "Feature", "properties": {"osm_id": 4668787051, "name": "Silapathar", "place": "town", "population": "", "est_population": 22985, "settlement_type": "town", "district": "Dhemaji", "is_flooded": false, "flood_depth_m": 0.0, "pre_travel_time": 2.838, "nearest_dest_dist": 1.419, "pre_reachable": 1, "pre_connected": true, "pre_isolation": 0.0, "post_travel_time": 4.319000000000001, "post_reachable": 1, "post_connected": true, "post_isolation": 0.0, "connectivity_lost": false, "newly_isolated": false, "travel_time_increase": 1.4810000000000008, "accessibility_change": 0.0, "accessibility_status": "accessible", "care_time_min": 4.3, "has_care_access": true, "staging_lon": null, "staging_lat": null, "staging_gap_km": null, "score_accessibility": 0.0, "score_population": 0.217, "score_infrastructure": 0.0, "score_isolation": 0.0, "score_flood": 0.0, "priority_score": 0.054, "priority_rank": 53, "priority_category": "low"}, "geometry": {"type": "Point", "coordinates": [94.7255857, 27.5893833]}}, {"id": "36", "type": "Feature", "properties": {"osm_id": 4726719498, "name": "Sisi Bargaon", "place": "village", "population": "5000", "est_population": 5000, "settlement_type": "village", "district": "Dhemaji", "is_flooded": false, "flood_depth_m": 0.0, "pre_travel_time": 15.941, "nearest_dest_dist": 7.9704999999999995, "pre_reachable": 1, "pre_connected": true, "pre_isolation": 0.0, "post_travel_time": 15.950999999999999, "post_reachable": 1, "post_connected": true, "post_isolation": 0.0, "connectivity_lost": false, "newly_isolated": false, "travel_time_increase": 0.00999999999999801, "accessibility_change": 0.0, "accessibility_status": "accessible", "care_time_min": 16.0, "has_care_access": true, "staging_lon": null, "staging_lat": null, "staging_gap_km": null, "score_accessibility": 0.0, "score_population": 0.046, "score_infrastructure": 0.0, "score_isolation": 0.0, "score_flood": 0.0, "priority_score": 0.012, "priority_rank": 55, "priority_category": "low"}, "geometry": {"type": "Point", "coordinates": [94.6797056, 27.5304146]}}, {"id": "37", "type": "Feature", "properties": {"osm_id": 4726836613, "name": "Kulajan", "place": "town", "population": "", "est_population": 1800, "settlement_type": "town", "district": "Dhemaji", "is_flooded": false, "flood_depth_m": 0.0, "pre_travel_time": 10.156, "nearest_dest_dist": 5.078, "pre_reachable": 1, "pre_connected": true, "pre_isolation": 0.0, "post_travel_time": 10.734, "post_reachable": 1, "post_connected": true, "post_isolation": 0.0, "connectivity_lost": false, "newly_isolated": false, "travel_time_increase": 0.5779999999999994, "accessibility_change": 0.0, "accessibility_status": "accessible", "care_time_min": 10.7, "has_care_access": true, "staging_lon": null, "staging_lat": null, "staging_gap_km": null, "score_accessibility": 0.0, "score_population": 0.016, "score_infrastructure": 0.0, "score_isolation": 0.0, "score_flood": 0.0, "priority_score": 0.004, "priority_rank": 56, "priority_category": "low"}, "geometry": {"type": "Point", "coordinates": [94.7287378, 27.5247513]}}, {"id": "38", "type": "Feature", "properties": {"osm_id": 5263416924, "name": "Garamur", "place": "town", "population": "", "est_population": 8500, "settlement_type": "town", "district": "Majuli", "is_flooded": false, "flood_depth_m": 0.0, "pre_travel_time": 4.354, "nearest_dest_dist": 2.177, "pre_reachable": 1, "pre_connected": true, "pre_isolation": 0.0, "post_travel_time": -1.0, "post_reachable": 0, "post_connected": false, "post_isolation": 1.0, "connectivity_lost": true, "newly_isolated": true, "travel_time_increase": 999.0, "accessibility_change": 1.0, "accessibility_status": "critically_isolated", "care_time_min": Infinity, "has_care_access": false, "staging_lon": 94.14663, "staging_lat": 26.97898, "staging_gap_km": 1.08, "score_accessibility": 1.0, "score_population": 0.079, "score_infrastructure": 1.0, "score_isolation": 1.0, "score_flood": 0.0, "priority_score": 0.67, "priority_rank": 11, "priority_category": "very_high"}, "geometry": {"type": "Point", "coordinates": [94.1574452, 26.980306]}}, {"id": "39", "type": "Feature", "properties": {"osm_id": 5775285633, "name": "Panigaon", "place": "town", "population": "", "est_population": 1900, "settlement_type": "town", "district": "Lakhimpur", "is_flooded": false, "flood_depth_m": 0.0, "pre_travel_time": 0.0, "nearest_dest_dist": 0.0, "pre_reachable": 1, "pre_connected": true, "pre_isolation": 0.0, "post_travel_time": 6.967, "post_reachable": 1, "post_connected": true, "post_isolation": 0.0, "connectivity_lost": false, "newly_isolated": false, "travel_time_increase": 0.0, "accessibility_change": 0.0, "accessibility_status": "accessible", "care_time_min": 7.0, "has_care_access": true, "staging_lon": null, "staging_lat": null, "staging_gap_km": null, "score_accessibility": 0.0, "score_population": 0.017, "score_infrastructure": 0.0, "score_isolation": 0.0, "score_flood": 0.0, "priority_score": 0.004, "priority_rank": 56, "priority_category": "low"}, "geometry": {"type": "Point", "coordinates": [94.1113007, 27.1406337]}}, {"id": "40", "type": "Feature", "properties": {"osm_id": 6096685708, "name": "Muktiar", "place": "village", "population": "", "est_population": 450, "settlement_type": "village", "district": "Dhemaji", "is_flooded": false, "flood_depth_m": 0.0, "pre_travel_time": 3.415, "nearest_dest_dist": 1.7075, "pre_reachable": 1, "pre_connected": true, "pre_isolation": 0.0, "post_travel_time": 3.415, "post_reachable": 1, "post_connected": true, "post_isolation": 0.0, "connectivity_lost": false, "newly_isolated": false, "travel_time_increase": 0.0, "accessibility_change": 0.0, "accessibility_status": "accessible", "care_time_min": 3.4, "has_care_access": true, "staging_lon": null, "staging_lat": null, "staging_gap_km": null, "score_accessibility": 0.0, "score_population": 0.003, "score_infrastructure": 0.0, "score_isolation": 0.0, "score_flood": 0.0, "priority_score": 0.001, "priority_rank": 58, "priority_category": "low"}, "geometry": {"type": "Point", "coordinates": [95.0549718, 27.7322472]}}, {"id": "41", "type": "Feature", "properties": {"osm_id": 6096685710, "name": "Dikhari", "place": "village", "population": "", "est_population": 450, "settlement_type": "village", "district": "Dhemaji", "is_flooded": false, "flood_depth_m": 0.0, "pre_travel_time": 0.0, "nearest_dest_dist": 0.0, "pre_reachable": 1, "pre_connected": true, "pre_isolation": 0.0, "post_travel_time": 0.0, "post_reachable": 1, "post_connected": true, "post_isolation": 0.0, "connectivity_lost": false, "newly_isolated": false, "travel_time_increase": 0.0, "accessibility_change": 0.0, "accessibility_status": "accessible", "care_time_min": 0.0, "has_care_access": true, "staging_lon": null, "staging_lat": null, "staging_gap_km": null, "score_accessibility": 0.0, "score_population": 0.003, "score_infrastructure": 0.0, "score_isolation": 0.0, "score_flood": 0.0, "priority_score": 0.001, "priority_rank": 58, "priority_category": "low"}, "geometry": {"type": "Point", "coordinates": [95.0560583, 27.7256118]}}, {"id": "42", "type": "Feature", "properties": {"osm_id": 6096685711, "name": "Ramdhon", "place": "village", "population": "", "est_population": 450, "settlement_type": "village", "district": "Dhemaji", "is_flooded": false, "flood_depth_m": 0.0, "pre_travel_time": 0.0, "nearest_dest_dist": 0.0, "pre_reachable": 1, "pre_connected": true, "pre_isolation": 0.0, "post_travel_time": 0.0, "post_reachable": 1, "post_connected": true, "post_isolation": 0.0, "connectivity_lost": false, "newly_isolated": false, "travel_time_increase": 0.0, "accessibility_change": 0.0, "accessibility_status": "accessible", "care_time_min": 0.0, "has_care_access": true, "staging_lon": null, "staging_lat": null, "staging_gap_km": null, "score_accessibility": 0.0, "score_population": 0.003, "score_infrastructure": 0.0, "score_isolation": 0.0, "score_flood": 0.0, "priority_score": 0.001, "priority_rank": 58, "priority_category": "low"}, "geometry": {"type": "Point", "coordinates": [95.0594983, 27.7290614]}}, {"id": "43", "type": "Feature", "properties": {"osm_id": 6096685712, "name": "Koroibari", "place": "village", "population": "", "est_population": 450, "settlement_type": "village", "district": "Dhemaji", "is_flooded": false, "flood_depth_m": 0.0, "pre_travel_time": 3.415, "nearest_dest_dist": 1.7075, "pre_reachable": 1, "pre_connected": true, "pre_isolation": 0.0, "post_travel_time": 3.415, "post_reachable": 1, "post_connected": true, "post_isolation": 0.0, "connectivity_lost": false, "newly_isolated": false, "travel_time_increase": 0.0, "accessibility_change": 0.0, "accessibility_status": "accessible", "care_time_min": 3.4, "has_care_access": true, "staging_lon": null, "staging_lat": null, "staging_gap_km": null, "score_accessibility": 0.0, "score_population": 0.003, "score_infrastructure": 0.0, "score_isolation": 0.0, "score_flood": 0.0, "priority_score": 0.001, "priority_rank": 58, "priority_category": "low"}, "geometry": {"type": "Point", "coordinates": [95.0507458, 27.7398039]}}, {"id": "44", "type": "Feature", "properties": {"osm_id": 6096685713, "name": "Borodondi", "place": "village", "population": "", "est_population": 450, "settlement_type": "village", "district": "Dhemaji", "is_flooded": false, "flood_depth_m": 0.0, "pre_travel_time": 4.622, "nearest_dest_dist": 2.311, "pre_reachable": 1, "pre_connected": true, "pre_isolation": 0.0, "post_travel_time": -1.0, "post_reachable": 0, "post_connected": false, "post_isolation": 1.0, "connectivity_lost": true, "newly_isolated": true, "travel_time_increase": 999.0, "accessibility_change": 1.0, "accessibility_status": "isolated", "care_time_min": Infinity, "has_care_access": false, "staging_lon": 95.05138, "staging_lat": 27.75122, "staging_gap_km": 1.45, "score_accessibility": 1.0, "score_population": 0.003, "score_infrastructure": 1.0, "score_isolation": 0.8, "score_flood": 0.0, "priority_score": 0.621, "priority_rank": 16, "priority_category": "very_high"}, "geometry": {"type": "Point", "coordinates": [95.0373612, 27.7472431]}}, {"id": "45", "type": "Feature", "properties": {"osm_id": 6096685714, "name": "Lakhipur B\u00e9dum", "place": "village", "population": "", "est_population": 450, "settlement_type": "village", "district": "Dhemaji", "is_flooded": false, "flood_depth_m": 0.0, "pre_travel_time": 3.093, "nearest_dest_dist": 1.5465, "pre_reachable": 1, "pre_connected": true, "pre_isolation": 0.0, "post_travel_time": -1.0, "post_reachable": 0, "post_connected": false, "post_isolation": 1.0, "connectivity_lost": true, "newly_isolated": true, "travel_time_increase": 999.0, "accessibility_change": 1.0, "accessibility_status": "isolated", "care_time_min": Infinity, "has_care_access": false, "staging_lon": 95.05138, "staging_lat": 27.75122, "staging_gap_km": 2.82, "score_accessibility": 1.0, "score_population": 0.003, "score_infrastructure": 1.0, "score_isolation": 0.8, "score_flood": 0.0, "priority_score": 0.621, "priority_rank": 16, "priority_category": "very_high"}, "geometry": {"type": "Point", "coordinates": [95.0270138, 27.7645032]}}, {"id": "46", "type": "Feature", "properties": {"osm_id": 6096685715, "name": "Borhati", "place": "village", "population": "", "est_population": 450, "settlement_type": "village", "district": "Dhemaji", "is_flooded": false, "flood_depth_m": 0.0, "pre_travel_time": 7.941, "nearest_dest_dist": 3.9705, "pre_reachable": 1, "pre_connected": true, "pre_isolation": 0.0, "post_travel_time": -1.0, "post_reachable": 0, "post_connected": false, "post_isolation": 1.0, "connectivity_lost": true, "newly_isolated": true, "travel_time_increase": 999.0, "accessibility_change": 1.0, "accessibility_status": "isolated", "care_time_min": Infinity, "has_care_access": false, "staging_lon": 95.05138, "staging_lat": 27.75122, "staging_gap_km": 2.66, "score_accessibility": 1.0, "score_population": 0.003, "score_infrastructure": 1.0, "score_isolation": 0.8, "score_flood": 0.0, "priority_score": 0.621, "priority_rank": 16, "priority_category": "very_high"}, "geometry": {"type": "Point", "coordinates": [95.025252, 27.7450954]}}, {"id": "47", "type": "Feature", "properties": {"osm_id": 7160009137, "name": "Naobaicha", "place": "village", "population": "", "est_population": 750, "settlement_type": "village", "district": "Lakhimpur", "is_flooded": false, "flood_depth_m": 0.0, "pre_travel_time": 11.266999999999998, "nearest_dest_dist": 5.633499999999999, "pre_reachable": 1, "pre_connected": true, "pre_isolation": 0.0, "post_travel_time": 47.04800000000001, "post_reachable": 1, "post_connected": true, "post_isolation": 0.0, "connectivity_lost": false, "newly_isolated": false, "travel_time_increase": 35.78100000000001, "accessibility_change": 0.0, "accessibility_status": "partially_accessible", "care_time_min": 47.0, "has_care_access": true, "staging_lon": null, "staging_lat": null, "staging_gap_km": null, "score_accessibility": 0.0, "score_population": 0.006, "score_infrastructure": 0.0, "score_isolation": 0.4, "score_flood": 0.0, "priority_score": 0.061, "priority_rank": 52, "priority_category": "low"}, "geometry": {"type": "Point", "coordinates": [94.0212321, 27.1691197]}}, {"id": "48", "type": "Feature", "properties": {"osm_id": 7160147292, "name": "Dhakuakhana", "place": "village", "population": "", "est_population": 12800, "settlement_type": "village", "district": "Lakhimpur", "is_flooded": false, "flood_depth_m": 0.0, "pre_travel_time": 2.9539999999999997, "nearest_dest_dist": 1.4769999999999999, "pre_reachable": 1, "pre_connected": true, "pre_isolation": 0.0, "post_travel_time": -1.0, "post_reachable": 0, "post_connected": false, "post_isolation": 1.0, "connectivity_lost": true, "newly_isolated": true, "travel_time_increase": 999.0, "accessibility_change": 1.0, "accessibility_status": "critically_isolated", "care_time_min": Infinity, "has_care_access": false, "staging_lon": 94.44843, "staging_lat": 27.19641, "staging_gap_km": 0.92, "score_accessibility": 1.0, "score_population": 0.12, "score_infrastructure": 1.0, "score_isolation": 1.0, "score_flood": 0.0, "priority_score": 0.68, "priority_rank": 7, "priority_category": "very_high"}, "geometry": {"type": "Point", "coordinates": [94.4434033, 27.2033548]}}, {"id": "49", "type": "Feature", "properties": {"osm_id": 7160147293, "name": "Bilmukh", "place": "village", "population": "", "est_population": 750, "settlement_type": "village", "district": "Lakhimpur", "is_flooded": false, "flood_depth_m": 0.0, "pre_travel_time": 20.41, "nearest_dest_dist": 10.205, "pre_reachable": 1, "pre_connected": true, "pre_isolation": 0.0, "post_travel_time": -1.0, "post_reachable": 0, "post_connected": false, "post_isolation": 1.0, "connectivity_lost": true, "newly_isolated": true, "travel_time_increase": 999.0, "accessibility_change": 1.0, "accessibility_status": "isolated", "care_time_min": Infinity, "has_care_access": false, "staging_lon": 94.31482, "staging_lat": 27.22405, "staging_gap_km": 8.82, "score_accessibility": 1.0, "score_population": 0.006, "score_infrastructure": 1.0, "score_isolation": 0.8, "score_flood": 0.0, "priority_score": 0.621, "priority_rank": 16, "priority_category": "very_high"}, "geometry": {"type": "Point", "coordinates": [94.3357371, 27.301164]}}, {"id": "50", "type": "Feature", "properties": {"osm_id": 7160147294, "name": "Kadam", "place": "village", "population": "", "est_population": 2200, "settlement_type": "village", "district": "Lakhimpur", "is_flooded": false, "flood_depth_m": 0.0, "pre_travel_time": 11.405000000000001, "nearest_dest_dist": 5.702500000000001, "pre_reachable": 1, "pre_connected": true, "pre_isolation": 0.0, "post_travel_time": -1.0, "post_reachable": 0, "post_connected": false, "post_isolation": 1.0, "connectivity_lost": true, "newly_isolated": true, "travel_time_increase": 999.0, "accessibility_change": 1.0, "accessibility_status": "isolated", "care_time_min": Infinity, "has_care_access": false, "staging_lon": 94.12918, "staging_lat": 27.27201, "staging_gap_km": 5.81, "score_accessibility": 1.0, "score_population": 0.019, "score_infrastructure": 1.0, "score_isolation": 0.8, "score_flood": 0.0, "priority_score": 0.625, "priority_rank": 15, "priority_category": "very_high"}, "geometry": {"type": "Point", "coordinates": [94.1585826, 27.3172176]}}, {"id": "51", "type": "Feature", "properties": {"osm_id": 7164371593, "name": "Seren", "place": "village", "population": "", "est_population": 450, "settlement_type": "village", "district": "Dhemaji", "is_flooded": false, "flood_depth_m": 0.0, "pre_travel_time": 15.394999999999996, "nearest_dest_dist": 7.697499999999998, "pre_reachable": 1, "pre_connected": true, "pre_isolation": 0.0, "post_travel_time": -1.0, "post_reachable": 0, "post_connected": false, "post_isolation": 1.0, "connectivity_lost": true, "newly_isolated": true, "travel_time_increase": 999.0, "accessibility_change": 1.0, "accessibility_status": "isolated", "care_time_min": Infinity, "has_care_access": false, "staging_lon": 95.05138, "staging_lat": 27.75122, "staging_gap_km": 14.5, "score_accessibility": 1.0, "score_population": 0.003, "score_infrastructure": 1.0, "score_isolation": 0.8, "score_flood": 0.0, "priority_score": 0.621, "priority_rank": 16, "priority_category": "very_high"}, "geometry": {"type": "Point", "coordinates": [94.9040007, 27.7493859]}}, {"id": "52", "type": "Feature", "properties": {"osm_id": 9587442592, "name": "Mathuri Pathar", "place": "village", "population": "", "est_population": 450, "settlement_type": "village", "district": "Dhemaji", "is_flooded": false, "flood_depth_m": 0.0, "pre_travel_time": 8.607999999999999, "nearest_dest_dist": 4.303999999999999, "pre_reachable": 1, "pre_connected": true, "pre_isolation": 0.0, "post_travel_time": -1.0, "post_reachable": 0, "post_connected": false, "post_isolation": 1.0, "connectivity_lost": true, "newly_isolated": true, "travel_time_increase": 999.0, "accessibility_change": 1.0, "accessibility_status": "isolated", "care_time_min": Infinity, "has_care_access": false, "staging_lon": 94.73228, "staging_lat": 27.60313, "staging_gap_km": 4.56, "score_accessibility": 1.0, "score_population": 0.003, "score_infrastructure": 1.0, "score_isolation": 0.8, "score_flood": 0.0, "priority_score": 0.621, "priority_rank": 16, "priority_category": "very_high"}, "geometry": {"type": "Point", "coordinates": [94.7098732, 27.6390559]}}, {"id": "53", "type": "Feature", "properties": {"osm_id": 9587442593, "name": "Ghagara Adi", "place": "village", "population": "", "est_population": 450, "settlement_type": "village", "district": "Dhemaji", "is_flooded": false, "flood_depth_m": 0.0, "pre_travel_time": 12.717, "nearest_dest_dist": 6.3585, "pre_reachable": 1, "pre_connected": true, "pre_isolation": 0.0, "post_travel_time": -1.0, "post_reachable": 0, "post_connected": false, "post_isolation": 1.0, "connectivity_lost": true, "newly_isolated": true, "travel_time_increase": 999.0, "accessibility_change": 1.0, "accessibility_status": "isolated", "care_time_min": Infinity, "has_care_access": false, "staging_lon": 94.75322, "staging_lat": 27.62068, "staging_gap_km": 5.19, "score_accessibility": 1.0, "score_population": 0.003, "score_infrastructure": 1.0, "score_isolation": 0.8, "score_flood": 0.0, "priority_score": 0.621, "priority_rank": 16, "priority_category": "very_high"}, "geometry": {"type": "Point", "coordinates": [94.7126949, 27.6505083]}}, {"id": "54", "type": "Feature", "properties": {"osm_id": 9589199698, "name": "Kendugurigaon", "place": "village", "population": "", "est_population": 450, "settlement_type": "village", "district": "Dhemaji", "is_flooded": false, "flood_depth_m": 0.0, "pre_travel_time": 8.821, "nearest_dest_dist": 4.4105, "pre_reachable": 1, "pre_connected": true, "pre_isolation": 0.0, "post_travel_time": -1.0, "post_reachable": 0, "post_connected": false, "post_isolation": 1.0, "connectivity_lost": true, "newly_isolated": true, "travel_time_increase": 999.0, "accessibility_change": 1.0, "accessibility_status": "isolated", "care_time_min": Infinity, "has_care_access": false, "staging_lon": 94.69597, "staging_lat": 27.575, "staging_gap_km": 0.91, "score_accessibility": 1.0, "score_population": 0.003, "score_infrastructure": 1.0, "score_isolation": 0.8, "score_flood": 0.0, "priority_score": 0.621, "priority_rank": 16, "priority_category": "very_high"}, "geometry": {"type": "Point", "coordinates": [94.6928251, 27.5827365]}}, {"id": "55", "type": "Feature", "properties": {"osm_id": 9589199699, "name": "Dhekiani Bam", "place": "hamlet", "population": "", "est_population": 150, "settlement_type": "hamlet", "district": "Dhemaji", "is_flooded": true, "flood_depth_m": 1.0, "pre_travel_time": 20.332000000000004, "nearest_dest_dist": 10.166000000000002, "pre_reachable": 1, "pre_connected": true, "pre_isolation": 0.0, "post_travel_time": -1.0, "post_reachable": 0, "post_connected": false, "post_isolation": 1.0, "connectivity_lost": true, "newly_isolated": true, "travel_time_increase": 999.0, "accessibility_change": 1.0, "accessibility_status": "isolated", "care_time_min": Infinity, "has_care_access": false, "staging_lon": 94.68068, "staging_lat": 27.57702, "staging_gap_km": 1.98, "score_accessibility": 1.0, "score_population": 0.3, "score_infrastructure": 1.0, "score_isolation": 0.8, "score_flood": 0.167, "priority_score": 0.712, "priority_rank": 3, "priority_category": "very_high"}, "geometry": {"type": "Point", "coordinates": [94.6739997, 27.5938202]}}, {"id": "56", "type": "Feature", "properties": {"osm_id": 9589199700, "name": "Kailashpur", "place": "hamlet", "population": "", "est_population": 150, "settlement_type": "hamlet", "district": "Dhemaji", "is_flooded": false, "flood_depth_m": 0.0, "pre_travel_time": 16.927000000000003, "nearest_dest_dist": 8.463500000000002, "pre_reachable": 1, "pre_connected": true, "pre_isolation": 0.0, "post_travel_time": -1.0, "post_reachable": 0, "post_connected": false, "post_isolation": 1.0, "connectivity_lost": true, "newly_isolated": true, "travel_time_increase": 999.0, "accessibility_change": 1.0, "accessibility_status": "isolated", "care_time_min": Infinity, "has_care_access": false, "staging_lon": 94.68068, "staging_lat": 27.57702, "staging_gap_km": 3.68, "score_accessibility": 1.0, "score_population": 0.0, "score_infrastructure": 1.0, "score_isolation": 0.8, "score_flood": 0.0, "priority_score": 0.62, "priority_rank": 47, "priority_category": "very_high"}, "geometry": {"type": "Point", "coordinates": [94.6812701, 27.6101012]}}, {"id": "57", "type": "Feature", "properties": {"osm_id": 9589199701, "name": "Barati Gaon", "place": "village", "population": "", "est_population": 450, "settlement_type": "village", "district": "Dhemaji", "is_flooded": false, "flood_depth_m": 0.0, "pre_travel_time": 12.092000000000002, "nearest_dest_dist": 6.046000000000001, "pre_reachable": 1, "pre_connected": true, "pre_isolation": 0.0, "post_travel_time": -1.0, "post_reachable": 0, "post_connected": false, "post_isolation": 1.0, "connectivity_lost": true, "newly_isolated": true, "travel_time_increase": 999.0, "accessibility_change": 1.0, "accessibility_status": "isolated", "care_time_min": Infinity, "has_care_access": false, "staging_lon": 94.70351, "staging_lat": 27.5814, "staging_gap_km": 2.07, "score_accessibility": 1.0, "score_population": 0.003, "score_infrastructure": 1.0, "score_isolation": 0.8, "score_flood": 0.0, "priority_score": 0.621, "priority_rank": 16, "priority_category": "very_high"}, "geometry": {"type": "Point", "coordinates": [94.691865, 27.5968851]}}, {"id": "58", "type": "Feature", "properties": {"osm_id": 9594277341, "name": "Malani", "place": "hamlet", "population": "", "est_population": 150, "settlement_type": "hamlet", "district": "Dhemaji", "is_flooded": false, "flood_depth_m": 0.0, "pre_travel_time": -1.0, "nearest_dest_dist": -1.0, "pre_reachable": 0, "pre_connected": false, "pre_isolation": 1.0, "post_travel_time": -1.0, "post_reachable": 0, "post_connected": false, "post_isolation": 1.0, "connectivity_lost": false, "newly_isolated": true, "travel_time_increase": 999.0, "accessibility_change": 1.0, "accessibility_status": "isolated", "care_time_min": Infinity, "has_care_access": false, "staging_lon": 94.75322, "staging_lat": 27.62068, "staging_gap_km": 4.96, "score_accessibility": 0.8, "score_population": 0.0, "score_infrastructure": 1.0, "score_isolation": 0.8, "score_flood": 0.0, "priority_score": 0.56, "priority_rank": 49, "priority_category": "high"}, "geometry": {"type": "Point", "coordinates": [94.7225788, 27.6560344]}}, {"id": "59", "type": "Feature", "properties": {"osm_id": 9614163486, "name": "Bhebeli Gaon", "place": "hamlet", "population": "", "est_population": 150, "settlement_type": "hamlet", "district": "Dhemaji", "is_flooded": false, "flood_depth_m": 0.0, "pre_travel_time": 25.895999999999997, "nearest_dest_dist": 12.947999999999999, "pre_reachable": 1, "pre_connected": true, "pre_isolation": 0.0, "post_travel_time": 27.032999999999998, "post_reachable": 1, "post_connected": true, "post_isolation": 0.0, "connectivity_lost": false, "newly_isolated": false, "travel_time_increase": 1.1370000000000005, "accessibility_change": 0.0, "accessibility_status": "accessible", "care_time_min": 27.0, "has_care_access": true, "staging_lon": null, "staging_lat": null, "staging_gap_km": null, "score_accessibility": 0.0, "score_population": 0.0, "score_infrastructure": 0.0, "score_isolation": 0.0, "score_flood": 0.0, "priority_score": 0.0, "priority_rank": 75, "priority_category": "low"}, "geometry": {"type": "Point", "coordinates": [94.6565888, 27.5467321]}}, {"id": "60", "type": "Feature", "properties": {"osm_id": 9621175763, "name": "Akajan Miri", "place": "village", "population": "", "est_population": 450, "settlement_type": "village", "district": "Dhemaji", "is_flooded": false, "flood_depth_m": 0.0, "pre_travel_time": 6.534000000000001, "nearest_dest_dist": 3.2670000000000003, "pre_reachable": 1, "pre_connected": true, "pre_isolation": 0.0, "post_travel_time": 7.112, "post_reachable": 1, "post_connected": true, "post_isolation": 0.0, "connectivity_lost": false, "newly_isolated": false, "travel_time_increase": 0.5779999999999994, "accessibility_change": 0.0, "accessibility_status": "accessible", "care_time_min": 7.1, "has_care_access": true, "staging_lon": null, "staging_lat": null, "staging_gap_km": null, "score_accessibility": 0.0, "score_population": 0.003, "score_infrastructure": 0.0, "score_isolation": 0.0, "score_flood": 0.0, "priority_score": 0.001, "priority_rank": 58, "priority_category": "low"}, "geometry": {"type": "Point", "coordinates": [94.7364891, 27.5560142]}}, {"id": "61", "type": "Feature", "properties": {"osm_id": 9621175764, "name": "Bormuria Chapori", "place": "village", "population": "", "est_population": 450, "settlement_type": "village", "district": "Dhemaji", "is_flooded": false, "flood_depth_m": 0.0, "pre_travel_time": 8.576, "nearest_dest_dist": 4.288, "pre_reachable": 1, "pre_connected": true, "pre_isolation": 0.0, "post_travel_time": -1.0, "post_reachable": 0, "post_connected": false, "post_isolation": 1.0, "connectivity_lost": true, "newly_isolated": true, "travel_time_increase": 999.0, "accessibility_change": 1.0, "accessibility_status": "isolated", "care_time_min": Infinity, "has_care_access": false, "staging_lon": 94.7369, "staging_lat": 27.54608, "staging_gap_km": 0.4, "score_accessibility": 1.0, "score_population": 0.003, "score_infrastructure": 1.0, "score_isolation": 0.8, "score_flood": 0.0, "priority_score": 0.621, "priority_rank": 16, "priority_category": "very_high"}, "geometry": {"type": "Point", "coordinates": [94.7405403, 27.5445259]}}, {"id": "62", "type": "Feature", "properties": {"osm_id": 9621475214, "name": "No. 2 Tangani Majgaon", "place": "village", "population": "", "est_population": 450, "settlement_type": "village", "district": "Dhemaji", "is_flooded": false, "flood_depth_m": 0.0, "pre_travel_time": 15.129000000000003, "nearest_dest_dist": 7.564500000000002, "pre_reachable": 1, "pre_connected": true, "pre_isolation": 0.0, "post_travel_time": 16.341, "post_reachable": 1, "post_connected": true, "post_isolation": 0.0, "connectivity_lost": false, "newly_isolated": false, "travel_time_increase": 1.211999999999998, "accessibility_change": 0.0, "accessibility_status": "accessible", "care_time_min": 16.3, "has_care_access": true, "staging_lon": null, "staging_lat": null, "staging_gap_km": null, "score_accessibility": 0.0, "score_population": 0.003, "score_infrastructure": 0.0, "score_isolation": 0.0, "score_flood": 0.0, "priority_score": 0.001, "priority_rank": 58, "priority_category": "low"}, "geometry": {"type": "Point", "coordinates": [94.7432561, 27.5169168]}}, {"id": "63", "type": "Feature", "properties": {"osm_id": 9621475215, "name": "No. 1 Tangani Majgaon", "place": "village", "population": "", "est_population": 450, "settlement_type": "village", "district": "Dhemaji", "is_flooded": false, "flood_depth_m": 0.0, "pre_travel_time": 15.91, "nearest_dest_dist": 7.955, "pre_reachable": 1, "pre_connected": true, "pre_isolation": 0.0, "post_travel_time": 16.365000000000002, "post_reachable": 1, "post_connected": true, "post_isolation": 0.0, "connectivity_lost": false, "newly_isolated": false, "travel_time_increase": 0.45500000000000185, "accessibility_change": 0.0, "accessibility_status": "accessible", "care_time_min": 16.4, "has_care_access": true, "staging_lon": null, "staging_lat": null, "staging_gap_km": null, "score_accessibility": 0.0, "score_population": 0.003, "score_infrastructure": 0.0, "score_isolation": 0.0, "score_flood": 0.0, "priority_score": 0.001, "priority_rank": 58, "priority_category": "low"}, "geometry": {"type": "Point", "coordinates": [94.7532702, 27.5277352]}}, {"id": "64", "type": "Feature", "properties": {"osm_id": 9627091747, "name": "No. 2 Chila Pathar", "place": "hamlet", "population": "", "est_population": 150, "settlement_type": "hamlet", "district": "Dhemaji", "is_flooded": false, "flood_depth_m": 0.0, "pre_travel_time": 9.858000000000002, "nearest_dest_dist": 4.929000000000001, "pre_reachable": 1, "pre_connected": true, "pre_isolation": 0.0, "post_travel_time": 10.604000000000003, "post_reachable": 1, "post_connected": true, "post_isolation": 0.0, "connectivity_lost": false, "newly_isolated": false, "travel_time_increase": 0.7460000000000004, "accessibility_change": 0.0, "accessibility_status": "accessible", "care_time_min": 10.6, "has_care_access": true, "staging_lon": null, "staging_lat": null, "staging_gap_km": null, "score_accessibility": 0.0, "score_population": 0.0, "score_infrastructure": 0.0, "score_isolation": 0.0, "score_flood": 0.0, "priority_score": 0.0, "priority_rank": 75, "priority_category": "low"}, "geometry": {"type": "Point", "coordinates": [94.7598254, 27.6007304]}}, {"id": "65", "type": "Feature", "properties": {"osm_id": 9627091748, "name": "No. 1 Chila Pathar", "place": "hamlet", "population": "", "est_population": 150, "settlement_type": "hamlet", "district": "Dhemaji", "is_flooded": false, "flood_depth_m": 0.0, "pre_travel_time": 8.331000000000001, "nearest_dest_dist": 4.165500000000001, "pre_reachable": 1, "pre_connected": true, "pre_isolation": 0.0, "post_travel_time": 9.077000000000004, "post_reachable": 1, "post_connected": true, "post_isolation": 0.0, "connectivity_lost": false, "newly_isolated": false, "travel_time_increase": 0.7460000000000022, "accessibility_change": 0.0, "accessibility_status": "accessible", "care_time_min": 9.1, "has_care_access": true, "staging_lon": null, "staging_lat": null, "staging_gap_km": null, "score_accessibility": 0.0, "score_population": 0.0, "score_infrastructure": 0.0, "score_isolation": 0.0, "score_flood": 0.0, "priority_score": 0.0, "priority_rank": 75, "priority_category": "low"}, "geometry": {"type": "Point", "coordinates": [94.7549378, 27.5957324]}}, {"id": "66", "type": "Feature", "properties": {"osm_id": 9627094125, "name": "Bharaibpur", "place": "hamlet", "population": "", "est_population": 150, "settlement_type": "hamlet", "district": "Dhemaji", "is_flooded": false, "flood_depth_m": 0.0, "pre_travel_time": 11.027000000000003, "nearest_dest_dist": 5.513500000000001, "pre_reachable": 1, "pre_connected": true, "pre_isolation": 0.0, "post_travel_time": 11.773000000000003, "post_reachable": 1, "post_connected": true, "post_isolation": 0.0, "connectivity_lost": false, "newly_isolated": false, "travel_time_increase": 0.7460000000000004, "accessibility_change": 0.0, "accessibility_status": "accessible", "care_time_min": 11.8, "has_care_access": true, "staging_lon": null, "staging_lat": null, "staging_gap_km": null, "score_accessibility": 0.0, "score_population": 0.0, "score_infrastructure": 0.0, "score_isolation": 0.0, "score_flood": 0.0, "priority_score": 0.0, "priority_rank": 75, "priority_category": "low"}, "geometry": {"type": "Point", "coordinates": [94.7634887, 27.6001964]}}, {"id": "67", "type": "Feature", "properties": {"osm_id": 9627094483, "name": "Silabaligaon", "place": "village", "population": "", "est_population": 450, "settlement_type": "village", "district": "Dhemaji", "is_flooded": false, "flood_depth_m": 0.0, "pre_travel_time": 11.241, "nearest_dest_dist": 5.6205, "pre_reachable": 1, "pre_connected": true, "pre_isolation": 0.0, "post_travel_time": 11.987000000000004, "post_reachable": 1, "post_connected": true, "post_isolation": 0.0, "connectivity_lost": false, "newly_isolated": false, "travel_time_increase": 0.746000000000004, "accessibility_change": 0.0, "accessibility_status": "accessible", "care_time_min": 12.0, "has_care_access": true, "staging_lon": null, "staging_lat": null, "staging_gap_km": null, "score_accessibility": 0.0, "score_population": 0.003, "score_infrastructure": 0.0, "score_isolation": 0.0, "score_flood": 0.0, "priority_score": 0.001, "priority_rank": 58, "priority_category": "low"}, "geometry": {"type": "Point", "coordinates": [94.7657396, 27.5974529]}}, {"id": "68", "type": "Feature", "properties": {"osm_id": 9627117726, "name": "Thekeraguri", "place": "hamlet", "population": "", "est_population": 150, "settlement_type": "hamlet", "district": "Dhemaji", "is_flooded": false, "flood_depth_m": 0.0, "pre_travel_time": 8.653000000000002, "nearest_dest_dist": 4.326500000000001, "pre_reachable": 1, "pre_connected": true, "pre_isolation": 0.0, "post_travel_time": 9.399000000000003, "post_reachable": 1, "post_connected": true, "post_isolation": 0.0, "connectivity_lost": false, "newly_isolated": false, "travel_time_increase": 0.7460000000000004, "accessibility_change": 0.0, "accessibility_status": "accessible", "care_time_min": 9.4, "has_care_access": true, "staging_lon": null, "staging_lat": null, "staging_gap_km": null, "score_accessibility": 0.0, "score_population": 0.0, "score_infrastructure": 0.0, "score_isolation": 0.0, "score_flood": 0.0, "priority_score": 0.0, "priority_rank": 75, "priority_category": "low"}, "geometry": {"type": "Point", "coordinates": [94.7566842, 27.5999259]}}, {"id": "69", "type": "Feature", "properties": {"osm_id": 9627171489, "name": "Joriguri", "place": "village", "population": "", "est_population": 450, "settlement_type": "village", "district": "Dhemaji", "is_flooded": true, "flood_depth_m": 6.0, "pre_travel_time": 16.431000000000004, "nearest_dest_dist": 8.215500000000002, "pre_reachable": 1, "pre_connected": true, "pre_isolation": 0.0, "post_travel_time": -1.0, "post_reachable": 0, "post_connected": false, "post_isolation": 1.0, "connectivity_lost": true, "newly_isolated": true, "travel_time_increase": 999.0, "accessibility_change": 1.0, "accessibility_status": "isolated", "care_time_min": Infinity, "has_care_access": false, "staging_lon": 94.77011, "staging_lat": 27.58391, "staging_gap_km": 1.7, "score_accessibility": 1.0, "score_population": 0.303, "score_infrastructure": 1.0, "score_isolation": 0.8, "score_flood": 1.0, "priority_score": 0.796, "priority_rank": 1, "priority_category": "very_high"}, "geometry": {"type": "Point", "coordinates": [94.7670088, 27.5688939]}}, {"id": "70", "type": "Feature", "properties": {"osm_id": 9627171500, "name": "Memberchuk", "place": "hamlet", "population": "", "est_population": 150, "settlement_type": "hamlet", "district": "Dhemaji", "is_flooded": false, "flood_depth_m": 0.0, "pre_travel_time": 8.520999999999999, "nearest_dest_dist": 4.2604999999999995, "pre_reachable": 1, "pre_connected": true, "pre_isolation": 0.0, "post_travel_time": 9.098999999999998, "post_reachable": 1, "post_connected": true, "post_isolation": 0.0, "connectivity_lost": false, "newly_isolated": false, "travel_time_increase": 0.5779999999999994, "accessibility_change": 0.0, "accessibility_status": "accessible", "care_time_min": 9.1, "has_care_access": true, "staging_lon": null, "staging_lat": null, "staging_gap_km": null, "score_accessibility": 0.0, "score_population": 0.0, "score_infrastructure": 0.0, "score_isolation": 0.0, "score_flood": 0.0, "priority_score": 0.0, "priority_rank": 75, "priority_category": "low"}, "geometry": {"type": "Point", "coordinates": [94.7437473, 27.5665753]}}, {"id": "71", "type": "Feature", "properties": {"osm_id": 9627171517, "name": "Mishingpur", "place": "village", "population": "", "est_population": 450, "settlement_type": "village", "district": "Dhemaji", "is_flooded": false, "flood_depth_m": 0.0, "pre_travel_time": 9.857000000000003, "nearest_dest_dist": 4.928500000000001, "pre_reachable": 1, "pre_connected": true, "pre_isolation": 0.0, "post_travel_time": 10.435000000000002, "post_reachable": 1, "post_connected": true, "post_isolation": 0.0, "connectivity_lost": false, "newly_isolated": false, "travel_time_increase": 0.5779999999999994, "accessibility_change": 0.0, "accessibility_status": "accessible", "care_time_min": 10.4, "has_care_access": true, "staging_lon": null, "staging_lat": null, "staging_gap_km": null, "score_accessibility": 0.0, "score_population": 0.003, "score_infrastructure": 0.0, "score_isolation": 0.0, "score_flood": 0.0, "priority_score": 0.001, "priority_rank": 58, "priority_category": "low"}, "geometry": {"type": "Point", "coordinates": [94.7472812, 27.5696466]}}, {"id": "72", "type": "Feature", "properties": {"osm_id": 9628955501, "name": "Archipathar", "place": "village", "population": "", "est_population": 450, "settlement_type": "village", "district": "Dhemaji", "is_flooded": false, "flood_depth_m": 0.0, "pre_travel_time": 14.881, "nearest_dest_dist": 7.4405, "pre_reachable": 1, "pre_connected": true, "pre_isolation": 0.0, "post_travel_time": -1.0, "post_reachable": 0, "post_connected": false, "post_isolation": 1.0, "connectivity_lost": true, "newly_isolated": true, "travel_time_increase": 999.0, "accessibility_change": 1.0, "accessibility_status": "isolated", "care_time_min": Infinity, "has_care_access": false, "staging_lon": 94.77235, "staging_lat": 27.6197, "staging_gap_km": 4.49, "score_accessibility": 1.0, "score_population": 0.003, "score_infrastructure": 1.0, "score_isolation": 0.8, "score_flood": 0.0, "priority_score": 0.621, "priority_rank": 16, "priority_category": "very_high"}, "geometry": {"type": "Point", "coordinates": [94.7842022, 27.6587392]}}, {"id": "73", "type": "Feature", "properties": {"osm_id": 9628970442, "name": "Jalakia Suti", "place": "village", "population": "", "est_population": 450, "settlement_type": "village", "district": "Dhemaji", "is_flooded": false, "flood_depth_m": 0.0, "pre_travel_time": 11.129000000000001, "nearest_dest_dist": 5.564500000000001, "pre_reachable": 1, "pre_connected": true, "pre_isolation": 0.0, "post_travel_time": -1.0, "post_reachable": 0, "post_connected": false, "post_isolation": 1.0, "connectivity_lost": true, "newly_isolated": true, "travel_time_increase": 999.0, "accessibility_change": 1.0, "accessibility_status": "isolated", "care_time_min": Infinity, "has_care_access": false, "staging_lon": 94.77235, "staging_lat": 27.6197, "staging_gap_km": 0.95, "score_accessibility": 1.0, "score_population": 0.003, "score_infrastructure": 1.0, "score_isolation": 0.8, "score_flood": 0.0, "priority_score": 0.621, "priority_rank": 16, "priority_category": "very_high"}, "geometry": {"type": "Point", "coordinates": [94.7722828, 27.6282012]}}, {"id": "74", "type": "Feature", "properties": {"osm_id": 9646077729, "name": "Majorbari", "place": "village", "population": "", "est_population": 450, "settlement_type": "village", "district": "Dhemaji", "is_flooded": false, "flood_depth_m": 0.0, "pre_travel_time": 42.572, "nearest_dest_dist": 21.286, "pre_reachable": 1, "pre_connected": true, "pre_isolation": 0.0, "post_travel_time": -1.0, "post_reachable": 0, "post_connected": false, "post_isolation": 1.0, "connectivity_lost": true, "newly_isolated": true, "travel_time_increase": 999.0, "accessibility_change": 1.0, "accessibility_status": "isolated", "care_time_min": Infinity, "has_care_access": false, "staging_lon": 94.78831, "staging_lat": 27.59318, "staging_gap_km": 5.96, "score_accessibility": 1.0, "score_population": 0.003, "score_infrastructure": 1.0, "score_isolation": 0.8, "score_flood": 0.0, "priority_score": 0.621, "priority_rank": 16, "priority_category": "very_high"}, "geometry": {"type": "Point", "coordinates": [94.8487794, 27.5946012]}}, {"id": "75", "type": "Feature", "properties": {"osm_id": 9706140668, "name": "Durpai", "place": "hamlet", "population": "", "est_population": 150, "settlement_type": "hamlet", "district": "Dhemaji", "is_flooded": false, "flood_depth_m": 0.0, "pre_travel_time": 51.547000000000004, "nearest_dest_dist": 25.773500000000002, "pre_reachable": 1, "pre_connected": true, "pre_isolation": 0.0, "post_travel_time": -1.0, "post_reachable": 0, "post_connected": false, "post_isolation": 1.0, "connectivity_lost": true, "newly_isolated": true, "travel_time_increase": 999.0, "accessibility_change": 1.0, "accessibility_status": "isolated", "care_time_min": Infinity, "has_care_access": false, "staging_lon": 94.52616, "staging_lat": 27.50814, "staging_gap_km": 22.79, "score_accessibility": 1.0, "score_population": 0.0, "score_infrastructure": 1.0, "score_isolation": 0.8, "score_flood": 0.0, "priority_score": 0.62, "priority_rank": 47, "priority_category": "very_high"}, "geometry": {"type": "Point", "coordinates": [94.3006056, 27.5529109]}}, {"id": "76", "type": "Feature", "properties": {"osm_id": 10208010964, "name": "Jangraimukh", "place": "village", "population": "", "est_population": 750, "settlement_type": "village", "district": "Lakhimpur", "is_flooded": false, "flood_depth_m": 0.0, "pre_travel_time": 25.229000000000003, "nearest_dest_dist": 12.614500000000001, "pre_reachable": 1, "pre_connected": true, "pre_isolation": 0.0, "post_travel_time": -1.0, "post_reachable": 0, "post_connected": false, "post_isolation": 1.0, "connectivity_lost": true, "newly_isolated": true, "travel_time_increase": 999.0, "accessibility_change": 1.0, "accessibility_status": "isolated", "care_time_min": Infinity, "has_care_access": false, "staging_lon": 94.27703, "staging_lat": 26.96398, "staging_gap_km": 14.27, "score_accessibility": 1.0, "score_population": 0.006, "score_infrastructure": 1.0, "score_isolation": 0.8, "score_flood": 0.0, "priority_score": 0.621, "priority_rank": 16, "priority_category": "very_high"}, "geometry": {"type": "Point", "coordinates": [94.284623, 27.0921357]}}, {"id": "77", "type": "Feature", "properties": {"osm_id": 10303891377, "name": "Bihpuria", "place": "town", "population": "", "est_population": 10500, "settlement_type": "town", "district": "Lakhimpur", "is_flooded": false, "flood_depth_m": 0.0, "pre_travel_time": 1.888, "nearest_dest_dist": 0.944, "pre_reachable": 1, "pre_connected": true, "pre_isolation": 0.0, "post_travel_time": -1.0, "post_reachable": 0, "post_connected": false, "post_isolation": 1.0, "connectivity_lost": true, "newly_isolated": true, "travel_time_increase": 999.0, "accessibility_change": 1.0, "accessibility_status": "critically_isolated", "care_time_min": Infinity, "has_care_access": false, "staging_lon": 93.91495, "staging_lat": 27.01926, "staging_gap_km": 0.18, "score_accessibility": 1.0, "score_population": 0.098, "score_infrastructure": 1.0, "score_isolation": 1.0, "score_flood": 0.0, "priority_score": 0.675, "priority_rank": 10, "priority_category": "very_high"}, "geometry": {"type": "Point", "coordinates": [93.9167974, 27.019264]}}, {"id": "78", "type": "Feature", "properties": {"osm_id": 10692764768, "name": "Auniati", "place": "village", "population": "", "est_population": 4500, "settlement_type": "village", "district": "Majuli", "is_flooded": false, "flood_depth_m": 0.0, "pre_travel_time": 18.948, "nearest_dest_dist": 9.474, "pre_reachable": 1, "pre_connected": true, "pre_isolation": 0.0, "post_travel_time": -1.0, "post_reachable": 0, "post_connected": false, "post_isolation": 1.0, "connectivity_lost": true, "newly_isolated": true, "travel_time_increase": 999.0, "accessibility_change": 1.0, "accessibility_status": "isolated", "care_time_min": Infinity, "has_care_access": false, "staging_lon": 94.13136, "staging_lat": 26.9748, "staging_gap_km": 4.33, "score_accessibility": 1.0, "score_population": 0.041, "score_infrastructure": 1.0, "score_isolation": 0.8, "score_flood": 0.0, "priority_score": 0.63, "priority_rank": 12, "priority_category": "very_high"}, "geometry": {"type": "Point", "coordinates": [94.1238147, 26.9364877]}}, {"id": "79", "type": "Feature", "properties": {"osm_id": 12508542092, "name": "Amguri Bali", "place": "village", "population": "", "est_population": 450, "settlement_type": "village", "district": "Dhemaji", "is_flooded": false, "flood_depth_m": 0.0, "pre_travel_time": 33.135, "nearest_dest_dist": 16.5675, "pre_reachable": 1, "pre_connected": true, "pre_isolation": 0.0, "post_travel_time": -1.0, "post_reachable": 0, "post_connected": false, "post_isolation": 1.0, "connectivity_lost": true, "newly_isolated": true, "travel_time_increase": 999.0, "accessibility_change": 1.0, "accessibility_status": "isolated", "care_time_min": Infinity, "has_care_access": false, "staging_lon": 94.71043, "staging_lat": 27.48673, "staging_gap_km": 4.17, "score_accessibility": 1.0, "score_population": 0.003, "score_infrastructure": 1.0, "score_isolation": 0.8, "score_flood": 0.0, "priority_score": 0.621, "priority_rank": 16, "priority_category": "very_high"}, "geometry": {"type": "Point", "coordinates": [94.7329012, 27.4549471]}}]}