{"type": "FeatureCollection", "features": [{"type": "Feature", "properties": {"district": "Dhemaji", "display_name": "Dhemaji, Assam, India"}, "geometry": {"type": "Polygon", "coordinates": [[[94.2110155, 27.6110179], [94.2248418, 27.5985296], [94.2212737, 27.5878253], [94.2266259, 27.575783], [94.2338867, 27.5713401], [94.2565086, 27.5574965], [94.2639437, 27.525788], [94.2706775, 27.5129532], [94.2766282, 27.5025941], [94.2779172, 27.4714163], [94.2954825, 27.4497142], [94.307928, 27.4392026], [94.3073539, 27.4339514], [94.3091296, 27.4089571], [94.3058688, 27.3989972], [94.3007183, 27.3910877], [94.2971723, 27.388118], [94.290998, 27.3846289], [94.2870704, 27.3858774], [94.2735957, 27.3963841], [94.2690682, 27.4017373], [94.2654289, 27.4018386], [94.2560626, 27.4027306], [94.2471424, 27.3933643], [94.2537935, 27.3859882], [94.271673, 27.3661576], [94.2933511, 27.3569179], [94.2988797, 27.3545613], [94.3004179, 27.3418465], [94.3000316, 27.3325446], [94.3037859, 27.3233405], [94.3081426, 27.3200773], [94.3178844, 27.3204585], [94.3265324, 27.3193264], [94.3273106, 27.3198885], [94.3308448, 27.3224412], [94.3332481, 27.3249576], [94.3356943, 27.3280839], [94.3367672, 27.3306002], [94.3374967, 27.3330402], [94.338355, 27.3367], [94.3392992, 27.3376531], [94.3407154, 27.3376912], [94.3461656, 27.339178], [94.3506288, 27.3402835], [94.3532896, 27.3417321], [94.3547487, 27.3429901], [94.3564653, 27.3429901], [94.3586969, 27.3420752], [94.3612289, 27.3415415], [94.3638467, 27.3411603], [94.3663787, 27.3417321], [94.368782, 27.3423801], [94.3717002, 27.3427995], [94.3766355, 27.3428757], [94.3792963, 27.345201], [94.3808841, 27.3472214], [94.3829011, 27.3476788], [94.385519, 27.3477932], [94.3873643, 27.3479838], [94.3872785, 27.3492798], [94.387536, 27.3513763], [94.389038, 27.3516812], [94.3913984, 27.3511476], [94.3924284, 27.3504996], [94.3923854, 27.349356], [94.3909263, 27.3482887], [94.3907117, 27.3467639], [94.3906688, 27.3452773], [94.3912267, 27.3436381], [94.3916988, 27.3421514], [94.3921709, 27.3416177], [94.3935012, 27.3422658], [94.3942308, 27.3438287], [94.3949174, 27.3451629], [94.3984794, 27.3452773], [94.4014406, 27.344553], [94.4033289, 27.342647], [94.4059896, 27.3411984], [94.4050455, 27.3395592], [94.4039726, 27.3384918], [94.4026851, 27.3359375], [94.402728, 27.3338408], [94.4047021, 27.3322396], [94.4061184, 27.3331164], [94.4064617, 27.3350226], [94.4068479, 27.3366238], [94.4087791, 27.3374625], [94.4098091, 27.3383393], [94.4110107, 27.3392923], [94.4135427, 27.3392542], [94.4146156, 27.338263], [94.4144868, 27.3361282], [94.4143581, 27.3344889], [94.4148731, 27.3337264], [94.4170618, 27.3336883], [94.4177484, 27.3352513], [94.4178342, 27.3373862], [94.4186925, 27.3381105], [94.4203662, 27.338568], [94.4220829, 27.338873], [94.4262027, 27.3382249], [94.4262456, 27.3355182], [94.4269323, 27.3320871], [94.4285202, 27.3292277], [94.4278764, 27.3269402], [94.4284343, 27.3252245], [94.4297647, 27.3243476], [94.4301939, 27.3223268], [94.4290781, 27.3206873], [94.4287777, 27.3193147], [94.4296789, 27.3183615], [94.4305801, 27.3183233], [94.4319534, 27.3195816], [94.4335413, 27.3204585], [94.4360303, 27.3193528], [94.4419097, 27.3182471], [94.4411802, 27.3159593], [94.439764, 27.3143197], [94.4389057, 27.3129089], [94.438219, 27.3114218], [94.4386911, 27.3102397], [94.4406223, 27.3097059], [94.4425535, 27.3101253], [94.4442272, 27.3109261], [94.4448709, 27.3116506], [94.4450426, 27.3122607], [94.4445276, 27.3144722], [94.4448709, 27.3161118], [94.4454717, 27.3177895], [94.4453859, 27.3197722], [94.4453859, 27.3215643], [94.4470167, 27.3219455], [94.4498491, 27.3217168], [94.4517803, 27.321488], [94.4541835, 27.3217168], [94.4555139, 27.3229369], [94.4563293, 27.3241951], [94.4568872, 27.3270545], [94.4577455, 27.3283889], [94.4598484, 27.3319727], [94.4604921, 27.333612], [94.4624662, 27.3342601], [94.4656419, 27.3345651], [94.4665002, 27.3339933], [94.4668865, 27.3318583], [94.467659, 27.3309433], [94.4695043, 27.330829], [94.4716501, 27.3301046], [94.4739675, 27.3299521], [94.4773578, 27.3315152], [94.4800186, 27.3323158], [94.4825077, 27.3329639], [94.4864988, 27.3334214], [94.4903612, 27.3335739], [94.4939661, 27.3335739], [94.4977855, 27.3347557], [94.5013475, 27.3359757], [94.5037508, 27.3373862], [94.5049095, 27.3389111], [94.5062828, 27.3405885], [94.5070123, 27.3427232], [94.5082569, 27.3460016], [94.5091152, 27.3474501], [94.5103168, 27.3489367], [94.5125055, 27.3498897], [94.5140075, 27.3487461], [94.5144796, 27.3469927], [94.5169258, 27.3471833], [94.5179557, 27.347755], [94.5195436, 27.349013], [94.5214319, 27.3495085], [94.5234489, 27.3484793], [94.5261097, 27.3479075], [94.5310878, 27.3477169], [94.5336198, 27.3482887], [94.5363664, 27.3493941], [94.5374393, 27.3500803], [94.5388555, 27.3516431], [94.5398426, 27.3528629], [94.5417738, 27.353244], [94.5448207, 27.3531678], [94.5459365, 27.3541969], [94.5471382, 27.3559503], [94.5482111, 27.3565983], [94.5500564, 27.3567888], [94.5519447, 27.3570175], [94.5561504, 27.3587327], [94.5580387, 27.3592663], [94.559884, 27.3599905], [94.5604506, 27.3609751], [94.5618581, 27.3634208], [94.5662355, 27.3661268], [94.5673942, 27.3670415], [94.5713424, 27.3705859], [94.5731449, 27.3715387], [94.5758056, 27.3700142], [94.5769214, 27.3695569], [94.5783376, 27.3710051], [94.5785093, 27.3728725], [94.5815134, 27.3728725], [94.5839166, 27.3730631], [94.5858049, 27.3734061], [94.5864486, 27.3750067], [94.5879507, 27.3767978], [94.589324, 27.3785127], [94.5908689, 27.3792368], [94.5919418, 27.3780554], [94.591813, 27.3759213], [94.5909977, 27.3739396], [94.5900964, 27.370967], [94.5902681, 27.3687947], [94.5909547, 27.3670034], [94.5917701, 27.3652883], [94.5919847, 27.362468], [94.5921564, 27.3612483], [94.5937013, 27.358809], [94.5993232, 27.3582372], [94.6034431, 27.357818], [94.6062755, 27.3562552], [94.6079492, 27.3557597], [94.6101808, 27.3557978], [94.6115112, 27.3567507], [94.6122837, 27.3593426], [94.6127986, 27.3620868], [94.6142578, 27.3648691], [94.6162748, 27.3652883], [94.6183347, 27.3642212], [94.6187639, 27.362468], [94.6189355, 27.3604098], [94.6193218, 27.3584659], [94.6201372, 27.3572844], [94.6231412, 27.3545019], [94.6223688, 27.3526341], [94.621725, 27.3516431], [94.6206092, 27.3508426], [94.621768, 27.349356], [94.6229267, 27.3478694], [94.62224, 27.3461922], [94.6219825, 27.3447055], [94.6227121, 27.3433713], [94.6243429, 27.3421895], [94.6266603, 27.3412365], [94.6272611, 27.3396735], [94.6263599, 27.3380343], [94.6245145, 27.3366619], [94.623742, 27.3356135], [94.6221445, 27.3343687], [94.6278465, 27.3298072], [94.6377549, 27.3218802], [94.641769, 27.3397209], [94.6662996, 27.3513174], [94.6649616, 27.3785246], [94.6748401, 27.3834641], [94.6917223, 27.3919052], [94.6930603, 27.4208964], [94.7229431, 27.4289248], [94.7327553, 27.4436434], [94.7465817, 27.4373991], [94.7742344, 27.4851231], [94.7951969, 27.4837851], [94.8210656, 27.5074241], [94.82275, 27.5131153], [94.8270845, 27.5160758], [94.8305414, 27.5199928], [94.8723569, 27.5591623], [94.8821691, 27.5756651], [94.9071458, 27.5877076], [94.9223102, 27.6028723], [94.9486248, 27.6109006], [94.9538898, 27.6209578], [94.9579911, 27.6300795], [94.9729192, 27.642561], [94.9761913, 27.6452967], [94.9851978, 27.6528263], [95.0293529, 27.6608547], [95.0418412, 27.6702211], [95.0636958, 27.6626388], [95.1074049, 27.6648689], [95.1225693, 27.6827097], [95.2068655, 27.7108089], [95.1943771, 27.6697751], [95.1989901, 27.6667676], [95.2032974, 27.6639768], [95.226044, 27.6550565], [95.2496826, 27.6581786], [95.267523, 27.667991], [95.2694625, 27.6745211], [95.2714634, 27.6812479], [95.2762698, 27.6912804], [95.2885791, 27.6988822], [95.3455077, 27.7012111], [95.3608131, 27.7059475], [95.3701686, 27.7138501], [95.389223, 27.7281342], [95.3941154, 27.7292738], [95.4005527, 27.7361112], [95.3975486, 27.7519876], [95.4044716, 27.7611722], [95.4046726, 27.7693425], [95.4080199, 27.7719626], [95.4102945, 27.773975], [95.411582, 27.7820626], [95.418148, 27.7854418], [95.4214525, 27.7879855], [95.4250787, 27.7893903], [95.427053, 27.7897889], [95.4289841, 27.7897699], [95.4329753, 27.7920098], [95.4384683, 27.7943447], [95.4459142, 27.7969452], [95.4478711, 27.7973214], [95.4517293, 27.7985966], [95.4558491, 27.7994507], [95.4599476, 27.8014058], [95.4637027, 27.8051069], [95.4673075, 27.8115031], [95.470333, 27.8158493], [95.4709768, 27.817728], [95.4715776, 27.8202521], [95.4736376, 27.8241993], [95.4737448, 27.8253], [95.473423, 27.8261539], [95.4733642, 27.8265542], [95.4733372, 27.8289814], [95.4737234, 27.8301958], [95.4771566, 27.8326247], [95.4786587, 27.8344084], [95.4808688, 27.8383171], [95.4815124, 27.840632], [95.4824351, 27.8476142], [95.485096, 27.8530592], [95.4874134, 27.8554496], [95.4949951, 27.8579371], [95.4975629, 27.858485], [95.4998588, 27.8581625], [95.5084419, 27.8585799], [95.5151796, 27.8592818], [95.5153429, 27.8600175], [95.5144286, 27.8698479], [95.5145429, 27.8797175], [95.4384254, 27.857992], [95.3844715, 27.8420518], [95.309983, 27.8692595], [95.2990594, 27.8656932], [95.2800437, 27.8598525], [95.2340683, 27.8457299], [95.2213983, 27.8419024], [95.2210451, 27.8419012], [95.2040122, 27.8365808], [95.1971924, 27.8345095], [95.1769639, 27.8282669], [95.1369722, 27.817278], [95.1305431, 27.814296], [95.051747, 27.7903145], [95.0259948, 27.7825258], [95.0225192, 27.7814077], [95.0110871, 27.7776898], [94.9972539, 27.7732797], [94.9016188, 27.7824424], [94.8744046, 27.7354049], [94.872694, 27.7348577], [94.8686096, 27.7332798], [94.8537179, 27.731441], [94.8459577, 27.7106587], [94.8384475, 27.7069353], [94.836688, 27.7047316], [94.8330188, 27.700229], [94.8272037, 27.6974742], [94.8213243, 27.6962583], [94.818037, 27.6966521], [94.8158311, 27.6963723], [94.8087119, 27.6993149], [94.7989103, 27.700309], [94.7928715, 27.7028614], [94.7901403, 27.7007658], [94.7921128, 27.6978909], [94.7938122, 27.6956877], [94.793086, 27.6938264], [94.7910052, 27.6898301], [94.7886989, 27.6886478], [94.7852092, 27.6872102], [94.780662, 27.6857702], [94.7710705, 27.6846967], [94.7560414, 27.6663233], [94.7426611, 27.6632013], [94.7208065, 27.6698914], [94.7160347, 27.6588958], [94.7084111, 27.6565641], [94.7075999, 27.653586], [94.6924702, 27.650157], [94.6824496, 27.6493749], [94.6690692, 27.6502669], [94.6454306, 27.6364406], [94.6396325, 27.6310884], [94.6342134, 27.6254446], [94.6230983, 27.627802], [94.6066618, 27.619779], [94.6039515, 27.6230602], [94.6008295, 27.6217222], [94.5861111, 27.6199381], [94.5736228, 27.6070038], [94.5263456, 27.5958535], [94.5000309, 27.5771211], [94.4790683, 27.5771211], [94.4598899, 27.5574965], [94.4424954, 27.5793511], [94.4362513, 27.5842572], [94.4308991, 27.6029897], [94.4032464, 27.5873793], [94.3760397, 27.5847032], [94.3724716, 27.5793511], [94.3555232, 27.5775671], [94.3452649, 27.5847032], [94.3381287, 27.5811352], [94.3292085, 27.5882713], [94.3122601, 27.5896094], [94.2979877, 27.6043277], [94.2877294, 27.5918394], [94.2761331, 27.5931775], [94.2725651, 27.6034357], [94.2542786, 27.613694], [94.2667669, 27.6324265], [94.2520485, 27.6409007], [94.2351001, 27.6324265], [94.2172596, 27.6087879], [94.2110155, 27.6110179]]]}}, {"type": "Feature", "properties": {"district": "Lakhimpur", "display_name": "Lakhimpur, Assam, India"}, "geometry": {"type": "Polygon", "coordinates": [[[93.6981023, 26.9946301], [93.7219619, 26.9780368], [93.7262535, 26.9712671], [93.734107, 26.9699285], [93.7384414, 26.969087], [93.7407159, 26.9633878], [93.7456219, 26.9599143], [93.7459175, 26.9596841], [93.7462949, 26.9443376], [93.7444067, 26.9413535], [93.7486124, 26.9372216], [93.7507317, 26.9219303], [93.7508225, 26.9148186], [93.7433338, 26.9140533], [93.7413597, 26.9106475], [93.7441921, 26.9054811], [93.7424659, 26.9033185], [93.7443637, 26.8986498], [93.7557792, 26.8932916], [93.7792764, 26.8875874], [93.7890887, 26.8608267], [93.7882994, 26.8601828], [93.7882483, 26.8601411], [93.7850598, 26.8575401], [93.7721402, 26.8470003], [93.800685, 26.8282679], [93.8252156, 26.8287139], [93.842164, 26.8554746], [93.8568824, 26.8608267], [93.879183, 26.8590427], [93.8925633, 26.8684089], [93.8974694, 26.8750991], [93.8925633, 26.8938315], [93.9046442, 26.9021635], [93.918432, 26.911672], [93.9228921, 26.9299585], [93.9344787, 26.9309852], [93.9443492, 26.9290338], [93.9622867, 26.926815], [93.9700126, 26.923371], [93.9773082, 26.9265086], [93.9858563, 26.9339365], [93.9911055, 26.9415065], [93.9962035, 26.9431475], [93.9989161, 26.9397658], [94.0024137, 26.9368964], [94.0062761, 26.9311382], [94.0125404, 26.9312965], [94.0157604, 26.9319417], [94.0204965, 26.9338327], [94.0229272, 26.9381016], [94.0209531, 26.9471686], [94.0197944, 26.9562348], [94.0226697, 26.9591802], [94.0265139, 26.960874], [94.0347719, 26.9677865], [94.0345144, 26.9741739], [94.0396213, 26.977922], [94.046874, 26.9792224], [94.0494597, 26.9806565], [94.0526814, 26.9825878], [94.0563154, 26.9835822], [94.0595034, 26.981747], [94.0662288, 26.9739827], [94.0701479, 26.963358], [94.0770435, 26.9609398], [94.0836095, 26.9610546], [94.0960336, 26.9694503], [94.1019773, 26.9718599], [94.1111089, 26.971411], [94.1285419, 26.9695843], [94.1338555, 26.9727756], [94.1339199, 26.9779994], [94.1301726, 26.9880949], [94.1374236, 26.9932921], [94.146738, 26.9949782], [94.1549268, 27.0011288], [94.1802549, 27.0010198], [94.1855928, 27.0044424], [94.1871592, 27.009692], [94.1869926, 27.0182636], [94.1832161, 27.0301913], [94.1839456, 27.0355812], [94.1882336, 27.0367085], [94.1937866, 27.0344906], [94.2013263, 27.0295414], [94.2151451, 27.0305735], [94.2211771, 27.0342106], [94.2188787, 27.0392126], [94.2227411, 27.0498958], [94.2236852, 27.0575971], [94.2263031, 27.0635208], [94.2313242, 27.0725012], [94.2382222, 27.0771422], [94.2520952, 27.0890463], [94.2592191, 27.090651], [94.2646794, 27.0937925], [94.2723489, 27.0962843], [94.2817926, 27.0925996], [94.2818525, 27.0925775], [94.2824646, 27.092352], [94.2947959, 27.087709], [94.2983579, 27.0794176], [94.2995826, 27.0780455], [94.3048381, 27.0721573], [94.3105888, 27.0714313], [94.3127061, 27.0740202], [94.3135929, 27.0825126], [94.3172836, 27.0874416], [94.3221827, 27.0897717], [94.3303728, 27.0835061], [94.3371963, 27.082398], [94.3457109, 27.0865085], [94.3577098, 27.096764], [94.3661324, 27.0994571], [94.3716144, 27.0987124], [94.3807125, 27.0959999], [94.3883514, 27.0995147], [94.399681, 27.0969168], [94.412899, 27.0924849], [94.4179648, 27.0949827], [94.4209535, 27.1003118], [94.4214391, 27.1095619], [94.4233703, 27.1159794], [94.4317911, 27.1208514], [94.4510078, 27.1157884], [94.4552564, 27.1119685], [94.460535, 27.1124651], [94.4653415, 27.1154828], [94.4700623, 27.1220523], [94.4698047, 27.1314295], [94.4711581, 27.1350159], [94.4735203, 27.1380659], [94.4763187, 27.1393697], [94.4833231, 27.1351151], [94.4867317, 27.1265158], [94.4907474, 27.1221673], [94.4987726, 27.121327], [94.503622, 27.1222819], [94.505501, 27.1265584], [94.5053386, 27.1352679], [94.5067119, 27.142906], [94.5120732, 27.144044], [94.5249509, 27.1434024], [94.5287871, 27.1473355], [94.5290708, 27.152682], [94.5221185, 27.157035], [94.5204448, 27.1601279], [94.5249692, 27.1619746], [94.5273971, 27.1634689], [94.5373749, 27.1688334], [94.5440268, 27.1728422], [94.5527354, 27.1744857], [94.5584464, 27.175152], [94.5594549, 27.1775191], [94.5608678, 27.1822017], [94.5637339, 27.1802701], [94.570527, 27.1874638], [94.5755481, 27.1968542], [94.5765011, 27.2046273], [94.574089, 27.2144876], [94.5755481, 27.2245627], [94.580698, 27.2359341], [94.5843458, 27.2432601], [94.5852041, 27.2525313], [94.5833813, 27.2630437], [94.5841741, 27.268592], [94.590826, 27.2764116], [94.6039152, 27.2958249], [94.6082496, 27.3038334], [94.6111679, 27.3057782], [94.6113605, 27.3077792], [94.6099233, 27.3105257], [94.6117161, 27.3163638], [94.6120906, 27.3202679], [94.6079278, 27.3215833], [94.6055245, 27.3254342], [94.6069801, 27.3291768], [94.6221445, 27.3343687], [94.623742, 27.3356135], [94.6245145, 27.3366619], [94.6263599, 27.3380343], [94.6272611, 27.3396735], [94.6266603, 27.3412365], [94.6243429, 27.3421895], [94.6227121, 27.3433713], [94.6219825, 27.3447055], [94.62224, 27.3461922], [94.6229267, 27.3478694], [94.621768, 27.349356], [94.6206092, 27.3508426], [94.621725, 27.3516431], [94.6223688, 27.3526341], [94.6231412, 27.3545019], [94.6201372, 27.3572844], [94.6193218, 27.3584659], [94.6189355, 27.3604098], [94.6187639, 27.362468], [94.6183347, 27.3642212], [94.6162748, 27.3652883], [94.6142578, 27.3648691], [94.6127986, 27.3620868], [94.6122837, 27.3593426], [94.6115112, 27.3567507], [94.6101808, 27.3557978], [94.6079492, 27.3557597], [94.6062755, 27.3562552], [94.6034431, 27.357818], [94.5993232, 27.3582372], [94.5937013, 27.358809], [94.5921564, 27.3612483], [94.5919847, 27.362468], [94.5917701, 27.3652883], [94.5909547, 27.3670034], [94.5902681, 27.3687947], [94.5900964, 27.370967], [94.5909977, 27.3739396], [94.591813, 27.3759213], [94.5919418, 27.3780554], [94.5908689, 27.3792368], [94.589324, 27.3785127], [94.5879507, 27.3767978], [94.5864486, 27.3750067], [94.5858049, 27.3734061], [94.5839166, 27.3730631], [94.5815134, 27.3728725], [94.5785093, 27.3728725], [94.5783376, 27.3710051], [94.5769214, 27.3695569], [94.5758056, 27.3700142], [94.5731449, 27.3715387], [94.5713424, 27.3705859], [94.5673942, 27.3670415], [94.5662355, 27.3661268], [94.5618581, 27.3634208], [94.5604506, 27.3609751], [94.559884, 27.3599905], [94.5580387, 27.3592663], [94.5561504, 27.3587327], [94.5519447, 27.3570175], [94.5500564, 27.3567888], [94.5482111, 27.3565983], [94.5471382, 27.3559503], [94.5459365, 27.3541969], [94.5448207, 27.3531678], [94.5417738, 27.353244], [94.5398426, 27.3528629], [94.5388555, 27.3516431], [94.5374393, 27.3500803], [94.5363664, 27.3493941], [94.5336198, 27.3482887], [94.5310878, 27.3477169], [94.5261097, 27.3479075], [94.5234489, 27.3484793], [94.5214319, 27.3495085], [94.5195436, 27.349013], [94.5179557, 27.347755], [94.5169258, 27.3471833], [94.5144796, 27.3469927], [94.5140075, 27.3487461], [94.5125055, 27.3498897], [94.5103168, 27.3489367], [94.5091152, 27.3474501], [94.5082569, 27.3460016], [94.5070123, 27.3427232], [94.5062828, 27.3405885], [94.5049095, 27.3389111], [94.5037508, 27.3373862], [94.5013475, 27.3359757], [94.4977855, 27.3347557], [94.4939661, 27.3335739], [94.4903612, 27.3335739], [94.4864988, 27.3334214], [94.4825077, 27.3329639], [94.4800186, 27.3323158], [94.4773578, 27.3315152], [94.4739675, 27.3299521], [94.4716501, 27.3301046], [94.4695043, 27.330829], [94.467659, 27.3309433], [94.4668865, 27.3318583], [94.4665002, 27.3339933], [94.4656419, 27.3345651], [94.4624662, 27.3342601], [94.4604921, 27.333612], [94.4598484, 27.3319727], [94.4577455, 27.3283889], [94.4568872, 27.3270545], [94.4563293, 27.3241951], [94.4555139, 27.3229369], [94.4541835, 27.3217168], [94.4517803, 27.321488], [94.4498491, 27.3217168], [94.4470167, 27.3219455], [94.4453859, 27.3215643], [94.4453859, 27.3197722], [94.4454717, 27.3177895], [94.4448709, 27.3161118], [94.4445276, 27.3144722], [94.4450426, 27.3122607], [94.4448709, 27.3116506], [94.4442272, 27.3109261], [94.4425535, 27.3101253], [94.4406223, 27.3097059], [94.4386911, 27.3102397], [94.438219, 27.3114218], [94.4389057, 27.3129089], [94.439764, 27.3143197], [94.4411802, 27.3159593], [94.4419097, 27.3182471], [94.4360303, 27.3193528], [94.4335413, 27.3204585], [94.4319534, 27.3195816], [94.4305801, 27.3183233], [94.4296789, 27.3183615], [94.4287777, 27.3193147], [94.4290781, 27.3206873], [94.4301939, 27.3223268], [94.4297647, 27.3243476], [94.4284343, 27.3252245], [94.4278764, 27.3269402], [94.4285202, 27.3292277], [94.4269323, 27.3320871], [94.4262456, 27.3355182], [94.4262027, 27.3382249], [94.4220829, 27.338873], [94.4203662, 27.338568], [94.4186925, 27.3381105], [94.4178342, 27.3373862], [94.4177484, 27.3352513], [94.4170618, 27.3336883], [94.4148731, 27.3337264], [94.4143581, 27.3344889], [94.4144868, 27.3361282], [94.4146156, 27.338263], [94.4135427, 27.3392542], [94.4110107, 27.3392923], [94.4098091, 27.3383393], [94.4087791, 27.3374625], [94.4068479, 27.3366238], [94.4064617, 27.3350226], [94.4061184, 27.3331164], [94.4047021, 27.3322396], [94.402728, 27.3338408], [94.4026851, 27.3359375], [94.4039726, 27.3384918], [94.4050455, 27.3395592], [94.4059896, 27.3411984], [94.4033289, 27.342647], [94.4014406, 27.344553], [94.3984794, 27.3452773], [94.3949174, 27.3451629], [94.3942308, 27.3438287], [94.3935012, 27.3422658], [94.3921709, 27.3416177], [94.3916988, 27.3421514], [94.3912267, 27.3436381], [94.3906688, 27.3452773], [94.3907117, 27.3467639], [94.3909263, 27.3482887], [94.3923854, 27.349356], [94.3924284, 27.3504996], [94.3913984, 27.3511476], [94.389038, 27.3516812], [94.387536, 27.3513763], [94.3872785, 27.3492798], [94.3873643, 27.3479838], [94.385519, 27.3477932], [94.3829011, 27.3476788], [94.3808841, 27.3472214], [94.3792963, 27.345201], [94.3766355, 27.3428757], [94.3717002, 27.3427995], [94.368782, 27.3423801], [94.3663787, 27.3417321], [94.3638467, 27.3411603], [94.3612289, 27.3415415], [94.3586969, 27.3420752], [94.3564653, 27.3429901], [94.3547487, 27.3429901], [94.3532896, 27.3417321], [94.3506288, 27.3402835], [94.3461656, 27.339178], [94.3407154, 27.3376912], [94.3392992, 27.3376531], [94.338355, 27.3367], [94.3374967, 27.3330402], [94.3367672, 27.3306002], [94.3356943, 27.3280839], [94.3332481, 27.3249576], [94.3308448, 27.3224412], [94.3273106, 27.3198885], [94.3265324, 27.3193264], [94.3178844, 27.3204585], [94.3081426, 27.3200773], [94.3037859, 27.3233405], [94.3000316, 27.3325446], [94.3004179, 27.3418465], [94.2988797, 27.3545613], [94.2933511, 27.3569179], [94.271673, 27.3661576], [94.2537935, 27.3859882], [94.2471424, 27.3933643], [94.2560626, 27.4027306], [94.2654289, 27.4018386], [94.2690682, 27.4017373], [94.2735957, 27.3963841], [94.2870704, 27.3858774], [94.290998, 27.3846289], [94.2971723, 27.388118], [94.3007183, 27.3910877], [94.3058688, 27.3989972], [94.3091296, 27.4089571], [94.3073539, 27.4339514], [94.307928, 27.4392026], [94.2954825, 27.4497142], [94.2779172, 27.4714163], [94.2766282, 27.5025941], [94.2706775, 27.5129532], [94.2639437, 27.525788], [94.2210654, 27.5024694], [94.2123535, 27.497731], [94.1926964, 27.4964961], [94.1913856, 27.4963644], [94.1890802, 27.4952633], [94.1803837, 27.4905906], [94.1570481, 27.4781065], [94.1601702, 27.4665102], [94.1409917, 27.4486698], [94.1169071, 27.4308293], [94.1066488, 27.417895], [94.0861323, 27.4045146], [94.0607096, 27.3634816], [94.056322, 27.3613856], [94.0487493, 27.3577659], [94.0000521, 27.3344908], [93.9931226, 27.3280267], [93.986577, 27.3218701], [93.9694956, 27.3071494], [93.9646948, 27.3015556], [93.944095, 27.281962], [93.9010375, 27.2417205], [93.8936903, 27.2323175], [93.8804468, 27.2153663], [93.8675867, 27.1989034], [93.8073751, 27.1502881], [93.8055911, 27.1377998], [93.7980089, 27.1360157], [93.8136193, 27.1320016], [93.8131733, 27.1239734], [93.8256616, 27.1195133], [93.8268515, 27.1092963], [93.8281774, 27.0979101], [93.8350278, 27.0749122], [93.8189714, 27.0650999], [93.8127273, 27.0708981], [93.8046991, 27.0615318], [93.8014231, 27.0555058], [93.7913187, 27.0543957], [93.7857214, 27.0475942], [93.7783432, 27.0482156], [93.7736558, 27.0491394], [93.7685721, 27.0432454], [93.7190649, 27.0191608], [93.7056845, 27.0084565], [93.6981023, 26.9946301]]]}}, {"type": "Feature", "properties": {"district": "Majuli", "display_name": "Majuli, Assam, India"}, "geometry": {"type": "Polygon", "coordinates": [[[93.9565801, 26.8919902], [93.9661123, 26.8852833], [93.9732914, 26.8773291], [93.9734673, 26.8736361], [93.9822729, 26.8720117], [93.98911, 26.869004], [93.9947104, 26.8700568], [93.9970922, 26.8722005], [93.998487, 26.8678938], [94.0002679, 26.8683341], [94.0037012, 26.8696548], [94.0052032, 26.8663625], [94.0152562, 26.8683915], [94.0274763, 26.8731958], [94.0458869, 26.8785168], [94.0544271, 26.883225], [94.0614652, 26.8809283], [94.0653705, 26.8822298], [94.0739857, 26.8820767], [94.0811634, 26.8858278], [94.0870857, 26.8819618], [94.0906906, 26.882957], [94.0948962, 26.8868039], [94.0969133, 26.8913778], [94.0994453, 26.8930236], [94.1123628, 26.8928322], [94.126439, 26.8920285], [94.1382408, 26.8983819], [94.1548919, 26.9030893], [94.1602992, 26.9039312], [94.1748905, 26.9087915], [94.1934728, 26.9133837], [94.1998887, 26.9213238], [94.203794, 26.9260302], [94.2075275, 26.9272738], [94.2151879, 26.9264894], [94.2254662, 26.923964], [94.2322039, 26.9204437], [94.2388343, 26.9179182], [94.2507326, 26.9093559], [94.2745399, 26.9087149], [94.2889594, 26.9071459], [94.3044948, 26.9086002], [94.3128633, 26.8794737], [94.3191719, 26.8794546], [94.3238281, 26.8814452], [94.3304157, 26.8823446], [94.335795, 26.8865679], [94.341166, 26.8907845], [94.3567442, 26.9051942], [94.3634604, 26.9118721], [94.3708849, 26.9164832], [94.3800687, 26.9283834], [94.3808841, 26.9324774], [94.3845319, 26.9384459], [94.3888235, 26.9449497], [94.3982728, 26.9527311], [94.4005703, 26.9620713], [94.4242286, 26.9719556], [94.4371032, 26.9799873], [94.4421672, 26.9867946], [94.4588183, 26.9943664], [94.4618655, 27.0003778], [94.4625306, 27.0090685], [94.4665861, 27.0176137], [94.4710922, 27.0256421], [94.4799604, 27.0338791], [94.4942236, 27.0371867], [94.5021629, 27.0399771], [94.5098431, 27.0454754], [94.5204877, 27.0566799], [94.5324411, 27.0698025], [94.538641, 27.0720809], [94.540143, 27.0729789], [94.542439, 27.0748895], [94.5455241, 27.0784803], [94.5485544, 27.0833915], [94.5507431, 27.092676], [94.554219, 27.098079], [94.5635699, 27.1054511], [94.5771909, 27.1212974], [94.5834534, 27.1374315], [94.5890879, 27.1423331], [94.5904183, 27.1432878], [94.5928686, 27.1459019], [94.5858907, 27.1554695], [94.5781874, 27.1662562], [94.5697975, 27.1766982], [94.5637339, 27.1802701], [94.5608678, 27.1822017], [94.5594549, 27.1775191], [94.5584464, 27.175152], [94.5527354, 27.1744857], [94.5440268, 27.1728422], [94.5373749, 27.1688334], [94.5273971, 27.1634689], [94.5249692, 27.1619746], [94.5204448, 27.1601279], [94.5221185, 27.157035], [94.5290708, 27.152682], [94.5287871, 27.1473355], [94.5249509, 27.1434024], [94.5120732, 27.144044], [94.5067119, 27.142906], [94.5053386, 27.1352679], [94.505501, 27.1265584], [94.503622, 27.1222819], [94.4987726, 27.121327], [94.4907474, 27.1221673], [94.4867317, 27.1265158], [94.4833231, 27.1351151], [94.4763187, 27.1393697], [94.4735203, 27.1380659], [94.4711581, 27.1350159], [94.4698047, 27.1314295], [94.4700623, 27.1220523], [94.4653415, 27.1154828], [94.460535, 27.1124651], [94.4552564, 27.1119685], [94.4510078, 27.1157884], [94.4317911, 27.1208514], [94.4233703, 27.1159794], [94.4214391, 27.1095619], [94.4209535, 27.1003118], [94.4179648, 27.0949827], [94.412899, 27.0924849], [94.399681, 27.0969168], [94.3883514, 27.0995147], [94.3807125, 27.0959999], [94.3716144, 27.0987124], [94.3661324, 27.0994571], [94.3577098, 27.096764], [94.3457109, 27.0865085], [94.3371963, 27.082398], [94.3303728, 27.0835061], [94.3221827, 27.0897717], [94.3172836, 27.0874416], [94.3135929, 27.0825126], [94.3127061, 27.0740202], [94.3105888, 27.0714313], [94.3048381, 27.0721573], [94.2995826, 27.0780455], [94.2983579, 27.0794176], [94.2947959, 27.087709], [94.2824646, 27.092352], [94.2818525, 27.0925775], [94.2817926, 27.0925996], [94.2723489, 27.0962843], [94.2646794, 27.0937925], [94.2592191, 27.090651], [94.2520952, 27.0890463], [94.2382222, 27.0771422], [94.2313242, 27.0725012], [94.2263031, 27.0635208], [94.2236852, 27.0575971], [94.2227411, 27.0498958], [94.2188787, 27.0392126], [94.2211771, 27.0342106], [94.2151451, 27.0305735], [94.2013263, 27.0295414], [94.1937866, 27.0344906], [94.1882336, 27.0367085], [94.1839456, 27.0355812], [94.1832161, 27.0301913], [94.1869926, 27.0182636], [94.1871592, 27.009692], [94.1855928, 27.0044424], [94.1802549, 27.0010198], [94.1549268, 27.0011288], [94.146738, 26.9949782], [94.1374236, 26.9932921], [94.1301726, 26.9880949], [94.1339199, 26.9779994], [94.1338555, 26.9727756], [94.1285419, 26.9695843], [94.1111089, 26.971411], [94.1019773, 26.9718599], [94.0960336, 26.9694503], [94.0836095, 26.9610546], [94.0770435, 26.9609398], [94.0701479, 26.963358], [94.0662288, 26.9739827], [94.0595034, 26.981747], [94.0563154, 26.9835822], [94.0526814, 26.9825878], [94.0494597, 26.9806565], [94.046874, 26.9792224], [94.0396213, 26.977922], [94.0345144, 26.9741739], [94.0347719, 26.9677865], [94.0265139, 26.960874], [94.0226697, 26.9591802], [94.0197944, 26.9562348], [94.0209531, 26.9471686], [94.0229272, 26.9381016], [94.0204965, 26.9338327], [94.0157604, 26.9319417], [94.0125404, 26.9312965], [94.0062761, 26.9311382], [94.0024137, 26.9368964], [93.9989161, 26.9397658], [93.9962035, 26.9431475], [93.9911055, 26.9415065], [93.9858563, 26.9339365], [93.9773082, 26.9265086], [93.9700126, 26.923371], [93.9622867, 26.926815], [93.9633178, 26.9173251], [93.966943, 26.9124334], [93.9654851, 26.9026109], [93.9594604, 26.8951063], [93.9565801, 26.8919902]]]}}]}