{"type": "FeatureCollection", "features": [{"id": "0", "type": "Feature", "properties": {"name": "Dhemaji-Subansiri Bridge", "bridge": "yes", "road": "NH-15", "over": "Subansiri River", "length_m": 800, "is_ferry": false}, "geometry": {"type": "LineString", "coordinates": [[94.095, 27.35], [94.10499999999999, 27.35]]}}, {"id": "1", "type": "Feature", "properties": {"name": "Bogibeel Bridge", "bridge": "yes", "road": "NH-15 Rail-Road", "over": "Brahmaputra", "length_m": 4940, "is_ferry": false}, "geometry": {"type": "LineString", "coordinates": [[94.215, 27.15], [94.225, 27.15]]}}, {"id": "2", "type": "Feature", "properties": {"name": "Ranganadi Bridge", "bridge": "yes", "road": "NH-15", "over": "Ranganadi River", "length_m": 350, "is_ferry": false}, "geometry": {"type": "LineString", "coordinates": [[94.19500000000001, 27.25], [94.205, 27.25]]}}, {"id": "3", "type": "Feature", "properties": {"name": "Jiadhal Bridge", "bridge": "yes", "road": "NH-15", "over": "Jiadhal River", "length_m": 200, "is_ferry": false}, "geometry": {"type": "LineString", "coordinates": [[94.64500000000001, 27.55], [94.655, 27.55]]}}, {"id": "4", "type": "Feature", "properties": {"name": "Dikrong Bridge", "bridge": "yes", "road": "SH", "over": "Dikrong River", "length_m": 250, "is_ferry": false}, "geometry": {"type": "LineString", "coordinates": [[93.915, 27.22], [93.925, 27.22]]}}, {"id": "5", "type": "Feature", "properties": {"name": "Dhakuakhana Bridge", "bridge": "yes", "road": "SH", "over": "Minor tributary", "length_m": 120, "is_ferry": false}, "geometry": {"type": "LineString", "coordinates": [[94.165, 27.07], [94.175, 27.07]]}}, {"id": "6", "type": "Feature", "properties": {"name": "Kamalabari-Nimatighat Ferry", "bridge": "yes", "road": "Ferry", "over": "Brahmaputra", "length_m": 0, "is_ferry": true}, "geometry": {"type": "LineString", "coordinates": [[94.215, 26.93], [94.225, 26.93]]}}, {"id": "7", "type": "Feature", "properties": {"name": "Majuli-Lakhimpur Ferry", "bridge": "yes", "road": "Ferry", "over": "Brahmaputra", "length_m": 0, "is_ferry": true}, "geometry": {"type": "LineString", "coordinates": [[94.14500000000001, 26.98], [94.155, 26.98]]}}]}