{"type": "FeatureCollection", "features": [{"id": "0", "type": "Feature", "properties": {"name": "Dhemaji Civil Hospital", "amenity": "hospital", "facility_type": "district_hospital", "beds": 100, "district": "Dhemaji", "osm_id": 405788}, "geometry": {"type": "Point", "coordinates": [94.585, 27.485]}}, {"id": "1", "type": "Feature", "properties": {"name": "Silapathar PHC", "amenity": "hospital", "facility_type": "phc", "beds": 30, "district": "Dhemaji", "osm_id": 902564}, "geometry": {"type": "Point", "coordinates": [94.718, 27.592]}}, {"id": "2", "type": "Feature", "properties": {"name": "Gogamukh CHC", "amenity": "hospital", "facility_type": "chc", "beds": 30, "district": "Dhemaji", "osm_id": 809434}, "geometry": {"type": "Point", "coordinates": [94.432, 27.382]}}, {"id": "3", "type": "Feature", "properties": {"name": "Jonai CHC", "amenity": "hospital", "facility_type": "chc", "beds": 30, "district": "Dhemaji", "osm_id": 525074}, "geometry": {"type": "Point", "coordinates": [95.218, 27.831]}}, {"id": "4", "type": "Feature", "properties": {"name": "Sissiborgaon PHC", "amenity": "hospital", "facility_type": "phc", "beds": 15, "district": "Dhemaji", "osm_id": 432774}, "geometry": {"type": "Point", "coordinates": [94.678, 27.548]}}, {"id": "5", "type": "Feature", "properties": {"name": "Bordoloni Mini PHC", "amenity": "hospital", "facility_type": "mini_phc", "beds": 6, "district": "Dhemaji", "osm_id": 202344}, "geometry": {"type": "Point", "coordinates": [94.618, 27.518]}}, {"id": "6", "type": "Feature", "properties": {"name": "Machkhowa PHC", "amenity": "hospital", "facility_type": "phc", "beds": 15, "district": "Dhemaji", "osm_id": 208299}, "geometry": {"type": "Point", "coordinates": [94.498, 27.418]}}, {"id": "7", "type": "Feature", "properties": {"name": "Lakhimpur Medical College & Hospital", "amenity": "hospital", "facility_type": "medical_college", "beds": 500, "district": "Lakhimpur", "osm_id": 643183}, "geometry": {"type": "Point", "coordinates": [94.108, 27.238]}}, {"id": "8", "type": "Feature", "properties": {"name": "North Lakhimpur Civil Hospital", "amenity": "hospital", "facility_type": "district_hospital", "beds": 150, "district": "Lakhimpur", "osm_id": 804336}, "geometry": {"type": "Point", "coordinates": [94.102, 27.234]}}, {"id": "9", "type": "Feature", "properties": {"name": "Dhakuakhana PHC", "amenity": "hospital", "facility_type": "phc", "beds": 30, "district": "Lakhimpur", "osm_id": 89595}, "geometry": {"type": "Point", "coordinates": [94.168, 27.068]}}, {"id": "10", "type": "Feature", "properties": {"name": "Bihpuria CHC", "amenity": "hospital", "facility_type": "chc", "beds": 30, "district": "Lakhimpur", "osm_id": 912092}, "geometry": {"type": "Point", "coordinates": [93.912, 27.022]}}, {"id": "11", "type": "Feature", "properties": {"name": "Narayanpur PHC", "amenity": "hospital", "facility_type": "phc", "beds": 15, "district": "Lakhimpur", "osm_id": 212029}, "geometry": {"type": "Point", "coordinates": [94.048, 27.198]}}, {"id": "12", "type": "Feature", "properties": {"name": "Nowboicha Mini PHC", "amenity": "hospital", "facility_type": "mini_phc", "beds": 6, "district": "Lakhimpur", "osm_id": 196586}, "geometry": {"type": "Point", "coordinates": [93.978, 27.248]}}, {"id": "13", "type": "Feature", "properties": {"name": "Boginadi PHC", "amenity": "hospital", "facility_type": "phc", "beds": 15, "district": "Lakhimpur", "osm_id": 150720}, "geometry": {"type": "Point", "coordinates": [94.228, 27.298]}}, {"id": "14", "type": "Feature", "properties": {"name": "Laluk PHC", "amenity": "hospital", "facility_type": "phc", "beds": 15, "district": "Lakhimpur", "osm_id": 897789}, "geometry": {"type": "Point", "coordinates": [94.068, 27.278]}}, {"id": "15", "type": "Feature", "properties": {"name": "Garamur State Dispensary", "amenity": "hospital", "facility_type": "dispensary", "beds": 20, "district": "Majuli", "osm_id": 123215}, "geometry": {"type": "Point", "coordinates": [94.172, 26.952]}}, {"id": "16", "type": "Feature", "properties": {"name": "Kamalabari PHC", "amenity": "hospital", "facility_type": "phc", "beds": 30, "district": "Majuli", "osm_id": 317866}, "geometry": {"type": "Point", "coordinates": [94.222, 26.932]}}, {"id": "17", "type": "Feature", "properties": {"name": "Jengraimukh PHC", "amenity": "hospital", "facility_type": "phc", "beds": 15, "district": "Majuli", "osm_id": 276135}, "geometry": {"type": "Point", "coordinates": [94.298, 26.978]}}, {"id": "18", "type": "Feature", "properties": {"name": "Auniati Mini PHC", "amenity": "hospital", "facility_type": "mini_phc", "beds": 6, "district": "Majuli", "osm_id": 47008}, "geometry": {"type": "Point", "coordinates": [94.198, 26.958]}}, {"id": "19", "type": "Feature", "properties": {"name": "Salmora Health Sub-Centre", "amenity": "hospital", "facility_type": "sub_centre", "beds": 4, "district": "Majuli", "osm_id": 579440}, "geometry": {"type": "Point", "coordinates": [94.252, 26.892]}}]}