{"type": "FeatureCollection", "features": [{"type": "Feature", "properties": {"osm_id": 245751791, "name": "Mon", "place": "town", "population": ""}, "geometry": {"type": "Point", "coordinates": [95.0304359, 26.7252584]}}, {"type": "Feature", "properties": {"osm_id": 245753279, "name": "Amguri", "place": "town", "population": ""}, "geometry": {"type": "Point", "coordinates": [94.5249646, 26.8098175]}}, {"type": "Feature", "properties": {"osm_id": 245753371, "name": "Niaunu", "place": "village", "population": ""}, "geometry": {"type": "Point", "coordinates": [95.2979822, 26.8231782]}}, {"type": "Feature", "properties": {"osm_id": 245753634, "name": "Teok", "place": "village", "population": ""}, "geometry": {"type": "Point", "coordinates": [94.4179545, 26.8349054]}}, {"type": "Feature", "properties": {"osm_id": 245753972, "name": "Gohpur", "place": "town", "population": ""}, "geometry": {"type": "Point", "coordinates": [93.6138414, 26.8814942]}}, {"type": "Feature", "properties": {"osm_id": 245754553, "name": "Nazira", "place": "town", "population": ""}, "geometry": {"type": "Point", "coordinates": [94.736043, 26.9164974]}}, {"type": "Feature", "properties": {"osm_id": 245754786, "name": "Naryanpur", "place": "village", "population": ""}, "geometry": {"type": "Point", "coordinates": [93.8561117, 26.9520479]}}, {"type": "Feature", "properties": {"osm_id": 245755348, "name": "Sivasagar", "place": "city", "population": ""}, "geometry": {"type": "Point", "coordinates": [94.6394226, 26.9834936]}}, {"type": "Feature", "properties": {"osm_id": 245755518, "name": "Nargargaon", "place": "village", "population": ""}, "geometry": {"type": "Point", "coordinates": [94.1652801, 27.0116178]}}, {"type": "Feature", "properties": {"osm_id": 245756072, "name": "Dimow", "place": "town", "population": ""}, "geometry": {"type": "Point", "coordinates": [94.7405111, 27.1272894]}}, {"type": "Feature", "properties": {"osm_id": 245756095, "name": "Itanagar", "place": "city", "population": "5000"}, "geometry": {"type": "Point", "coordinates": [93.6237291, 27.0979659]}}, {"type": "Feature", "properties": {"osm_id": 245756524, "name": "Borhat", "place": "village", "population": ""}, "geometry": {"type": "Point", "coordinates": [95.2768719, 27.163159]}}, {"type": "Feature", "properties": {"osm_id": 245757287, "name": "North Lakhimpur", "place": "town", "population": "50000"}, "geometry": {"type": "Point", "coordinates": [94.1038765, 27.236211]}}, {"type": "Feature", "properties": {"osm_id": 245757880, "name": "Dejoo", "place": "village", "population": ""}, "geometry": {"type": "Point", "coordinates": [94.024071, 27.2727813]}}, {"type": "Feature", "properties": {"osm_id": 245757974, "name": "Kimin", "place": "town", "population": ""}, "geometry": {"type": "Point", "coordinates": [93.9656023, 27.3057191]}}, {"type": "Feature", "properties": {"osm_id": 245760104, "name": "Ziro", "place": "city", "population": ""}, "geometry": {"type": "Point", "coordinates": [93.815355, 27.538668]}}, {"type": "Feature", "properties": {"osm_id": 245760898, "name": "Dijmur", "place": "village", "population": ""}, "geometry": {"type": "Point", "coordinates": [94.8938544, 27.6228253]}}, {"type": "Feature", "properties": {"osm_id": 245761427, "name": "Pemir", "place": "village", "population": ""}, "geometry": {"type": "Point", "coordinates": [93.9275037, 27.7177708]}}, {"type": "Feature", "properties": {"osm_id": 299448214, "name": "Dibrugarh", "place": "city", "population": "140000"}, "geometry": {"type": "Point", "coordinates": [94.9019447, 27.4844597]}}, {"type": "Feature", "properties": {"osm_id": 299448217, "name": "Chabua", "place": "town", "population": ""}, "geometry": {"type": "Point", "coordinates": [95.1730318, 27.4826767]}}, {"type": "Feature", "properties": {"osm_id": 299448219, "name": "Lengeri Gaon", "place": "village", "population": ""}, "geometry": {"type": "Point", "coordinates": [95.0276473, 27.2760232]}}, {"type": "Feature", "properties": {"osm_id": 342098982, "name": "Naharlagun", "place": "town", "population": ""}, "geometry": {"type": "Point", "coordinates": [93.6923923, 27.103045]}}, {"type": "Feature", "properties": {"osm_id": 342099922, "name": "Majarbari Ghat", "place": "village", "population": ""}, "geometry": {"type": "Point", "coordinates": [94.9083595, 27.5946843]}}, {"type": "Feature", "properties": {"osm_id": 342100211, "name": "Lichi", "place": "village", "population": ""}, "geometry": {"type": "Point", "coordinates": [93.8790823, 27.3762483]}}, {"type": "Feature", "properties": {"osm_id": 342100459, "name": "Kali Ghat", "place": "hamlet", "population": ""}, "geometry": {"type": "Point", "coordinates": [94.120265, 27.0636092]}}, {"type": "Feature", "properties": {"osm_id": 342100465, "name": "Pahumara", "place": "village", "population": ""}, "geometry": {"type": "Point", "coordinates": [94.053239, 27.2013447]}}, {"type": "Feature", "properties": {"osm_id": 342100483, "name": "Dergaon", "place": "town", "population": ""}, "geometry": {"type": "Point", "coordinates": [93.97019, 26.71463]}}, {"type": "Feature", "properties": {"osm_id": 567371808, "name": "Kumar Gaon", "place": "village", "population": ""}, "geometry": {"type": "Point", "coordinates": [94.2472911, 26.8281866]}}, {"type": "Feature", "properties": {"osm_id": 831176590, "name": "Nahorani", "place": "village", "population": ""}, "geometry": {"type": "Point", "coordinates": [94.0066218, 26.6705712]}}, {"type": "Feature", "properties": {"osm_id": 832854432, "name": "Jhanji", "place": "village", "population": ""}, "geometry": {"type": "Point", "coordinates": [94.4962783, 26.8494679]}}, {"type": "Feature", "properties": {"osm_id": 980533471, "name": "Sepon", "place": "village", "population": ""}, "geometry": {"type": "Point", "coordinates": [94.8516485, 27.1155187]}}, {"type": "Feature", "properties": {"osm_id": 1437215869, "name": "Bordoloni", "place": "village", "population": ""}, "geometry": {"type": "Point", "coordinates": [94.4222545, 27.4111286]}}, {"type": "Feature", "properties": {"osm_id": 1437215871, "name": "Dhemaji", "place": "town", "population": ""}, "geometry": {"type": "Point", "coordinates": [94.5629622, 27.4763797]}}, {"type": "Feature", "properties": {"osm_id": 1676604024, "name": "Doimukh", "place": "town", "population": ""}, "geometry": {"type": "Point", "coordinates": [93.7549422, 27.150677]}}, {"type": "Feature", "properties": {"osm_id": 1676604025, "name": "Harmutigaon", "place": "village", "population": ""}, "geometry": {"type": "Point", "coordinates": [93.8563873, 27.1255698]}}, {"type": "Feature", "properties": {"osm_id": 1676852794, "name": "Tuli", "place": "town", "population": ""}, "geometry": {"type": "Point", "coordinates": [94.6451344, 26.6796166]}}, {"type": "Feature", "properties": {"osm_id": 1696831494, "name": "Yupia", "place": "village", "population": ""}, "geometry": {"type": "Point", "coordinates": [93.7205996, 27.1462282]}}, {"type": "Feature", "properties": {"osm_id": 1698433778, "name": "", "place": "village", "population": ""}, "geometry": {"type": "Point", "coordinates": [93.7594477, 27.3900652]}}, {"type": "Feature", "properties": {"osm_id": 1698599118, "name": "Kanubari", "place": "village", "population": ""}, "geometry": {"type": "Point", "coordinates": [95.1872109, 27.0264997]}}, {"type": "Feature", "properties": {"osm_id": 1699239233, "name": "Jonai", "place": "town", "population": "1000"}, "geometry": {"type": "Point", "coordinates": [95.2234184, 27.8291446]}}, {"type": "Feature", "properties": {"osm_id": 1739986503, "name": "Bhatiu", "place": "village", "population": ""}, "geometry": {"type": "Point", "coordinates": [95.1375349, 27.4743649]}}, {"type": "Feature", "properties": {"osm_id": 1739986506, "name": "Dikom", "place": "village", "population": ""}, "geometry": {"type": "Point", "coordinates": [95.0830283, 27.4652113]}}, {"type": "Feature", "properties": {"osm_id": 1739986511, "name": "Panitola", "place": "village", "population": ""}, "geometry": {"type": "Point", "coordinates": [95.2575999, 27.4951618]}}, {"type": "Feature", "properties": {"osm_id": 1740028720, "name": "Naguli Ghat", "place": "village", "population": ""}, "geometry": {"type": "Point", "coordinates": [95.0136445, 27.5254404]}}, {"type": "Feature", "properties": {"osm_id": 1934213746, "name": "Jagduwar", "place": "village", "population": ""}, "geometry": {"type": "Point", "coordinates": [94.4411157, 26.837569]}}, {"type": "Feature", "properties": {"osm_id": 1934228034, "name": "Kaliapani", "place": "village", "population": ""}, "geometry": {"type": "Point", "coordinates": [94.4554458, 26.8385335]}}, {"type": "Feature", "properties": {"osm_id": 1937610133, "name": "Jamuguri", "place": "village", "population": ""}, "geometry": {"type": "Point", "coordinates": [94.5001026, 26.8707794]}}, {"type": "Feature", "properties": {"osm_id": 1937617872, "name": "Phulpanisiga", "place": "village", "population": ""}, "geometry": {"type": "Point", "coordinates": [94.522063, 26.9107944]}}, {"type": "Feature", "properties": {"osm_id": 1939486219, "name": "Lahdoigarh", "place": "village", "population": ""}, "geometry": {"type": "Point", "coordinates": [94.3256738, 26.7974067]}}, {"type": "Feature", "properties": {"osm_id": 2138091867, "name": "Jorhat", "place": "city", "population": "126736"}, "geometry": {"type": "Point", "coordinates": [94.2079645, 26.7577925]}}, {"type": "Feature", "properties": {"osm_id": 2164274095, "name": "Likabali", "place": "village", "population": ""}, "geometry": {"type": "Point", "coordinates": [94.6977781, 27.6588306]}}, {"type": "Feature", "properties": {"osm_id": 2463790680, "name": "Hapolio", "place": "village", "population": ""}, "geometry": {"type": "Point", "coordinates": [93.7425525, 27.404326]}}, {"type": "Feature", "properties": {"osm_id": 2463790685, "name": "Joram", "place": "hamlet", "population": ""}, "geometry": {"type": "Point", "coordinates": [93.7738894, 27.5100477]}}, {"type": "Feature", "properties": {"osm_id": 2722661478, "name": "Naginimora", "place": "town", "population": ""}, "geometry": {"type": "Point", "coordinates": [94.8099886, 26.8109509]}}, {"type": "Feature", "properties": {"osm_id": 2885001473, "name": "Sapekhati", "place": "village", "population": ""}, "geometry": {"type": "Point", "coordinates": [95.1593276, 27.1106207]}}, {"type": "Feature", "properties": {"osm_id": 2885248522, "name": "Burisuti", "place": "village", "population": ""}, "geometry": {"type": "Point", "coordinates": [95.0391506, 27.6865466]}}, {"type": "Feature", "properties": {"osm_id": 2885248524, "name": "Dakhinpat", "place": "village", "population": ""}, "geometry": {"type": "Point", "coordinates": [94.2760072, 26.9129592]}}, {"type": "Feature", "properties": {"osm_id": 2885248526, "name": "Nimati", "place": "village", "population": ""}, "geometry": {"type": "Point", "coordinates": [94.2543355, 26.8526998]}}, {"type": "Feature", "properties": {"osm_id": 2885275504, "name": "Deodia", "place": "village", "population": ""}, "geometry": {"type": "Point", "coordinates": [94.1676921, 26.956618]}}, {"type": "Feature", "properties": {"osm_id": 2885275505, "name": "Kaibatra", "place": "village", "population": ""}, "geometry": {"type": "Point", "coordinates": [94.1540261, 26.9805515]}}, {"type": "Feature", "properties": {"osm_id": 2885275507, "name": "Kamalabari", "place": "town", "population": ""}, "geometry": {"type": "Point", "coordinates": [94.1657745, 26.9465639]}}, {"type": "Feature", "properties": {"osm_id": 2885288331, "name": "Birinabari", "place": "village", "population": ""}, "geometry": {"type": "Point", "coordinates": [94.0585172, 26.9245446]}}, {"type": "Feature", "properties": {"osm_id": 2885288332, "name": "Kakarikata", "place": "village", "population": ""}, "geometry": {"type": "Point", "coordinates": [94.1212673, 26.9327158]}}, {"type": "Feature", "properties": {"osm_id": 2913304438, "name": "Gogamukh", "place": "town", "population": ""}, "geometry": {"type": "Point", "coordinates": [94.3160033, 27.4348123]}}, {"type": "Feature", "properties": {"osm_id": 3337652501, "name": "Niz Lakuk", "place": "town", "population": ""}, "geometry": {"type": "Point", "coordinates": [93.9314185, 27.1206808]}}, {"type": "Feature", "properties": {"osm_id": 3546651598, "name": "Boikunthapur", "place": "village", "population": "700"}, "geometry": {"type": "Point", "coordinates": [95.0536193, 27.7501363]}}, {"type": "Feature", "properties": {"osm_id": 3546733170, "name": "Laimekuri", "place": "village", "population": ""}, "geometry": {"type": "Point", "coordinates": [95.0787185, 27.7453884]}}, {"type": "Feature", "properties": {"osm_id": 3546735198, "name": "Sikari", "place": "village", "population": ""}, "geometry": {"type": "Point", "coordinates": [95.0957413, 27.7491676]}}, {"type": "Feature", "properties": {"osm_id": 3546755824, "name": "Gali", "place": "village", "population": ""}, "geometry": {"type": "Point", "coordinates": [95.1220316, 27.754749]}}, {"type": "Feature", "properties": {"osm_id": 3546761360, "name": "Junkareng", "place": "village", "population": ""}, "geometry": {"type": "Point", "coordinates": [95.1667838, 27.781412]}}, {"type": "Feature", "properties": {"osm_id": 3546804846, "name": "Kuli Tiniali", "place": "village", "population": ""}, "geometry": {"type": "Point", "coordinates": [95.2108218, 27.7997209]}}, {"type": "Feature", "properties": {"osm_id": 3547241346, "name": "Rest-Camp", "place": "village", "population": ""}, "geometry": {"type": "Point", "coordinates": [95.050485, 27.7531909]}}, {"type": "Feature", "properties": {"osm_id": 3547243302, "name": "Rakut-Koke:", "place": "village", "population": ""}, "geometry": {"type": "Point", "coordinates": [95.0660418, 27.7472471]}}, {"type": "Feature", "properties": {"osm_id": 3547246363, "name": "Tako-G\u00edtung", "place": "village", "population": ""}, "geometry": {"type": "Point", "coordinates": [95.0811695, 27.7460318]}}, {"type": "Feature", "properties": {"osm_id": 3547340610, "name": "Telam B\u00e9dum", "place": "village", "population": ""}, "geometry": {"type": "Point", "coordinates": [95.0043494, 27.7626574]}}, {"type": "Feature", "properties": {"osm_id": 3555382456, "name": "Majulipur", "place": "village", "population": ""}, "geometry": {"type": "Point", "coordinates": [95.0649173, 27.7559299]}}, {"type": "Feature", "properties": {"osm_id": 4041862409, "name": "Hebeng", "place": "village", "population": ""}, "geometry": {"type": "Point", "coordinates": [93.936434, 27.8354309]}}, {"type": "Feature", "properties": {"osm_id": 4273504145, "name": "Barjan", "place": "village", "population": ""}, "geometry": {"type": "Point", "coordinates": [94.832338, 26.781837]}}, {"type": "Feature", "properties": {"osm_id": 4315550898, "name": "Chui", "place": "village", "population": ""}, "geometry": {"type": "Point", "coordinates": [95.0187931, 26.69297]}}, {"type": "Feature", "properties": {"osm_id": 4486938872, "name": "Wakching", "place": "town", "population": ""}, "geometry": {"type": "Point", "coordinates": [94.8949315, 26.7003342]}}, {"type": "Feature", "properties": {"osm_id": 4509196601, "name": "Dimow", "place": "village", "population": "2000"}, "geometry": {"type": "Point", "coordinates": [94.8111854, 27.6717985]}}, {"type": "Feature", "properties": {"osm_id": 4621727647, "name": "Chambang", "place": "village", "population": ""}, "geometry": {"type": "Point", "coordinates": [93.7764633, 27.7984352]}}, {"type": "Feature", "properties": {"osm_id": 4621735992, "name": "", "place": "hamlet", "population": ""}, "geometry": {"type": "Point", "coordinates": [94.3875349, 27.7506298]}}, {"type": "Feature", "properties": {"osm_id": 4621736007, "name": "Sibe", "place": "hamlet", "population": ""}, "geometry": {"type": "Point", "coordinates": [94.3797243, 27.7333098]}}, {"type": "Feature", "properties": {"osm_id": 4621736052, "name": "", "place": "hamlet", "population": ""}, "geometry": {"type": "Point", "coordinates": [94.403199, 27.7522249]}}, {"type": "Feature", "properties": {"osm_id": 4621736080, "name": "", "place": "hamlet", "population": ""}, "geometry": {"type": "Point", "coordinates": [94.3654764, 27.7350571]}}, {"type": "Feature", "properties": {"osm_id": 4621736150, "name": "Gasigaon", "place": "village", "population": ""}, "geometry": {"type": "Point", "coordinates": [94.42397, 27.760428]}}, {"type": "Feature", "properties": {"osm_id": 4622776537, "name": "Gensi", "place": "town", "population": ""}, "geometry": {"type": "Point", "coordinates": [94.6253071, 27.8428172]}}, {"type": "Feature", "properties": {"osm_id": 4667620988, "name": "Phukangaon", "place": "village", "population": ""}, "geometry": {"type": "Point", "coordinates": [94.6033303, 27.5409552]}}, {"type": "Feature", "properties": {"osm_id": 4667621489, "name": "Huliagaon", "place": "village", "population": ""}, "geometry": {"type": "Point", "coordinates": [94.5199249, 27.5809334]}}, {"type": "Feature", "properties": {"osm_id": 4668787051, "name": "Silapathar", "place": "town", "population": ""}, "geometry": {"type": "Point", "coordinates": [94.7255857, 27.5893833]}}, {"type": "Feature", "properties": {"osm_id": 4726719498, "name": "Sisi Bargaon", "place": "village", "population": "5000"}, "geometry": {"type": "Point", "coordinates": [94.6797056, 27.5304146]}}, {"type": "Feature", "properties": {"osm_id": 4726836613, "name": "Kulajan", "place": "town", "population": ""}, "geometry": {"type": "Point", "coordinates": [94.7287378, 27.5247513]}}, {"type": "Feature", "properties": {"osm_id": 5263416924, "name": "Garamur", "place": "town", "population": ""}, "geometry": {"type": "Point", "coordinates": [94.1574452, 26.980306]}}, {"type": "Feature", "properties": {"osm_id": 5775285633, "name": "Panigaon", "place": "town", "population": ""}, "geometry": {"type": "Point", "coordinates": [94.1113007, 27.1406337]}}, {"type": "Feature", "properties": {"osm_id": 5819289891, "name": "", "place": "village", "population": ""}, "geometry": {"type": "Point", "coordinates": [94.9823477, 26.7566575]}}, {"type": "Feature", "properties": {"osm_id": 5819298920, "name": "", "place": "village", "population": ""}, "geometry": {"type": "Point", "coordinates": [95.0049793, 26.7466891]}}, {"type": "Feature", "properties": {"osm_id": 5819303183, "name": "", "place": "village", "population": ""}, "geometry": {"type": "Point", "coordinates": [94.952196, 26.7632247]}}, {"type": "Feature", "properties": {"osm_id": 5951964665, "name": "Hungphoi", "place": "village", "population": ""}, "geometry": {"type": "Point", "coordinates": [95.0201726, 26.7803458]}}, {"type": "Feature", "properties": {"osm_id": 5951965122, "name": "Wangla", "place": "village", "population": ""}, "geometry": {"type": "Point", "coordinates": [95.00513, 26.807197]}}, {"type": "Feature", "properties": {"osm_id": 5993420985, "name": "\u101c\u102f\u1036\u101d\u101e\u1004\u103a\u1039\u1001", "place": "village", "population": ""}, "geometry": {"type": "Point", "coordinates": [95.2202219, 26.6617435]}}, {"type": "Feature", "properties": {"osm_id": 6096685708, "name": "Muktiar", "place": "village", "population": ""}, "geometry": {"type": "Point", "coordinates": [95.0549718, 27.7322472]}}, {"type": "Feature", "properties": {"osm_id": 6096685710, "name": "Dikhari", "place": "village", "population": ""}, "geometry": {"type": "Point", "coordinates": [95.0560583, 27.7256118]}}, {"type": "Feature", "properties": {"osm_id": 6096685711, "name": "Ramdhon", "place": "village", "population": ""}, "geometry": {"type": "Point", "coordinates": [95.0594983, 27.7290614]}}, {"type": "Feature", "properties": {"osm_id": 6096685712, "name": "Koroibari", "place": "village", "population": ""}, "geometry": {"type": "Point", "coordinates": [95.0507458, 27.7398039]}}, {"type": "Feature", "properties": {"osm_id": 6096685713, "name": "Borodondi", "place": "village", "population": ""}, "geometry": {"type": "Point", "coordinates": [95.0373612, 27.7472431]}}, {"type": "Feature", "properties": {"osm_id": 6096685714, "name": "Lakhipur B\u00e9dum", "place": "village", "population": ""}, "geometry": {"type": "Point", "coordinates": [95.0270138, 27.7645032]}}, {"type": "Feature", "properties": {"osm_id": 6096685715, "name": "Borhati", "place": "village", "population": ""}, "geometry": {"type": "Point", "coordinates": [95.025252, 27.7450954]}}, {"type": "Feature", "properties": {"osm_id": 6151697405, "name": "", "place": "village", "population": ""}, "geometry": {"type": "Point", "coordinates": [94.906125, 26.6534039]}}, {"type": "Feature", "properties": {"osm_id": 6151697406, "name": "", "place": "village", "population": ""}, "geometry": {"type": "Point", "coordinates": [94.9698543, 26.6553408]}}, {"type": "Feature", "properties": {"osm_id": 6151697408, "name": "Tanhai", "place": "village", "population": ""}, "geometry": {"type": "Point", "coordinates": [94.9432393, 26.7351959]}}, {"type": "Feature", "properties": {"osm_id": 6151697409, "name": "Leangha", "place": "village", "population": ""}, "geometry": {"type": "Point", "coordinates": [94.9865055, 26.7134137]}}, {"type": "Feature", "properties": {"osm_id": 6151697410, "name": "", "place": "village", "population": ""}, "geometry": {"type": "Point", "coordinates": [94.9906361, 26.6664055]}}, {"type": "Feature", "properties": {"osm_id": 6151697428, "name": "Longshen", "place": "village", "population": ""}, "geometry": {"type": "Point", "coordinates": [95.0757693, 26.6930945]}}, {"type": "Feature", "properties": {"osm_id": 6151697429, "name": "", "place": "hamlet", "population": ""}, "geometry": {"type": "Point", "coordinates": [95.1151228, 26.6735577]}}, {"type": "Feature", "properties": {"osm_id": 6151697430, "name": "", "place": "village", "population": ""}, "geometry": {"type": "Point", "coordinates": [95.1658595, 26.6608637]}}, {"type": "Feature", "properties": {"osm_id": 6151697433, "name": "Longphong", "place": "village", "population": ""}, "geometry": {"type": "Point", "coordinates": [95.2894449, 26.7823572]}}, {"type": "Feature", "properties": {"osm_id": 6151697434, "name": "Bonia", "place": "village", "population": ""}, "geometry": {"type": "Point", "coordinates": [95.2631807, 26.7446906]}}, {"type": "Feature", "properties": {"osm_id": 6151697435, "name": "Pangchau", "place": "town", "population": ""}, "geometry": {"type": "Point", "coordinates": [95.2718818, 26.7252969]}}, {"type": "Feature", "properties": {"osm_id": 6151698438, "name": "Tang", "place": "village", "population": ""}, "geometry": {"type": "Point", "coordinates": [95.119307, 26.7049222]}}, {"type": "Feature", "properties": {"osm_id": 6270119936, "name": "Kokila", "place": "village", "population": "560"}, "geometry": {"type": "Point", "coordinates": [93.6615479, 26.9750556]}}, {"type": "Feature", "properties": {"osm_id": 6270120052, "name": "Datt", "place": "village", "population": ""}, "geometry": {"type": "Point", "coordinates": [93.6316406, 27.071445]}}, {"type": "Feature", "properties": {"osm_id": 6426816486, "name": "Raga", "place": "city", "population": ""}, "geometry": {"type": "Point", "coordinates": [94.0692973, 27.7968313]}}, {"type": "Feature", "properties": {"osm_id": 6800141402, "name": "Nokyan", "place": "village", "population": ""}, "geometry": {"type": "Point", "coordinates": [95.2577573, 26.8979608]}}, {"type": "Feature", "properties": {"osm_id": 6815349787, "name": "Yangte", "place": "village", "population": ""}, "geometry": {"type": "Point", "coordinates": [93.6255028, 27.8243475]}}, {"type": "Feature", "properties": {"osm_id": 6815349886, "name": "Tarak Lengdi", "place": "village", "population": ""}, "geometry": {"type": "Point", "coordinates": [93.8203239, 27.7702538]}}, {"type": "Feature", "properties": {"osm_id": 6815355785, "name": "Palin", "place": "city", "population": ""}, "geometry": {"type": "Point", "coordinates": [93.6301961, 27.695143]}}, {"type": "Feature", "properties": {"osm_id": 6818263796, "name": "Tizit", "place": "town", "population": ""}, "geometry": {"type": "Point", "coordinates": [95.0774002, 26.8987837]}}, {"type": "Feature", "properties": {"osm_id": 6818321786, "name": "Phomching", "place": "village", "population": ""}, "geometry": {"type": "Point", "coordinates": [95.1835084, 26.689011]}}, {"type": "Feature", "properties": {"osm_id": 6818321787, "name": "Shangnyu", "place": "town", "population": ""}, "geometry": {"type": "Point", "coordinates": [95.1360225, 26.7709781]}}, {"type": "Feature", "properties": {"osm_id": 6818979690, "name": "Tamlu", "place": "town", "population": ""}, "geometry": {"type": "Point", "coordinates": [94.7358692, 26.6704706]}}, {"type": "Feature", "properties": {"osm_id": 6818979691, "name": "Bora Namsang", "place": "town", "population": ""}, "geometry": {"type": "Point", "coordinates": [94.7974741, 26.722537]}}, {"type": "Feature", "properties": {"osm_id": 6871220210, "name": "Nyasa", "place": "village", "population": ""}, "geometry": {"type": "Point", "coordinates": [95.1792073, 26.768239]}}, {"type": "Feature", "properties": {"osm_id": 6871220278, "name": "Wetting", "place": "village", "population": ""}, "geometry": {"type": "Point", "coordinates": [95.1794004, 26.7149284]}}, {"type": "Feature", "properties": {"osm_id": 6874965813, "name": "Borchahaki", "place": "village", "population": ""}, "geometry": {"type": "Point", "coordinates": [94.9207004, 27.1015907]}}, {"type": "Feature", "properties": {"osm_id": 6877970774, "name": "Longkhao", "place": "village", "population": ""}, "geometry": {"type": "Point", "coordinates": [95.2328325, 26.7731244]}}, {"type": "Feature", "properties": {"osm_id": 6877970775, "name": "Maihua", "place": "village", "population": ""}, "geometry": {"type": "Point", "coordinates": [95.2527345, 26.7876448]}}, {"type": "Feature", "properties": {"osm_id": 6878533651, "name": "Zangkham Chingnyu", "place": "village", "population": ""}, "geometry": {"type": "Point", "coordinates": [95.1912202, 26.8090248]}}, {"type": "Feature", "properties": {"osm_id": 6878562867, "name": "Pumao", "place": "village", "population": ""}, "geometry": {"type": "Point", "coordinates": [95.238958, 26.8249095]}}, {"type": "Feature", "properties": {"osm_id": 6878562938, "name": "", "place": "village", "population": ""}, "geometry": {"type": "Point", "coordinates": [95.2420287, 26.8351067]}}, {"type": "Feature", "properties": {"osm_id": 6878562939, "name": "Chatting", "place": "village", "population": ""}, "geometry": {"type": "Point", "coordinates": [95.2691427, 26.872556]}}, {"type": "Feature", "properties": {"osm_id": 6885126045, "name": "Wanu", "place": "village", "population": ""}, "geometry": {"type": "Point", "coordinates": [95.2578579, 26.9296139]}}, {"type": "Feature", "properties": {"osm_id": 6885127207, "name": "Banfera", "place": "village", "population": ""}, "geometry": {"type": "Point", "coordinates": [95.2264973, 26.9574778]}}, {"type": "Feature", "properties": {"osm_id": 6885163420, "name": "Hasse Russa", "place": "village", "population": ""}, "geometry": {"type": "Point", "coordinates": [95.2244022, 27.0212359]}}, {"type": "Feature", "properties": {"osm_id": 6885163421, "name": "", "place": "village", "population": ""}, "geometry": {"type": "Point", "coordinates": [95.2757803, 27.0263146]}}, {"type": "Feature", "properties": {"osm_id": 6887922522, "name": "Longhua", "place": "village", "population": ""}, "geometry": {"type": "Point", "coordinates": [95.239336, 27.0035104]}}, {"type": "Feature", "properties": {"osm_id": 6888255508, "name": "Longnakshia", "place": "village", "population": ""}, "geometry": {"type": "Point", "coordinates": [95.1717654, 26.9706515]}}, {"type": "Feature", "properties": {"osm_id": 6888256493, "name": "Nokyan", "place": "village", "population": ""}, "geometry": {"type": "Point", "coordinates": [95.1977043, 26.8947862]}}, {"type": "Feature", "properties": {"osm_id": 6888256513, "name": "", "place": "village", "population": ""}, "geometry": {"type": "Point", "coordinates": [95.2039914, 26.9178054]}}, {"type": "Feature", "properties": {"osm_id": 6888318326, "name": "Kamnu", "place": "village", "population": ""}, "geometry": {"type": "Point", "coordinates": [95.2873379, 27.0076077]}}, {"type": "Feature", "properties": {"osm_id": 6888318380, "name": "Lairang Russa", "place": "village", "population": ""}, "geometry": {"type": "Point", "coordinates": [95.2764128, 27.0396041]}}, {"type": "Feature", "properties": {"osm_id": 6888318381, "name": "Russa Rimpong", "place": "village", "population": ""}, "geometry": {"type": "Point", "coordinates": [95.2787119, 27.0484141]}}, {"type": "Feature", "properties": {"osm_id": 6888318382, "name": "Kamkuh Russa", "place": "village", "population": ""}, "geometry": {"type": "Point", "coordinates": [95.2700019, 27.0732837]}}, {"type": "Feature", "properties": {"osm_id": 7158694224, "name": "Tingkhong", "place": "village", "population": ""}, "geometry": {"type": "Point", "coordinates": [95.1749038, 27.2171019]}}, {"type": "Feature", "properties": {"osm_id": 7160009137, "name": "Naobaicha", "place": "village", "population": ""}, "geometry": {"type": "Point", "coordinates": [94.0212321, 27.1691197]}}, {"type": "Feature", "properties": {"osm_id": 7160147292, "name": "Dhakuakhana", "place": "village", "population": ""}, "geometry": {"type": "Point", "coordinates": [94.4434033, 27.2033548]}}, {"type": "Feature", "properties": {"osm_id": 7160147293, "name": "Bilmukh", "place": "village", "population": ""}, "geometry": {"type": "Point", "coordinates": [94.3357371, 27.301164]}}, {"type": "Feature", "properties": {"osm_id": 7160147294, "name": "Kadam", "place": "village", "population": ""}, "geometry": {"type": "Point", "coordinates": [94.1585826, 27.3172176]}}, {"type": "Feature", "properties": {"osm_id": 7160153703, "name": "Tengakhat", "place": "village", "population": ""}, "geometry": {"type": "Point", "coordinates": [95.1698398, 27.3808373]}}, {"type": "Feature", "properties": {"osm_id": 7160154172, "name": "Sologuri", "place": "village", "population": ""}, "geometry": {"type": "Point", "coordinates": [94.837718, 27.0793412]}}, {"type": "Feature", "properties": {"osm_id": 7160227766, "name": "Hunta", "place": "village", "population": ""}, "geometry": {"type": "Point", "coordinates": [95.1931893, 26.9967455]}}, {"type": "Feature", "properties": {"osm_id": 7164371592, "name": "Nari", "place": "village", "population": ""}, "geometry": {"type": "Point", "coordinates": [95.04354, 27.801159]}}, {"type": "Feature", "properties": {"osm_id": 7164371593, "name": "Seren", "place": "village", "population": ""}, "geometry": {"type": "Point", "coordinates": [94.9040007, 27.7493859]}}, {"type": "Feature", "properties": {"osm_id": 7164489290, "name": "Toru", "place": "village", "population": ""}, "geometry": {"type": "Point", "coordinates": [93.6874151, 27.2155276]}}, {"type": "Feature", "properties": {"osm_id": 7164489291, "name": "Gumto", "place": "village", "population": ""}, "geometry": {"type": "Point", "coordinates": [93.7971711, 27.1393161]}}, {"type": "Feature", "properties": {"osm_id": 7164489292, "name": "\u76ae\u9c81 Pistana", "place": "hamlet", "population": ""}, "geometry": {"type": "Point", "coordinates": [93.6537373, 27.5050075]}}, {"type": "Feature", "properties": {"osm_id": 7164489293, "name": "Kamporijo", "place": "village", "population": ""}, "geometry": {"type": "Point", "coordinates": [93.9325046, 27.8204134]}}, {"type": "Feature", "properties": {"osm_id": 7164649886, "name": "Kangku", "place": "village", "population": ""}, "geometry": {"type": "Point", "coordinates": [94.4604921, 27.5650095]}}, {"type": "Feature", "properties": {"osm_id": 7772225596, "name": "Mariani", "place": "town", "population": "5000"}, "geometry": {"type": "Point", "coordinates": [94.3165916, 26.6539744]}}, {"type": "Feature", "properties": {"osm_id": 8148061483, "name": "Otting", "place": "village", "population": ""}, "geometry": {"type": "Point", "coordinates": [94.9566296, 26.8445624]}}, {"type": "Feature", "properties": {"osm_id": 8148080629, "name": "Tuimei", "place": "village", "population": ""}, "geometry": {"type": "Point", "coordinates": [95.0733302, 26.8163494]}}, {"type": "Feature", "properties": {"osm_id": 8148080630, "name": "Zakho", "place": "village", "population": ""}, "geometry": {"type": "Point", "coordinates": [95.0985376, 26.8218242]}}, {"type": "Feature", "properties": {"osm_id": 8148080631, "name": "Nganting", "place": "village", "population": ""}, "geometry": {"type": "Point", "coordinates": [95.0889165, 26.860508]}}, {"type": "Feature", "properties": {"osm_id": 8148080952, "name": "Longting", "place": "village", "population": ""}, "geometry": {"type": "Point", "coordinates": [95.1652474, 26.8959393]}}, {"type": "Feature", "properties": {"osm_id": 8148080953, "name": "Yannyu", "place": "village", "population": ""}, "geometry": {"type": "Point", "coordinates": [95.2004631, 26.8815602]}}, {"type": "Feature", "properties": {"osm_id": 8148354993, "name": "Wanching", "place": "village", "population": ""}, "geometry": {"type": "Point", "coordinates": [94.847163, 26.6607538]}}, {"type": "Feature", "properties": {"osm_id": 8148354994, "name": "Shiyong", "place": "village", "population": ""}, "geometry": {"type": "Point", "coordinates": [94.9217029, 26.6966396]}}, {"type": "Feature", "properties": {"osm_id": 8397021887, "name": "", "place": "village", "population": ""}, "geometry": {"type": "Point", "coordinates": [93.9532203, 27.7787552]}}, {"type": "Feature", "properties": {"osm_id": 8426631313, "name": "Hoj", "place": "village", "population": ""}, "geometry": {"type": "Point", "coordinates": [93.7962592, 27.2612486]}}, {"type": "Feature", "properties": {"osm_id": 8512761578, "name": "Old Ziro", "place": "village", "population": ""}, "geometry": {"type": "Point", "coordinates": [93.8265574, 27.5911473]}}, {"type": "Feature", "properties": {"osm_id": 9174932178, "name": "Ikarani 1", "place": "village", "population": ""}, "geometry": {"type": "Point", "coordinates": [95.0953066, 27.3430472]}}, {"type": "Feature", "properties": {"osm_id": 9213360762, "name": "Changamari Habi", "place": "village", "population": ""}, "geometry": {"type": "Point", "coordinates": [94.826707, 27.4265029]}}, {"type": "Feature", "properties": {"osm_id": 9214904285, "name": "Mereli Pathar", "place": "village", "population": ""}, "geometry": {"type": "Point", "coordinates": [95.1918232, 27.4904658]}}, {"type": "Feature", "properties": {"osm_id": 9281140208, "name": "Phukonhabi Gaon", "place": "village", "population": ""}, "geometry": {"type": "Point", "coordinates": [94.4489709, 26.678364]}}, {"type": "Feature", "properties": {"osm_id": 9355820992, "name": "Longzang", "place": "village", "population": ""}, "geometry": {"type": "Point", "coordinates": [95.2089115, 26.7204967]}}, {"type": "Feature", "properties": {"osm_id": 9355820993, "name": "Pukha", "place": "village", "population": ""}, "geometry": {"type": "Point", "coordinates": [95.2138586, 26.7467974]}}, {"type": "Feature", "properties": {"osm_id": 9566367368, "name": "Khagorimaijan", "place": "village", "population": ""}, "geometry": {"type": "Point", "coordinates": [95.1076019, 27.5098225]}}, {"type": "Feature", "properties": {"osm_id": 9566367370, "name": "Baratichuk", "place": "hamlet", "population": ""}, "geometry": {"type": "Point", "coordinates": [95.0952818, 27.519137]}}, {"type": "Feature", "properties": {"osm_id": 9566367371, "name": "Chamoni Gaon", "place": "hamlet", "population": ""}, "geometry": {"type": "Point", "coordinates": [95.1095116, 27.5052168]}}, {"type": "Feature", "properties": {"osm_id": 9566367372, "name": "Barahi-Da-Pathar", "place": "village", "population": ""}, "geometry": {"type": "Point", "coordinates": [95.1224109, 27.5195811]}}, {"type": "Feature", "properties": {"osm_id": 9566367373, "name": "Niz-Rahmoria", "place": "village", "population": ""}, "geometry": {"type": "Point", "coordinates": [95.1325124, 27.5142684]}}, {"type": "Feature", "properties": {"osm_id": 9566367374, "name": "Dhupabor Maijan", "place": "village", "population": ""}, "geometry": {"type": "Point", "coordinates": [95.1432357, 27.5262484]}}, {"type": "Feature", "properties": {"osm_id": 9569488213, "name": "Gaurisagar Tiniali", "place": "town", "population": ""}, "geometry": {"type": "Point", "coordinates": [94.53558, 26.9484393]}}, {"type": "Feature", "properties": {"osm_id": 9569576344, "name": "Hati Ghuli", "place": "village", "population": ""}, "geometry": {"type": "Point", "coordinates": [94.5119947, 26.9313857]}}, {"type": "Feature", "properties": {"osm_id": 9587442592, "name": "Mathuri Pathar", "place": "village", "population": ""}, "geometry": {"type": "Point", "coordinates": [94.7098732, 27.6390559]}}, {"type": "Feature", "properties": {"osm_id": 9587442593, "name": "Ghagara Adi", "place": "village", "population": ""}, "geometry": {"type": "Point", "coordinates": [94.7126949, 27.6505083]}}, {"type": "Feature", "properties": {"osm_id": 9587513624, "name": "Malini", "place": "village", "population": ""}, "geometry": {"type": "Point", "coordinates": [94.7122656, 27.6593413]}}, {"type": "Feature", "properties": {"osm_id": 9589199698, "name": "Kendugurigaon", "place": "village", "population": ""}, "geometry": {"type": "Point", "coordinates": [94.6928251, 27.5827365]}}, {"type": "Feature", "properties": {"osm_id": 9589199699, "name": "Dhekiani Bam", "place": "hamlet", "population": ""}, "geometry": {"type": "Point", "coordinates": [94.6739997, 27.5938202]}}, {"type": "Feature", "properties": {"osm_id": 9589199700, "name": "Kailashpur", "place": "hamlet", "population": ""}, "geometry": {"type": "Point", "coordinates": [94.6812701, 27.6101012]}}, {"type": "Feature", "properties": {"osm_id": 9589199701, "name": "Barati Gaon", "place": "village", "population": ""}, "geometry": {"type": "Point", "coordinates": [94.691865, 27.5968851]}}, {"type": "Feature", "properties": {"osm_id": 9594277341, "name": "Malani", "place": "hamlet", "population": ""}, "geometry": {"type": "Point", "coordinates": [94.7225788, 27.6560344]}}, {"type": "Feature", "properties": {"osm_id": 9614163486, "name": "Bhebeli Gaon", "place": "hamlet", "population": ""}, "geometry": {"type": "Point", "coordinates": [94.6565888, 27.5467321]}}, {"type": "Feature", "properties": {"osm_id": 9621175763, "name": "Akajan Miri", "place": "village", "population": ""}, "geometry": {"type": "Point", "coordinates": [94.7364891, 27.5560142]}}, {"type": "Feature", "properties": {"osm_id": 9621175764, "name": "Bormuria Chapori", "place": "village", "population": ""}, "geometry": {"type": "Point", "coordinates": [94.7405403, 27.5445259]}}, {"type": "Feature", "properties": {"osm_id": 9621475214, "name": "No. 2 Tangani Majgaon", "place": "village", "population": ""}, "geometry": {"type": "Point", "coordinates": [94.7432561, 27.5169168]}}, {"type": "Feature", "properties": {"osm_id": 9621475215, "name": "No. 1 Tangani Majgaon", "place": "village", "population": ""}, "geometry": {"type": "Point", "coordinates": [94.7532702, 27.5277352]}}, {"type": "Feature", "properties": {"osm_id": 9627091747, "name": "No. 2 Chila Pathar", "place": "hamlet", "population": ""}, "geometry": {"type": "Point", "coordinates": [94.7598254, 27.6007304]}}, {"type": "Feature", "properties": {"osm_id": 9627091748, "name": "No. 1 Chila Pathar", "place": "hamlet", "population": ""}, "geometry": {"type": "Point", "coordinates": [94.7549378, 27.5957324]}}, {"type": "Feature", "properties": {"osm_id": 9627094125, "name": "Bharaibpur", "place": "hamlet", "population": ""}, "geometry": {"type": "Point", "coordinates": [94.7634887, 27.6001964]}}, {"type": "Feature", "properties": {"osm_id": 9627094483, "name": "Silabaligaon", "place": "village", "population": ""}, "geometry": {"type": "Point", "coordinates": [94.7657396, 27.5974529]}}, {"type": "Feature", "properties": {"osm_id": 9627117726, "name": "Thekeraguri", "place": "hamlet", "population": ""}, "geometry": {"type": "Point", "coordinates": [94.7566842, 27.5999259]}}, {"type": "Feature", "properties": {"osm_id": 9627171489, "name": "Joriguri", "place": "village", "population": ""}, "geometry": {"type": "Point", "coordinates": [94.7670088, 27.5688939]}}, {"type": "Feature", "properties": {"osm_id": 9627171500, "name": "Memberchuk", "place": "hamlet", "population": ""}, "geometry": {"type": "Point", "coordinates": [94.7437473, 27.5665753]}}, {"type": "Feature", "properties": {"osm_id": 9627171517, "name": "Mishingpur", "place": "village", "population": ""}, "geometry": {"type": "Point", "coordinates": [94.7472812, 27.5696466]}}, {"type": "Feature", "properties": {"osm_id": 9628955501, "name": "Archipathar", "place": "village", "population": ""}, "geometry": {"type": "Point", "coordinates": [94.7842022, 27.6587392]}}, {"type": "Feature", "properties": {"osm_id": 9628970442, "name": "Jalakia Suti", "place": "village", "population": ""}, "geometry": {"type": "Point", "coordinates": [94.7722828, 27.6282012]}}, {"type": "Feature", "properties": {"osm_id": 9646077729, "name": "Majorbari", "place": "village", "population": ""}, "geometry": {"type": "Point", "coordinates": [94.8487794, 27.5946012]}}, {"type": "Feature", "properties": {"osm_id": 9706140668, "name": "Durpai", "place": "hamlet", "population": ""}, "geometry": {"type": "Point", "coordinates": [94.3006056, 27.5529109]}}, {"type": "Feature", "properties": {"osm_id": 9790620535, "name": "", "place": "town", "population": ""}, "geometry": {"type": "Point", "coordinates": [95.0612287, 26.7353009]}}, {"type": "Feature", "properties": {"osm_id": 9790620536, "name": "", "place": "village", "population": ""}, "geometry": {"type": "Point", "coordinates": [95.1205371, 26.7588125]}}, {"type": "Feature", "properties": {"osm_id": 9802475755, "name": "Zangkham Tingsa", "place": "village", "population": ""}, "geometry": {"type": "Point", "coordinates": [95.1655362, 26.8463704]}}, {"type": "Feature", "properties": {"osm_id": 9802475780, "name": "", "place": "village", "population": ""}, "geometry": {"type": "Point", "coordinates": [95.1747106, 26.9283551]}}, {"type": "Feature", "properties": {"osm_id": 9802475812, "name": "Jaboka", "place": "town", "population": ""}, "geometry": {"type": "Point", "coordinates": [95.1433603, 26.9342978]}}, {"type": "Feature", "properties": {"osm_id": 9803174651, "name": "", "place": "village", "population": ""}, "geometry": {"type": "Point", "coordinates": [95.1049886, 26.8869802]}}, {"type": "Feature", "properties": {"osm_id": 9803180534, "name": "", "place": "village", "population": ""}, "geometry": {"type": "Point", "coordinates": [95.135687, 26.9075689]}}, {"type": "Feature", "properties": {"osm_id": 9803180570, "name": "", "place": "village", "population": ""}, "geometry": {"type": "Point", "coordinates": [95.2763965, 26.9527244]}}, {"type": "Feature", "properties": {"osm_id": 9820112189, "name": "", "place": "hamlet", "population": ""}, "geometry": {"type": "Point", "coordinates": [95.148855, 26.762285]}}, {"type": "Feature", "properties": {"osm_id": 9849518665, "name": "Rajkhowasuk", "place": "village", "population": "20000"}, "geometry": {"type": "Point", "coordinates": [94.9114028, 27.0653733]}}, {"type": "Feature", "properties": {"osm_id": 9894646922, "name": "Niausa", "place": "village", "population": ""}, "geometry": {"type": "Point", "coordinates": [95.2955733, 26.8190896]}}, {"type": "Feature", "properties": {"osm_id": 10030463698, "name": "Ania Koyer", "place": "hamlet", "population": ""}, "geometry": {"type": "Point", "coordinates": [93.6028553, 27.8120119]}}, {"type": "Feature", "properties": {"osm_id": 10030463699, "name": "Chate", "place": "hamlet", "population": ""}, "geometry": {"type": "Point", "coordinates": [93.6056412, 27.8155282]}}, {"type": "Feature", "properties": {"osm_id": 10030463700, "name": "Niringha", "place": "hamlet", "population": ""}, "geometry": {"type": "Point", "coordinates": [93.6072372, 27.8152459]}}, {"type": "Feature", "properties": {"osm_id": 10030463701, "name": "Ribung", "place": "hamlet", "population": ""}, "geometry": {"type": "Point", "coordinates": [93.6051672, 27.8172222]}}, {"type": "Feature", "properties": {"osm_id": 10030463702, "name": "Hujuriang", "place": "hamlet", "population": ""}, "geometry": {"type": "Point", "coordinates": [93.6087269, 27.8172051]}}, {"type": "Feature", "properties": {"osm_id": 10030463703, "name": "Dokio Pep", "place": "hamlet", "population": ""}, "geometry": {"type": "Point", "coordinates": [93.6127993, 27.8193782]}}, {"type": "Feature", "properties": {"osm_id": 10030500637, "name": "Kikum", "place": "village", "population": ""}, "geometry": {"type": "Point", "coordinates": [93.6171136, 27.8228515]}}, {"type": "Feature", "properties": {"osm_id": 10030500638, "name": "Lyaba", "place": "hamlet", "population": ""}, "geometry": {"type": "Point", "coordinates": [93.6076532, 27.8188135]}}, {"type": "Feature", "properties": {"osm_id": 10030500639, "name": "Lenko", "place": "hamlet", "population": ""}, "geometry": {"type": "Point", "coordinates": [93.6262976, 27.8180334]}}, {"type": "Feature", "properties": {"osm_id": 10030500640, "name": "Yaba", "place": "village", "population": ""}, "geometry": {"type": "Point", "coordinates": [93.6187438, 27.8247029]}}, {"type": "Feature", "properties": {"osm_id": 10030500641, "name": "Rukpu", "place": "hamlet", "population": ""}, "geometry": {"type": "Point", "coordinates": [93.6188196, 27.8269706]}}, {"type": "Feature", "properties": {"osm_id": 10030500642, "name": "Koping", "place": "hamlet", "population": ""}, "geometry": {"type": "Point", "coordinates": [93.6209796, 27.8292272]}}, {"type": "Feature", "properties": {"osm_id": 10030500674, "name": "Serek", "place": "hamlet", "population": ""}, "geometry": {"type": "Point", "coordinates": [93.6220339, 27.8253369]}}, {"type": "Feature", "properties": {"osm_id": 10030500675, "name": "Hina", "place": "hamlet", "population": ""}, "geometry": {"type": "Point", "coordinates": [93.6214291, 27.8264455]}}, {"type": "Feature", "properties": {"osm_id": 10030500676, "name": "Gyachi", "place": "village", "population": ""}, "geometry": {"type": "Point", "coordinates": [93.6262896, 27.8257551]}}, {"type": "Feature", "properties": {"osm_id": 10030500677, "name": "Picha", "place": "hamlet", "population": ""}, "geometry": {"type": "Point", "coordinates": [93.6277302, 27.825473]}}, {"type": "Feature", "properties": {"osm_id": 10030500678, "name": "Tagia", "place": "hamlet", "population": ""}, "geometry": {"type": "Point", "coordinates": [93.6304023, 27.8248506]}}, {"type": "Feature", "properties": {"osm_id": 10030500759, "name": "Howa", "place": "hamlet", "population": ""}, "geometry": {"type": "Point", "coordinates": [93.6308895, 27.833623]}}, {"type": "Feature", "properties": {"osm_id": 10030500760, "name": "Pijo", "place": "hamlet", "population": ""}, "geometry": {"type": "Point", "coordinates": [93.6312953, 27.8311696]}}, {"type": "Feature", "properties": {"osm_id": 10030500761, "name": "Sanglum", "place": "hamlet", "population": ""}, "geometry": {"type": "Point", "coordinates": [93.6318275, 27.8318992]}}, {"type": "Feature", "properties": {"osm_id": 10030500762, "name": "Nioya", "place": "hamlet", "population": ""}, "geometry": {"type": "Point", "coordinates": [93.6333178, 27.8306813]}}, {"type": "Feature", "properties": {"osm_id": 10030500763, "name": "Chaba Pokpu", "place": "hamlet", "population": ""}, "geometry": {"type": "Point", "coordinates": [93.6329918, 27.8295282]}}, {"type": "Feature", "properties": {"osm_id": 10030500764, "name": "Sanglum Langi", "place": "hamlet", "population": ""}, "geometry": {"type": "Point", "coordinates": [93.6345685, 27.8320521]}}, {"type": "Feature", "properties": {"osm_id": 10030500765, "name": "Nyoung", "place": "hamlet", "population": ""}, "geometry": {"type": "Point", "coordinates": [93.6424257, 27.8311285]}}, {"type": "Feature", "properties": {"osm_id": 10030500766, "name": "Ringte", "place": "hamlet", "population": ""}, "geometry": {"type": "Point", "coordinates": [93.6442622, 27.8414441]}}, {"type": "Feature", "properties": {"osm_id": 10030500767, "name": "Singridolo", "place": "hamlet", "population": ""}, "geometry": {"type": "Point", "coordinates": [93.6442527, 27.8452474]}}, {"type": "Feature", "properties": {"osm_id": 10030500768, "name": "Tai", "place": "hamlet", "population": ""}, "geometry": {"type": "Point", "coordinates": [93.6374484, 27.8256683]}}, {"type": "Feature", "properties": {"osm_id": 10030500769, "name": "Kojar", "place": "hamlet", "population": ""}, "geometry": {"type": "Point", "coordinates": [93.6489102, 27.8356929]}}, {"type": "Feature", "properties": {"osm_id": 10208010964, "name": "Jangraimukh", "place": "village", "population": ""}, "geometry": {"type": "Point", "coordinates": [94.284623, 27.0921357]}}, {"type": "Feature", "properties": {"osm_id": 10303891377, "name": "Bihpuria", "place": "town", "population": ""}, "geometry": {"type": "Point", "coordinates": [93.9167974, 27.019264]}}, {"type": "Feature", "properties": {"osm_id": 10307867175, "name": "Banderdeva", "place": "village", "population": ""}, "geometry": {"type": "Point", "coordinates": [93.8242125, 27.1088459]}}, {"type": "Feature", "properties": {"osm_id": 10599423093, "name": "Borshahaki", "place": "village", "population": "60000"}, "geometry": {"type": "Point", "coordinates": [94.9120009, 27.0645844]}}, {"type": "Feature", "properties": {"osm_id": 10599428771, "name": "Disangpani", "place": "village", "population": "50000"}, "geometry": {"type": "Point", "coordinates": [94.91471, 27.0473643]}}, {"type": "Feature", "properties": {"osm_id": 10692764768, "name": "Auniati", "place": "village", "population": ""}, "geometry": {"type": "Point", "coordinates": [94.1238147, 26.9364877]}}, {"type": "Feature", "properties": {"osm_id": 11027322870, "name": "", "place": "village", "population": ""}, "geometry": {"type": "Point", "coordinates": [93.7079309, 27.5184028]}}, {"type": "Feature", "properties": {"osm_id": 11027964277, "name": "", "place": "hamlet", "population": ""}, "geometry": {"type": "Point", "coordinates": [93.6849197, 27.5470089]}}, {"type": "Feature", "properties": {"osm_id": 11027964596, "name": "", "place": "village", "population": ""}, "geometry": {"type": "Point", "coordinates": [93.6760415, 27.5353783]}}, {"type": "Feature", "properties": {"osm_id": 11037094478, "name": "", "place": "hamlet", "population": ""}, "geometry": {"type": "Point", "coordinates": [93.630059, 27.4858635]}}, {"type": "Feature", "properties": {"osm_id": 11037094495, "name": "", "place": "hamlet", "population": ""}, "geometry": {"type": "Point", "coordinates": [93.6351441, 27.4845005]}}, {"type": "Feature", "properties": {"osm_id": 11037272245, "name": "", "place": "hamlet", "population": ""}, "geometry": {"type": "Point", "coordinates": [93.6224002, 27.4811559]}}, {"type": "Feature", "properties": {"osm_id": 11108610672, "name": "Meer", "place": "hamlet", "population": ""}, "geometry": {"type": "Point", "coordinates": [93.6029421, 27.7787837]}}, {"type": "Feature", "properties": {"osm_id": 11108610673, "name": "Malaring", "place": "hamlet", "population": ""}, "geometry": {"type": "Point", "coordinates": [93.6027774, 27.7736553]}}, {"type": "Feature", "properties": {"osm_id": 11108610674, "name": "Anung", "place": "hamlet", "population": ""}, "geometry": {"type": "Point", "coordinates": [93.6090513, 27.7754473]}}, {"type": "Feature", "properties": {"osm_id": 11108610675, "name": "Dari", "place": "hamlet", "population": ""}, "geometry": {"type": "Point", "coordinates": [93.614403, 27.7763069]}}, {"type": "Feature", "properties": {"osm_id": 11108610676, "name": "Dado", "place": "hamlet", "population": ""}, "geometry": {"type": "Point", "coordinates": [93.6191126, 27.7790897]}}, {"type": "Feature", "properties": {"osm_id": 11108610677, "name": "Tabu", "place": "hamlet", "population": ""}, "geometry": {"type": "Point", "coordinates": [93.6102569, 27.7621282]}}, {"type": "Feature", "properties": {"osm_id": 11108610678, "name": "Taha Tahu", "place": "hamlet", "population": ""}, "geometry": {"type": "Point", "coordinates": [93.6125642, 27.7572791]}}, {"type": "Feature", "properties": {"osm_id": 11108610679, "name": "Choba Jamin", "place": "village", "population": ""}, "geometry": {"type": "Point", "coordinates": [93.6156258, 27.7527186]}}, {"type": "Feature", "properties": {"osm_id": 11108610680, "name": "Tapaha", "place": "hamlet", "population": ""}, "geometry": {"type": "Point", "coordinates": [93.6117288, 27.7495869]}}, {"type": "Feature", "properties": {"osm_id": 11108610686, "name": "Lengba", "place": "hamlet", "population": ""}, "geometry": {"type": "Point", "coordinates": [93.6162796, 27.7422561]}}, {"type": "Feature", "properties": {"osm_id": 11132665783, "name": "Gozpuria Gaon", "place": "village", "population": ""}, "geometry": {"type": "Point", "coordinates": [94.2239087, 26.7963357]}}, {"type": "Feature", "properties": {"osm_id": 11132670519, "name": "Garmur", "place": "village", "population": ""}, "geometry": {"type": "Point", "coordinates": [94.2554996, 26.7444419]}}, {"type": "Feature", "properties": {"osm_id": 11132675927, "name": "Potiagaon", "place": "village", "population": ""}, "geometry": {"type": "Point", "coordinates": [94.2393581, 26.8057846]}}, {"type": "Feature", "properties": {"osm_id": 11834704091, "name": "Yazali", "place": "town", "population": "1768"}, "geometry": {"type": "Point", "coordinates": [93.7444704, 27.4031809]}}, {"type": "Feature", "properties": {"osm_id": 12089659247, "name": "L\u0101ho\u0101l P\u0101tra", "place": "hamlet", "population": ""}, "geometry": {"type": "Point", "coordinates": [95.0074375, 27.4564262]}}, {"type": "Feature", "properties": {"osm_id": 12089659248, "name": "Nij Laho\u0101l", "place": "hamlet", "population": ""}, "geometry": {"type": "Point", "coordinates": [94.98775, 27.4565262]}}, {"type": "Feature", "properties": {"osm_id": 12096003944, "name": "Hemel\u0101igaon", "place": "hamlet", "population": ""}, "geometry": {"type": "Point", "coordinates": [94.462552, 26.7465302]}}, {"type": "Feature", "properties": {"osm_id": 12096003988, "name": "Simaluguri", "place": "village", "population": ""}, "geometry": {"type": "Point", "coordinates": [94.7556049, 26.9202285]}}, {"type": "Feature", "properties": {"osm_id": 12097814915, "name": "Jojoli Panchali", "place": "hamlet", "population": ""}, "geometry": {"type": "Point", "coordinates": [94.9386227, 27.0689473]}}, {"type": "Feature", "properties": {"osm_id": 12101473804, "name": "Tingkhang", "place": "hamlet", "population": ""}, "geometry": {"type": "Point", "coordinates": [95.1727366, 27.23229]}}, {"type": "Feature", "properties": {"osm_id": 12101473809, "name": "R\u0101jgarh ,786611", "place": "hamlet", "population": ""}, "geometry": {"type": "Point", "coordinates": [95.1065585, 27.1812937]}}, {"type": "Feature", "properties": {"osm_id": 12101473810, "name": "R\u0101jgarhgaon", "place": "hamlet", "population": ""}, "geometry": {"type": "Point", "coordinates": [94.8694217, 27.02072]}}, {"type": "Feature", "properties": {"osm_id": 12101473859, "name": "Pith\u0101guti Grant", "place": "hamlet", "population": ""}, "geometry": {"type": "Point", "coordinates": [95.0306171, 27.1615979]}}, {"type": "Feature", "properties": {"osm_id": 12101473860, "name": "Nan\u0101b\u0101t Namke", "place": "hamlet", "population": ""}, "geometry": {"type": "Point", "coordinates": [95.0585389, 27.1727658]}}, {"type": "Feature", "properties": {"osm_id": 12102228030, "name": "Ghurania", "place": "hamlet", "population": ""}, "geometry": {"type": "Point", "coordinates": [95.284692, 27.2691546]}}, {"type": "Feature", "properties": {"osm_id": 12102228031, "name": "Ghurania", "place": "hamlet", "population": ""}, "geometry": {"type": "Point", "coordinates": [95.2660453, 27.2609625]}}, {"type": "Feature", "properties": {"osm_id": 12102473417, "name": "Mor\u0101n", "place": "town", "population": ""}, "geometry": {"type": "Point", "coordinates": [94.9104273, 27.1857364]}}, {"type": "Feature", "properties": {"osm_id": 12102473419, "name": "B\u0101munb\u0101ri", "place": "village", "population": ""}, "geometry": {"type": "Point", "coordinates": [94.9875945, 27.2429596]}}, {"type": "Feature", "properties": {"osm_id": 12106423898, "name": "K\u0101som\u0101rigaon", "place": "village", "population": ""}, "geometry": {"type": "Point", "coordinates": [94.9335265, 27.1175646]}}, {"type": "Feature", "properties": {"osm_id": 12106506183, "name": "K\u0101som\u0101rigaon", "place": "hamlet", "population": ""}, "geometry": {"type": "Point", "coordinates": [94.9317455, 27.1029339]}}, {"type": "Feature", "properties": {"osm_id": 12106853765, "name": "Bar\u0101higaon", "place": "hamlet", "population": ""}, "geometry": {"type": "Point", "coordinates": [94.9848747, 27.054272]}}, {"type": "Feature", "properties": {"osm_id": 12106856619, "name": "Sonari", "place": "town", "population": ""}, "geometry": {"type": "Point", "coordinates": [95.0183272, 27.0266981]}}, {"type": "Feature", "properties": {"osm_id": 12118201332, "name": "2Rahan Path\u0101r No.2", "place": "hamlet", "population": ""}, "geometry": {"type": "Point", "coordinates": [95.136323, 27.1303028]}}, {"type": "Feature", "properties": {"osm_id": 12118201333, "name": "Rahan Path\u0101r No.1", "place": "hamlet", "population": ""}, "geometry": {"type": "Point", "coordinates": [95.1234484, 27.1238288]}}, {"type": "Feature", "properties": {"osm_id": 12118201334, "name": "Tim\u0101nb\u0101rtani", "place": "hamlet", "population": ""}, "geometry": {"type": "Point", "coordinates": [95.102334, 27.1128279]}}, {"type": "Feature", "properties": {"osm_id": 12118201335, "name": "Chechasatra", "place": "hamlet", "population": ""}, "geometry": {"type": "Point", "coordinates": [95.0969696, 27.1103259]}}, {"type": "Feature", "properties": {"osm_id": 12118201336, "name": "Miri Path\u0101r", "place": "hamlet", "population": ""}, "geometry": {"type": "Point", "coordinates": [95.0870776, 27.099763]}}, {"type": "Feature", "properties": {"osm_id": 12118201337, "name": "Longpatiya", "place": "hamlet", "population": ""}, "geometry": {"type": "Point", "coordinates": [95.0930214, 27.0797997]}}, {"type": "Feature", "properties": {"osm_id": 12118201338, "name": "Banhab\u0101rigaon", "place": "hamlet", "population": ""}, "geometry": {"type": "Point", "coordinates": [95.0618005, 27.0868398]}}, {"type": "Feature", "properties": {"osm_id": 12118201339, "name": "H\u0101th\u012bmuriy\u0101 \u012bgaom", "place": "hamlet", "population": ""}, "geometry": {"type": "Point", "coordinates": [95.0528097, 27.082226]}}, {"type": "Feature", "properties": {"osm_id": 12118201348, "name": "S\u0101pekh\u0101ti", "place": "hamlet", "population": ""}, "geometry": {"type": "Point", "coordinates": [95.1597547, 27.1032681]}}, {"type": "Feature", "properties": {"osm_id": 12118201349, "name": "Bhojogaon", "place": "hamlet", "population": ""}, "geometry": {"type": "Point", "coordinates": [95.0486898, 27.0759977]}}, {"type": "Feature", "properties": {"osm_id": 12118201350, "name": "Bhojogaon", "place": "hamlet", "population": ""}, "geometry": {"type": "Point", "coordinates": [95.0400343, 27.0688948]}}, {"type": "Feature", "properties": {"osm_id": 12118201351, "name": "Bhojo", "place": "hamlet", "population": ""}, "geometry": {"type": "Point", "coordinates": [95.0259232, 27.0629284]}}, {"type": "Feature", "properties": {"osm_id": 12122742224, "name": "Ghil\u0101guri", "place": "hamlet", "population": ""}, "geometry": {"type": "Point", "coordinates": [95.2557993, 27.1830737]}}, {"type": "Feature", "properties": {"osm_id": 12122742225, "name": "Khariy\u0101bhet\u0101goan", "place": "hamlet", "population": ""}, "geometry": {"type": "Point", "coordinates": [95.2169823, 27.1585815]}}, {"type": "Feature", "properties": {"osm_id": 12122765792, "name": "Santipu", "place": "hamlet", "population": ""}, "geometry": {"type": "Point", "coordinates": [95.2776486, 27.1950315]}}, {"type": "Feature", "properties": {"osm_id": 12122765793, "name": "Sapekhati Ch\u0101riali", "place": "hamlet", "population": ""}, "geometry": {"type": "Point", "coordinates": [95.176245, 27.0819251]}}, {"type": "Feature", "properties": {"osm_id": 12122771518, "name": "S\u0101pekh\u0101ti", "place": "hamlet", "population": ""}, "geometry": {"type": "Point", "coordinates": [95.1580918, 27.1132863]}}, {"type": "Feature", "properties": {"osm_id": 12128136233, "name": "S\u0101pekh\u0101ti", "place": "village", "population": ""}, "geometry": {"type": "Point", "coordinates": [95.1787139, 27.0799364]}}, {"type": "Feature", "properties": {"osm_id": 12128194971, "name": "Kherbart\u0101ni", "place": "hamlet", "population": ""}, "geometry": {"type": "Point", "coordinates": [95.2236128, 27.1929225]}}, {"type": "Feature", "properties": {"osm_id": 12128194972, "name": "Godh\u0101chalong", "place": "hamlet", "population": ""}, "geometry": {"type": "Point", "coordinates": [95.2405643, 27.1988581]}}, {"type": "Feature", "properties": {"osm_id": 12128194973, "name": "Shil Grant", "place": "hamlet", "population": ""}, "geometry": {"type": "Point", "coordinates": [95.2393842, 27.1937432]}}, {"type": "Feature", "properties": {"osm_id": 12128194974, "name": "Bart\u0101ni", "place": "hamlet", "population": ""}, "geometry": {"type": "Point", "coordinates": [95.2341914, 27.1974267]}}, {"type": "Feature", "properties": {"osm_id": 12128194975, "name": "Mamor\u0101li", "place": "hamlet", "population": ""}, "geometry": {"type": "Point", "coordinates": [95.2608418, 27.193705]}}, {"type": "Feature", "properties": {"osm_id": 12128194976, "name": "Mamor\u0101li", "place": "hamlet", "population": ""}, "geometry": {"type": "Point", "coordinates": [95.2526665, 27.1955373]}}, {"type": "Feature", "properties": {"osm_id": 12128194978, "name": "Barhela", "place": "hamlet", "population": ""}, "geometry": {"type": "Point", "coordinates": [95.2826321, 27.2023792]}}, {"type": "Feature", "properties": {"osm_id": 12128194979, "name": "Barhela", "place": "hamlet", "population": ""}, "geometry": {"type": "Point", "coordinates": [95.2701437, 27.1983905]}}, {"type": "Feature", "properties": {"osm_id": 12128194980, "name": "Bortony No 2", "place": "hamlet", "population": ""}, "geometry": {"type": "Point", "coordinates": [95.2550805, 27.200528]}}, {"type": "Feature", "properties": {"osm_id": 12128194981, "name": "K\u0101bola", "place": "hamlet", "population": ""}, "geometry": {"type": "Point", "coordinates": [95.2255654, 27.1830832]}}, {"type": "Feature", "properties": {"osm_id": 12128194982, "name": "Chrni", "place": "hamlet", "population": ""}, "geometry": {"type": "Point", "coordinates": [95.2062106, 27.1783685]}}, {"type": "Feature", "properties": {"osm_id": 12128194983, "name": "Shimulguri", "place": "hamlet", "population": ""}, "geometry": {"type": "Point", "coordinates": [95.19472, 27.1760683]}}, {"type": "Feature", "properties": {"osm_id": 12128194984, "name": "M\u0101hamara Alikin\u0101r", "place": "hamlet", "population": ""}, "geometry": {"type": "Point", "coordinates": [95.1977992, 27.171315]}}, {"type": "Feature", "properties": {"osm_id": 12128194985, "name": "Got Path\u0101r", "place": "hamlet", "population": ""}, "geometry": {"type": "Point", "coordinates": [95.195589, 27.1652825]}}, {"type": "Feature", "properties": {"osm_id": 12128194986, "name": "Kaly\u0101npur", "place": "hamlet", "population": ""}, "geometry": {"type": "Point", "coordinates": [95.1829934, 27.1648434]}}, {"type": "Feature", "properties": {"osm_id": 12128194987, "name": "Chap\u0101tali", "place": "hamlet", "population": ""}, "geometry": {"type": "Point", "coordinates": [95.1762771, 27.1517082]}}, {"type": "Feature", "properties": {"osm_id": 12128194988, "name": "Chap\u0101tali", "place": "hamlet", "population": ""}, "geometry": {"type": "Point", "coordinates": [95.1715565, 27.1533693]}}, {"type": "Feature", "properties": {"osm_id": 12128194989, "name": "Bag\u0101d\u0101d", "place": "hamlet", "population": ""}, "geometry": {"type": "Point", "coordinates": [95.1566434, 27.1442426]}}, {"type": "Feature", "properties": {"osm_id": 12128302302, "name": "Gari\u0101gaon", "place": "hamlet", "population": ""}, "geometry": {"type": "Point", "coordinates": [94.1696119, 26.6961042]}}, {"type": "Feature", "properties": {"osm_id": 12128302303, "name": "Char\u0101ib\u0101hi", "place": "hamlet", "population": ""}, "geometry": {"type": "Point", "coordinates": [94.1556644, 26.6748807]}}, {"type": "Feature", "properties": {"osm_id": 12128302304, "name": "Dhal\u0101j\u0101n", "place": "hamlet", "population": ""}, "geometry": {"type": "Point", "coordinates": [94.1421032, 26.6669808]}}, {"type": "Feature", "properties": {"osm_id": 12128302310, "name": "Rowriya", "place": "village", "population": ""}, "geometry": {"type": "Point", "coordinates": [94.1740966, 26.7160492]}}, {"type": "Feature", "properties": {"osm_id": 12133523575, "name": "Dimaugaon", "place": "hamlet", "population": ""}, "geometry": {"type": "Point", "coordinates": [94.7381973, 27.1277438]}}, {"type": "Feature", "properties": {"osm_id": 12133558574, "name": "Chunpura Goh\u0101igaon", "place": "hamlet", "population": ""}, "geometry": {"type": "Point", "coordinates": [94.7299522, 26.9441511]}}, {"type": "Feature", "properties": {"osm_id": 12134441623, "name": "Khow\u0101ng", "place": "village", "population": ""}, "geometry": {"type": "Point", "coordinates": [94.890418, 27.2767549]}}, {"type": "Feature", "properties": {"osm_id": 12135426492, "name": "Tipamia", "place": "village", "population": ""}, "geometry": {"type": "Point", "coordinates": [95.1766862, 27.2637364]}}, {"type": "Feature", "properties": {"osm_id": 12135426493, "name": "Bogaig\u0101on", "place": "village", "population": ""}, "geometry": {"type": "Point", "coordinates": [94.796417, 27.2281641]}}, {"type": "Feature", "properties": {"osm_id": 12135426494, "name": "Burhi Khow", "place": "village", "population": ""}, "geometry": {"type": "Point", "coordinates": [94.9251234, 27.2898193]}}, {"type": "Feature", "properties": {"osm_id": 12135426495, "name": "Khow\u0101ng", "place": "village", "population": ""}, "geometry": {"type": "Point", "coordinates": [94.8757096, 27.2754299]}}, {"type": "Feature", "properties": {"osm_id": 12135700060, "name": "K\u0101thani", "place": "hamlet", "population": ""}, "geometry": {"type": "Point", "coordinates": [93.9047169, 26.6819748]}}, {"type": "Feature", "properties": {"osm_id": 12135700061, "name": "Domgaon", "place": "hamlet", "population": ""}, "geometry": {"type": "Point", "coordinates": [93.9017987, 26.6799617]}}, {"type": "Feature", "properties": {"osm_id": 12135700070, "name": "Barua B\u0101mungaon", "place": "hamlet", "population": ""}, "geometry": {"type": "Point", "coordinates": [93.9890885, 26.6712568]}}, {"type": "Feature", "properties": {"osm_id": 12144809342, "name": "Santak", "place": "town", "population": ""}, "geometry": {"type": "Point", "coordinates": [94.8006928, 26.8632615]}}, {"type": "Feature", "properties": {"osm_id": 12144941896, "name": "Rajgarh Chariali", "place": "village", "population": ""}, "geometry": {"type": "Point", "coordinates": [94.7895329, 26.9247105]}}, {"type": "Feature", "properties": {"osm_id": 12144941897, "name": "Chengdharagaon", "place": "hamlet", "population": ""}, "geometry": {"type": "Point", "coordinates": [94.7804475, 26.8861532]}}, {"type": "Feature", "properties": {"osm_id": 12144952928, "name": "Gelakey Chariali", "place": "hamlet", "population": ""}, "geometry": {"type": "Point", "coordinates": [94.7013652, 26.8040299]}}, {"type": "Feature", "properties": {"osm_id": 12144953516, "name": "H\u0101lw\u0101ting", "place": "hamlet", "population": ""}, "geometry": {"type": "Point", "coordinates": [94.5667291, 26.7784206]}}, {"type": "Feature", "properties": {"osm_id": 12144953517, "name": "Deop\u0101ni", "place": "hamlet", "population": ""}, "geometry": {"type": "Point", "coordinates": [94.6466267, 26.7902299]}}, {"type": "Feature", "properties": {"osm_id": 12144953518, "name": "Deop\u0101ni", "place": "hamlet", "population": ""}, "geometry": {"type": "Point", "coordinates": [94.6456718, 26.8141896]}}, {"type": "Feature", "properties": {"osm_id": 12144953519, "name": "Deop\u0101ni", "place": "hamlet", "population": ""}, "geometry": {"type": "Point", "coordinates": [94.648118, 26.8071037]}}, {"type": "Feature", "properties": {"osm_id": 12144953520, "name": "Deop\u0101ni", "place": "hamlet", "population": ""}, "geometry": {"type": "Point", "coordinates": [94.649663, 26.7954207]}}, {"type": "Feature", "properties": {"osm_id": 12144953521, "name": "Athkhel", "place": "hamlet", "population": ""}, "geometry": {"type": "Point", "coordinates": [94.6848643, 26.7883336]}}, {"type": "Feature", "properties": {"osm_id": 12144953522, "name": "L\u0101hangaon", "place": "hamlet", "population": ""}, "geometry": {"type": "Point", "coordinates": [94.7302579, 26.8090955]}}, {"type": "Feature", "properties": {"osm_id": 12144953523, "name": "L\u0101hangaon", "place": "hamlet", "population": ""}, "geometry": {"type": "Point", "coordinates": [94.7423172, 26.7919347]}}, {"type": "Feature", "properties": {"osm_id": 12144953524, "name": "L\u0101hangaon", "place": "hamlet", "population": ""}, "geometry": {"type": "Point", "coordinates": [94.7361373, 26.7974126]}}, {"type": "Feature", "properties": {"osm_id": 12144953542, "name": "Nirmoliagaon", "place": "hamlet", "population": ""}, "geometry": {"type": "Point", "coordinates": [94.7640001, 26.8582462]}}, {"type": "Feature", "properties": {"osm_id": 12144953543, "name": "Garmur Silani", "place": "hamlet", "population": ""}, "geometry": {"type": "Point", "coordinates": [94.7975921, 26.8494209]}}, {"type": "Feature", "properties": {"osm_id": 12144953556, "name": "Mirigaon", "place": "hamlet", "population": ""}, "geometry": {"type": "Point", "coordinates": [94.7885155, 26.869272]}}, {"type": "Feature", "properties": {"osm_id": 12498253334, "name": "Lapa", "place": "village", "population": ""}, "geometry": {"type": "Point", "coordinates": [95.0313306, 26.8995778]}}, {"type": "Feature", "properties": {"osm_id": 12498253335, "name": "Lunglam", "place": "village", "population": ""}, "geometry": {"type": "Point", "coordinates": [94.9881577, 26.890507]}}, {"type": "Feature", "properties": {"osm_id": 12498305920, "name": "Namsa", "place": "town", "population": ""}, "geometry": {"type": "Point", "coordinates": [95.0567472, 26.9443184]}}, {"type": "Feature", "properties": {"osm_id": 12508542092, "name": "Amguri Bali", "place": "village", "population": ""}, "geometry": {"type": "Point", "coordinates": [94.7329012, 27.4549471]}}, {"type": "Feature", "properties": {"osm_id": 12541240037, "name": "Lirmen", "place": "village", "population": ""}, "geometry": {"type": "Point", "coordinates": [94.5088764, 26.6504819]}}, {"type": "Feature", "properties": {"osm_id": 12989376876, "name": "Tsudikong", "place": "town", "population": "4416"}, "geometry": {"type": "Point", "coordinates": [94.6449522, 26.6728846]}}, {"type": "Feature", "properties": {"osm_id": 13063074494, "name": "Hanhchara", "place": "village", "population": ""}, "geometry": {"type": "Point", "coordinates": [94.4769755, 26.8397327]}}, {"type": "Feature", "properties": {"osm_id": 13157898882, "name": "Bogoli", "place": "village", "population": ""}, "geometry": {"type": "Point", "coordinates": [93.7991049, 27.2113249]}}, {"type": "Feature", "properties": {"osm_id": 13157898883, "name": "Amba", "place": "village", "population": ""}, "geometry": {"type": "Point", "coordinates": [93.7678075, 27.1394772]}}, {"type": "Feature", "properties": {"osm_id": 13157898884, "name": "Doni Colony", "place": "village", "population": ""}, "geometry": {"type": "Point", "coordinates": [93.6068708, 27.0910778]}}, {"type": "Feature", "properties": {"osm_id": 13157935707, "name": "Hapoli", "place": "village", "population": ""}, "geometry": {"type": "Point", "coordinates": [93.8294275, 27.5747001]}}, {"type": "Feature", "properties": {"osm_id": 13157935708, "name": "Mudang Tage", "place": "village", "population": ""}, "geometry": {"type": "Point", "coordinates": [93.8345219, 27.6042343]}}, {"type": "Feature", "properties": {"osm_id": 13157935709, "name": "Tanyo", "place": "hamlet", "population": ""}, "geometry": {"type": "Point", "coordinates": [93.8163612, 27.6125221]}}, {"type": "Feature", "properties": {"osm_id": 13157935710, "name": "Silyo", "place": "hamlet", "population": ""}, "geometry": {"type": "Point", "coordinates": [93.8741001, 27.6562414]}}, {"type": "Feature", "properties": {"osm_id": 13157935711, "name": "\u6770\u7279", "place": "hamlet", "population": ""}, "geometry": {"type": "Point", "coordinates": [93.754559, 27.4442477]}}, {"type": "Feature", "properties": {"osm_id": 13157935712, "name": "\u5217\u8863", "place": "hamlet", "population": ""}, "geometry": {"type": "Point", "coordinates": [93.8011372, 27.4570531]}}, {"type": "Feature", "properties": {"osm_id": 13157935713, "name": "Peni", "place": "village", "population": ""}, "geometry": {"type": "Point", "coordinates": [93.7600658, 27.3942869]}}, {"type": "Feature", "properties": {"osm_id": 13157935714, "name": "Toru", "place": "village", "population": ""}, "geometry": {"type": "Point", "coordinates": [93.7671618, 27.371134]}}, {"type": "Feature", "properties": {"osm_id": 13157935715, "name": "\u82cf", "place": "village", "population": ""}, "geometry": {"type": "Point", "coordinates": [93.7728283, 27.3624737]}}, {"type": "Feature", "properties": {"osm_id": 13157935716, "name": "Chod", "place": "hamlet", "population": ""}, "geometry": {"type": "Point", "coordinates": [93.7761106, 27.3455887]}}, {"type": "Feature", "properties": {"osm_id": 13157935717, "name": "Pania", "place": "village", "population": ""}, "geometry": {"type": "Point", "coordinates": [93.6960068, 27.700754]}}, {"type": "Feature", "properties": {"osm_id": 13157935718, "name": "Rukpu", "place": "village", "population": ""}, "geometry": {"type": "Point", "coordinates": [93.639813, 27.7338031]}}, {"type": "Feature", "properties": {"osm_id": 13158133680, "name": "Rilo", "place": "village", "population": ""}, "geometry": {"type": "Point", "coordinates": [94.7681303, 27.7528093]}}, {"type": "Feature", "properties": {"osm_id": 13158133681, "name": "Karlo", "place": "village", "population": ""}, "geometry": {"type": "Point", "coordinates": [94.7208147, 27.8199412]}}, {"type": "Feature", "properties": {"osm_id": 13158133682, "name": "Deni", "place": "village", "population": ""}, "geometry": {"type": "Point", "coordinates": [94.6756919, 27.8357045]}}, {"type": "Feature", "properties": {"osm_id": 13158133683, "name": "Taipudia", "place": "village", "population": ""}, "geometry": {"type": "Point", "coordinates": [94.5688794, 27.8166593]}}, {"type": "Feature", "properties": {"osm_id": 13158133684, "name": "\u9a6c\u5c3c\u5730\u5170\u59c6", "place": "village", "population": ""}, "geometry": {"type": "Point", "coordinates": [94.4729813, 27.7948891]}}, {"type": "Feature", "properties": {"osm_id": 13158133686, "name": "\u679c\u67e5\u59c6", "place": "village", "population": ""}, "geometry": {"type": "Point", "coordinates": [94.191132, 27.7680667]}}, {"type": "Feature", "properties": {"osm_id": 13158133687, "name": "\u6bd4\u5c3c", "place": "village", "population": ""}, "geometry": {"type": "Point", "coordinates": [94.1430342, 27.6769827]}}, {"type": "Feature", "properties": {"osm_id": 13158133688, "name": "\u5df4\u62c9", "place": "village", "population": ""}, "geometry": {"type": "Point", "coordinates": [94.136602, 27.6607222]}}, {"type": "Feature", "properties": {"osm_id": 13158133689, "name": "Kemlice", "place": "village", "population": ""}, "geometry": {"type": "Point", "coordinates": [94.1549476, 27.7988008]}}, {"type": "Feature", "properties": {"osm_id": 13158133690, "name": "Dek Godak", "place": "village", "population": ""}, "geometry": {"type": "Point", "coordinates": [94.2152818, 27.844225]}}, {"type": "Feature", "properties": {"osm_id": 13158136113, "name": "\u79d1\u7eb3", "place": "hamlet", "population": ""}, "geometry": {"type": "Point", "coordinates": [94.8016783, 27.8337206]}}, {"type": "Feature", "properties": {"osm_id": 13158136127, "name": "Siji", "place": "village", "population": ""}, "geometry": {"type": "Point", "coordinates": [94.713705, 27.7307581]}}, {"type": "Feature", "properties": {"osm_id": 13158160741, "name": "\u76ae\u8863\u6728\u514b", "place": "village", "population": ""}, "geometry": {"type": "Point", "coordinates": [94.0085319, 27.7577255]}}, {"type": "Feature", "properties": {"osm_id": 13158160742, "name": "\u5954\u65af", "place": "village", "population": ""}, "geometry": {"type": "Point", "coordinates": [93.9910861, 27.7320287]}}, {"type": "Feature", "properties": {"osm_id": 13158160743, "name": "Lapte", "place": "village", "population": ""}, "geometry": {"type": "Point", "coordinates": [93.9195331, 27.7871298]}}, {"type": "Feature", "properties": {"osm_id": 13158160744, "name": "\u5bbe\u90fd\u62c9", "place": "village", "population": ""}, "geometry": {"type": "Point", "coordinates": [93.9013129, 27.8136981]}}, {"type": "Feature", "properties": {"osm_id": 13162132761, "name": "Raka", "place": "village", "population": ""}, "geometry": {"type": "Point", "coordinates": [93.8763937, 27.692226]}}, {"type": "Feature", "properties": {"osm_id": 13162132762, "name": "Tado", "place": "hamlet", "population": ""}, "geometry": {"type": "Point", "coordinates": [93.8848363, 27.7160222]}}, {"type": "Feature", "properties": {"osm_id": 13162132763, "name": "\u6602\u5409", "place": "hamlet", "population": ""}, "geometry": {"type": "Point", "coordinates": [93.8868377, 27.7740474]}}, {"type": "Feature", "properties": {"osm_id": 13162132764, "name": "\u5854\u6797", "place": "hamlet", "population": ""}, "geometry": {"type": "Point", "coordinates": [93.8734735, 27.8406274]}}, {"type": "Feature", "properties": {"osm_id": 13162275142, "name": "\u5c3c\u675c\u514b", "place": "village", "population": ""}, "geometry": {"type": "Point", "coordinates": [94.0831753, 27.8026734]}}, {"type": "Feature", "properties": {"osm_id": 13162275143, "name": "Boa", "place": "village", "population": ""}, "geometry": {"type": "Point", "coordinates": [93.973121, 27.6841327]}}, {"type": "Feature", "properties": {"osm_id": 13243377861, "name": "\u5df4\u5854\u5c14", "place": "hamlet", "population": ""}, "geometry": {"type": "Point", "coordinates": [93.6745322, 27.7219619]}}, {"type": "Feature", "properties": {"osm_id": 13243377862, "name": "\u6258\u5e93", "place": "village", "population": ""}, "geometry": {"type": "Point", "coordinates": [93.753123, 27.5380529]}}, {"type": "Feature", "properties": {"osm_id": 13243377863, "name": "Hari Lemba", "place": "village", "population": ""}, "geometry": {"type": "Point", "coordinates": [93.8433946, 27.5832779]}}, {"type": "Feature", "properties": {"osm_id": 13243377864, "name": "\u54c8\u5947", "place": "hamlet", "population": ""}, "geometry": {"type": "Point", "coordinates": [94.0094288, 27.7604584]}}, {"type": "Feature", "properties": {"osm_id": 13243377865, "name": "\u5e15\u5c14", "place": "village", "population": ""}, "geometry": {"type": "Point", "coordinates": [93.9619643, 27.8282873]}}, {"type": "Feature", "properties": {"osm_id": 13290022324, "name": "\u8fea\u5e03", "place": "hamlet", "population": ""}, "geometry": {"type": "Point", "coordinates": [93.6678593, 27.1582041]}}, {"type": "Feature", "properties": {"osm_id": 13290022325, "name": "\u66f2\u6c49", "place": "hamlet", "population": ""}, "geometry": {"type": "Point", "coordinates": [93.6509357, 27.4376055]}}, {"type": "Feature", "properties": {"osm_id": 13290022326, "name": "\u5854\u660e", "place": "hamlet", "population": ""}, "geometry": {"type": "Point", "coordinates": [93.693659, 27.3132208]}}, {"type": "Feature", "properties": {"osm_id": 13290022327, "name": "Yachuli", "place": "town", "population": ""}, "geometry": {"type": "Point", "coordinates": [93.7686146, 27.4640703]}}, {"type": "Feature", "properties": {"osm_id": 13303052230, "name": "Nakapur", "place": "village", "population": ""}, "geometry": {"type": "Point", "coordinates": [95.186892, 27.5494505]}}, {"type": "Feature", "properties": {"osm_id": 13542949718, "name": "Runu", "place": "village", "population": ""}, "geometry": {"type": "Point", "coordinates": [95.2280434, 26.9494481]}}, {"type": "Feature", "properties": {"osm_id": 13556093698, "name": "Ranglua Russa", "place": "village", "population": ""}, "geometry": {"type": "Point", "coordinates": [95.2781609, 27.0527386]}}, {"type": "Feature", "properties": {"osm_id": 13592126519, "name": "Kongan", "place": "village", "population": ""}, "geometry": {"type": "Point", "coordinates": [94.8347044, 26.7495104]}}, {"type": "Feature", "properties": {"osm_id": 13592325196, "name": "Shemnyuching", "place": "village", "population": ""}, "geometry": {"type": "Point", "coordinates": [94.7601238, 26.7408015]}}, {"type": "Feature", "properties": {"osm_id": 13592354691, "name": "Yonglok", "place": "village", "population": ""}, "geometry": {"type": "Point", "coordinates": [94.7421495, 26.7691662]}}, {"type": "Feature", "properties": {"osm_id": 13592427510, "name": "Anaki Phom", "place": "village", "population": ""}, "geometry": {"type": "Point", "coordinates": [94.7310048, 26.7244331]}}, {"type": "Feature", "properties": {"osm_id": 13610046540, "name": "", "place": "village", "population": ""}, "geometry": {"type": "Point", "coordinates": [95.2961355, 27.1192581]}}, {"type": "Feature", "properties": {"osm_id": 13891699802, "name": "Hija", "place": "village", "population": ""}, "geometry": {"type": "Point", "coordinates": [93.8418776, 27.6205609]}}, {"type": "Feature", "properties": {"osm_id": 13891699803, "name": "Hong", "place": "village", "population": ""}, "geometry": {"type": "Point", "coordinates": [93.8392773, 27.5223317]}}, {"type": "Feature", "properties": {"osm_id": 13891699804, "name": "Tachar", "place": "village", "population": ""}, "geometry": {"type": "Point", "coordinates": [93.829135, 27.5700723]}}, {"type": "Feature", "properties": {"osm_id": 13891699805, "name": "Bree", "place": "village", "population": ""}, "geometry": {"type": "Point", "coordinates": [93.847484, 27.5582425]}}, {"type": "Feature", "properties": {"osm_id": 13891699806, "name": "Bolya", "place": "hamlet", "population": ""}, "geometry": {"type": "Point", "coordinates": [93.8544341, 27.5362347]}}, {"type": "Feature", "properties": {"osm_id": 14006950217, "name": "Hangu", "place": "village", "population": ""}, "geometry": {"type": "Point", "coordinates": [93.8469616, 27.5582878]}}]}