{"type": "FeatureCollection", "features": [{"id": "0", "type": "Feature", "properties": {"name": "Brahmaputra (North Channel)", "waterway": "river"}, "geometry": {"type": "LineString", "coordinates": [[95.3, 27.6], [95.1, 27.55], [94.9, 27.45], [94.7, 27.35], [94.5, 27.2], [94.35, 27.1], [94.3, 27.05], [94.25, 27.0], [94.15, 26.98], [94.05, 26.97], [93.95, 26.95], [93.85, 26.92], [93.7, 26.88], [93.6, 26.85]]}}, {"id": "1", "type": "Feature", "properties": {"name": "Brahmaputra (South Channel)", "waterway": "river"}, "geometry": {"type": "LineString", "coordinates": [[94.4, 27.0], [94.35, 26.93], [94.3, 26.88], [94.25, 26.85], [94.15, 26.83], [94.05, 26.82], [93.95, 26.84], [93.85, 26.85], [93.7, 26.85], [93.6, 26.85]]}}, {"id": "2", "type": "Feature", "properties": {"name": "Subansiri River", "waterway": "river"}, "geometry": {"type": "LineString", "coordinates": [[94.2, 27.85], [94.18, 27.7], [94.15, 27.55], [94.12, 27.4], [94.1, 27.3], [94.08, 27.2], [94.05, 27.1], [94.0, 27.0]]}}, {"id": "3", "type": "Feature", "properties": {"name": "Jiadhal River", "waterway": "river"}, "geometry": {"type": "LineString", "coordinates": [[94.8, 27.75], [94.75, 27.65], [94.7, 27.55], [94.65, 27.48], [94.6, 27.42], [94.55, 27.35]]}}, {"id": "4", "type": "Feature", "properties": {"name": "Ranganadi River", "waterway": "river"}, "geometry": {"type": "LineString", "coordinates": [[94.3, 27.6], [94.28, 27.5], [94.25, 27.4], [94.2, 27.3], [94.15, 27.25], [94.1, 27.2]]}}, {"id": "5", "type": "Feature", "properties": {"name": "Dikrong River", "waterway": "river"}, "geometry": {"type": "LineString", "coordinates": [[94.0, 27.5], [93.98, 27.4], [93.95, 27.3], [93.92, 27.25], [93.9, 27.2], [93.88, 27.1]]}}]}