{"type": "FeatureCollection", "features": [{"id": "0", "type": "Feature", "properties": {"road_type": "primary", "name": "NH-15", "speed_kmh": 50, "length_m": 11319.8, "travel_time_min": 13.58, "osm_id": 108301}, "geometry": {"type": "LineString", "coordinates": [[93.9, 27.2], [94.0, 27.22]]}}, {"id": "1", "type": "Feature", "properties": {"road_type": "primary", "name": "NH-15", "speed_kmh": 50, "length_m": 11319.8, "travel_time_min": 13.58, "osm_id": 116353}, "geometry": {"type": "LineString", "coordinates": [[94.0, 27.22], [94.1, 27.24]]}}, {"id": "2", "type": "Feature", "properties": {"road_type": "primary", "name": "NH-15", "speed_kmh": 50, "length_m": 11955.1, "travel_time_min": 14.35, "osm_id": 523190}, "geometry": {"type": "LineString", "coordinates": [[94.1, 27.24], [94.2, 27.28]]}}, {"id": "3", "type": "Feature", "properties": {"road_type": "primary", "name": "NH-15", "speed_kmh": 50, "length_m": 11955.1, "travel_time_min": 14.35, "osm_id": 587506}, "geometry": {"type": "LineString", "coordinates": [[94.2, 27.28], [94.3, 27.32]]}}, {"id": "4", "type": "Feature", "properties": {"road_type": "primary", "name": "NH-15", "speed_kmh": 50, "length_m": 12944.7, "travel_time_min": 15.53, "osm_id": 119680}, "geometry": {"type": "LineString", "coordinates": [[94.3, 27.32], [94.4, 27.38]]}}, {"id": "5", "type": "Feature", "properties": {"road_type": "primary", "name": "NH-15", "speed_kmh": 50, "length_m": 11955.1, "travel_time_min": 14.35, "osm_id": 39216}, "geometry": {"type": "LineString", "coordinates": [[94.4, 27.38], [94.5, 27.42]]}}, {"id": "6", "type": "Feature", "properties": {"road_type": "primary", "name": "NH-15", "speed_kmh": 50, "length_m": 11100.0, "travel_time_min": 13.32, "osm_id": 802794}, "geometry": {"type": "LineString", "coordinates": [[94.5, 27.42], [94.58, 27.48]]}}, {"id": "7", "type": "Feature", "properties": {"road_type": "primary", "name": "NH-15", "speed_kmh": 50, "length_m": 8949.1, "travel_time_min": 10.74, "osm_id": 789848}, "geometry": {"type": "LineString", "coordinates": [[94.58, 27.48], [94.65, 27.52]]}}, {"id": "8", "type": "Feature", "properties": {"road_type": "primary", "name": "NH-15", "speed_kmh": 50, "length_m": 10988.4, "travel_time_min": 13.19, "osm_id": 359579}, "geometry": {"type": "LineString", "coordinates": [[94.65, 27.52], [94.72, 27.59]]}}, {"id": "9", "type": "Feature", "properties": {"road_type": "primary", "name": "NH-15", "speed_kmh": 50, "length_m": 9928.1, "travel_time_min": 11.91, "osm_id": 616642}, "geometry": {"type": "LineString", "coordinates": [[94.72, 27.59], [94.8, 27.63]]}}, {"id": "10", "type": "Feature", "properties": {"road_type": "primary", "name": "NH-15", "speed_kmh": 50, "length_m": 12410.2, "travel_time_min": 14.89, "osm_id": 128797}, "geometry": {"type": "LineString", "coordinates": [[94.8, 27.63], [94.9, 27.68]]}}, {"id": "11", "type": "Feature", "properties": {"road_type": "primary", "name": "NH-15", "speed_kmh": 50, "length_m": 11955.1, "travel_time_min": 14.35, "osm_id": 695584}, "geometry": {"type": "LineString", "coordinates": [[94.9, 27.68], [95.0, 27.72]]}}, {"id": "12", "type": "Feature", "properties": {"road_type": "primary", "name": "NH-15", "speed_kmh": 50, "length_m": 12944.7, "travel_time_min": 15.53, "osm_id": 482918}, "geometry": {"type": "LineString", "coordinates": [[95.0, 27.72], [95.1, 27.78]]}}, {"id": "13", "type": "Feature", "properties": {"road_type": "primary", "name": "NH-15", "speed_kmh": 50, "length_m": 14430.0, "travel_time_min": 17.32, "osm_id": 486401}, "geometry": {"type": "LineString", "coordinates": [[95.1, 27.78], [95.22, 27.83]]}}, {"id": "14", "type": "Feature", "properties": {"road_type": "secondary", "name": "SH Lakhimpur-Dhakuakhana", "speed_kmh": 40, "length_m": 4964.1, "travel_time_min": 7.45, "osm_id": 627083}, "geometry": {"type": "LineString", "coordinates": [[94.1, 27.24], [94.12, 27.2]]}}, {"id": "15", "type": "Feature", "properties": {"road_type": "secondary", "name": "SH Lakhimpur-Dhakuakhana", "speed_kmh": 40, "length_m": 5977.5, "travel_time_min": 8.97, "osm_id": 420823}, "geometry": {"type": "LineString", "coordinates": [[94.12, 27.2], [94.14, 27.15]]}}, {"id": "16", "type": "Feature", "properties": {"road_type": "secondary", "name": "SH Lakhimpur-Dhakuakhana", "speed_kmh": 40, "length_m": 5977.5, "travel_time_min": 8.97, "osm_id": 637138}, "geometry": {"type": "LineString", "coordinates": [[94.14, 27.15], [94.16, 27.1]]}}, {"id": "17", "type": "Feature", "properties": {"road_type": "secondary", "name": "SH Lakhimpur-Dhakuakhana", "speed_kmh": 40, "length_m": 3510.1, "travel_time_min": 5.27, "osm_id": 848756}, "geometry": {"type": "LineString", "coordinates": [[94.16, 27.1], [94.17, 27.07]]}}, {"id": "18", "type": "Feature", "properties": {"road_type": "secondary", "name": "Gogamukh Road", "speed_kmh": 40, "length_m": 4002.2, "travel_time_min": 6.0, "osm_id": 89554}, "geometry": {"type": "LineString", "coordinates": [[94.5, 27.42], [94.47, 27.4]]}}, {"id": "19", "type": "Feature", "properties": {"road_type": "secondary", "name": "Gogamukh Road", "speed_kmh": 40, "length_m": 3510.1, "travel_time_min": 5.27, "osm_id": 539525}, "geometry": {"type": "LineString", "coordinates": [[94.47, 27.4], [94.44, 27.39]]}}, {"id": "20", "type": "Feature", "properties": {"road_type": "secondary", "name": "Gogamukh Road", "speed_kmh": 40, "length_m": 1569.8, "travel_time_min": 2.35, "osm_id": 278705}, "geometry": {"type": "LineString", "coordinates": [[94.44, 27.39], [94.43, 27.38]]}}, {"id": "21", "type": "Feature", "properties": {"road_type": "tertiary", "name": "Majuli Island Road", "speed_kmh": 30, "length_m": 5977.5, "travel_time_min": 11.96, "osm_id": 186727}, "geometry": {"type": "LineString", "coordinates": [[94.12, 26.93], [94.17, 26.95]]}}, {"id": "22", "type": "Feature", "properties": {"road_type": "tertiary", "name": "Majuli Island Road", "speed_kmh": 30, "length_m": 5977.5, "travel_time_min": 11.96, "osm_id": 298573}, "geometry": {"type": "LineString", "coordinates": [[94.17, 26.95], [94.22, 26.93]]}}, {"id": "23", "type": "Feature", "properties": {"road_type": "tertiary", "name": "Majuli Island Road", "speed_kmh": 30, "length_m": 6751.9, "travel_time_min": 13.5, "osm_id": 982222}, "geometry": {"type": "LineString", "coordinates": [[94.22, 26.93], [94.28, 26.92]]}}, {"id": "24", "type": "Feature", "properties": {"road_type": "tertiary", "name": "Majuli Island Road", "speed_kmh": 30, "length_m": 7020.3, "travel_time_min": 14.04, "osm_id": 263058}, "geometry": {"type": "LineString", "coordinates": [[94.28, 26.92], [94.3, 26.98]]}}, {"id": "25", "type": "Feature", "properties": {"road_type": "residential", "name": "Garamur-Auniati Rd", "speed_kmh": 20, "length_m": 3510.1, "travel_time_min": 10.53, "osm_id": 196515}, "geometry": {"type": "LineString", "coordinates": [[94.17, 26.95], [94.2, 26.96]]}}, {"id": "26", "type": "Feature", "properties": {"road_type": "residential", "name": "Auniati-Rawnapar Rd", "speed_kmh": 20, "length_m": 5659.9, "travel_time_min": 16.98, "osm_id": 949727}, "geometry": {"type": "LineString", "coordinates": [[94.2, 26.96], [94.25, 26.97]]}}, {"id": "27", "type": "Feature", "properties": {"road_type": "residential", "name": "Garamur-Bengenaati Rd", "speed_kmh": 20, "length_m": 4964.1, "travel_time_min": 14.89, "osm_id": 33700}, "geometry": {"type": "LineString", "coordinates": [[94.17, 26.95], [94.15, 26.91]]}}, {"id": "28", "type": "Feature", "properties": {"road_type": "residential", "name": "Kamalabari-Ahatguri Rd", "speed_kmh": 20, "length_m": 4002.2, "travel_time_min": 12.01, "osm_id": 285142}, "geometry": {"type": "LineString", "coordinates": [[94.22, 26.93], [94.25, 26.95]]}}, {"id": "29", "type": "Feature", "properties": {"road_type": "residential", "name": "Jengraimukh Link", "speed_kmh": 20, "length_m": 6472.4, "travel_time_min": 19.42, "osm_id": 425629}, "geometry": {"type": "LineString", "coordinates": [[94.25, 26.95], [94.3, 26.98]]}}, {"id": "30", "type": "Feature", "properties": {"road_type": "residential", "name": "Dakhinpat Road", "speed_kmh": 20, "length_m": 2482.0, "travel_time_min": 7.45, "osm_id": 95034}, "geometry": {"type": "LineString", "coordinates": [[94.28, 26.92], [94.3, 26.93]]}}, {"id": "31", "type": "Feature", "properties": {"road_type": "residential", "name": "Salmora Road", "speed_kmh": 20, "length_m": 4440.0, "travel_time_min": 13.32, "osm_id": 449585}, "geometry": {"type": "LineString", "coordinates": [[94.22, 26.93], [94.22, 26.89]]}}, {"id": "32", "type": "Feature", "properties": {"road_type": "residential", "name": "Borguri Link", "speed_kmh": 20, "length_m": 3330.0, "travel_time_min": 9.99, "osm_id": 440838}, "geometry": {"type": "LineString", "coordinates": [[94.17, 26.95], [94.17, 26.98]]}}, {"id": "33", "type": "Feature", "properties": {"road_type": "secondary", "name": "Bihpuria Road", "speed_kmh": 40, "length_m": 5550.0, "travel_time_min": 8.33, "osm_id": 358544}, "geometry": {"type": "LineString", "coordinates": [[93.91, 27.02], [93.95, 27.05]]}}, {"id": "34", "type": "Feature", "properties": {"road_type": "secondary", "name": "Bihpuria Road", "speed_kmh": 40, "length_m": 7848.9, "travel_time_min": 11.77, "osm_id": 189261}, "geometry": {"type": "LineString", "coordinates": [[93.95, 27.05], [94.0, 27.1]]}}, {"id": "35", "type": "Feature", "properties": {"road_type": "secondary", "name": "Bihpuria Road", "speed_kmh": 40, "length_m": 7848.9, "travel_time_min": 11.77, "osm_id": 167950}, "geometry": {"type": "LineString", "coordinates": [[94.0, 27.1], [94.05, 27.15]]}}, {"id": "36", "type": "Feature", "properties": {"road_type": "secondary", "name": "Bihpuria-Lakhimpur", "speed_kmh": 40, "length_m": 5550.0, "travel_time_min": 8.33, "osm_id": 115655}, "geometry": {"type": "LineString", "coordinates": [[94.05, 27.15], [94.05, 27.2]]}}, {"id": "37", "type": "Feature", "properties": {"road_type": "residential", "name": "Dhemaji Link Road", "speed_kmh": 20, "length_m": 2111.3, "travel_time_min": 6.33, "osm_id": 160316}, "geometry": {"type": "LineString", "coordinates": [[94.5833, 27.4833], [94.58634717079754, 27.50207515893759]]}}, {"id": "38", "type": "Feature", "properties": {"road_type": "residential", "name": "Dhemaji Link Road", "speed_kmh": 20, "length_m": 4405.8, "travel_time_min": 13.22, "osm_id": 667774}, "geometry": {"type": "LineString", "coordinates": [[94.58634717079754, 27.50207515893759], [94.5833, 27.541649999999994]]}}, {"id": "39", "type": "Feature", "properties": {"road_type": "residential", "name": "Gogamukh Link Road", "speed_kmh": 20, "length_m": 5821.4, "travel_time_min": 17.46, "osm_id": 588187}, "geometry": {"type": "LineString", "coordinates": [[94.43, 27.38], [94.43750451195807, 27.431905647163912]]}}, {"id": "40", "type": "Feature", "properties": {"road_type": "residential", "name": "Gogamukh Link Road", "speed_kmh": 20, "length_m": 3766.7, "travel_time_min": 11.3, "osm_id": 970977}, "geometry": {"type": "LineString", "coordinates": [[94.43750451195807, 27.431905647163912], [94.43, 27.465]]}}, {"id": "41", "type": "Feature", "properties": {"road_type": "residential", "name": "Sissiborgaon Link Road", "speed_kmh": 20, "length_m": 2300.0, "travel_time_min": 6.9, "osm_id": 656988}, "geometry": {"type": "LineString", "coordinates": [[94.68, 27.55], [94.66048964811347, 27.556978204931376]]}}, {"id": "42", "type": "Feature", "properties": {"road_type": "residential", "name": "Sissiborgaon Link Road", "speed_kmh": 20, "length_m": 4257.4, "travel_time_min": 12.77, "osm_id": 554749}, "geometry": {"type": "LineString", "coordinates": [[94.66048964811347, 27.556978204931376], [94.68, 27.59]]}}, {"id": "43", "type": "Feature", "properties": {"road_type": "residential", "name": "Machkhowa Link Road", "speed_kmh": 20, "length_m": 4091.4, "travel_time_min": 12.27, "osm_id": 505507}, "geometry": {"type": "LineString", "coordinates": [[94.5, 27.42], [94.50127840403167, 27.456837574076566]]}}, {"id": "44", "type": "Feature", "properties": {"road_type": "residential", "name": "Machkhowa Link Road", "speed_kmh": 20, "length_m": 4793.1, "travel_time_min": 14.38, "osm_id": 1604}, "geometry": {"type": "LineString", "coordinates": [[94.50127840403167, 27.456837574076566], [94.5, 27.499999999999996]]}}, {"id": "45", "type": "Feature", "properties": {"road_type": "residential", "name": "Bordoloni Link Road", "speed_kmh": 20, "length_m": 1273.3, "travel_time_min": 3.82, "osm_id": 318567}, "geometry": {"type": "LineString", "coordinates": [[94.62, 27.52], [94.61983198842496, 27.531469560724265]]}}, {"id": "46", "type": "Feature", "properties": {"road_type": "residential", "name": "Bordoloni Link Road", "speed_kmh": 20, "length_m": 3166.9, "travel_time_min": 9.5, "osm_id": 611943}, "geometry": {"type": "LineString", "coordinates": [[94.61983198842496, 27.531469560724265], [94.62, 27.56]]}}, {"id": "47", "type": "Feature", "properties": {"road_type": "residential", "name": "Telam Link Road", "speed_kmh": 20, "length_m": 5119.8, "travel_time_min": 15.36, "osm_id": 471987}, "geometry": {"type": "LineString", "coordinates": [[95.05, 27.7], [95.05879397974863, 27.745277919354287]]}}, {"id": "48", "type": "Feature", "properties": {"road_type": "residential", "name": "Telam Link Road", "speed_kmh": 20, "length_m": 3440.5, "travel_time_min": 10.32, "osm_id": 832457}, "geometry": {"type": "LineString", "coordinates": [[95.05879397974863, 27.745277919354287], [95.05, 27.774999999999995]]}}, {"id": "49", "type": "Feature", "properties": {"road_type": "residential", "name": "Murkongselek Link Road", "speed_kmh": 20, "length_m": 8466.6, "travel_time_min": 25.4, "osm_id": 654871}, "geometry": {"type": "LineString", "coordinates": [[95.02, 27.63], [95.02066030697561, 27.706272412069676]]}}, {"id": "50", "type": "Feature", "properties": {"road_type": "residential", "name": "Murkongselek Link Road", "speed_kmh": 20, "length_m": 5964.2, "travel_time_min": 17.89, "osm_id": 311511}, "geometry": {"type": "LineString", "coordinates": [[95.02066030697561, 27.706272412069676], [95.02, 27.759999999999994]]}}, {"id": "51", "type": "Feature", "properties": {"road_type": "residential", "name": "Kulajan Link Road", "speed_kmh": 20, "length_m": 2703.9, "travel_time_min": 8.11, "osm_id": 228341}, "geometry": {"type": "LineString", "coordinates": [[94.55, 27.46], [94.55467509342252, 27.483907075371167]]}}, {"id": "52", "type": "Feature", "properties": {"road_type": "residential", "name": "Kulajan Link Road", "speed_kmh": 20, "length_m": 4590.7, "travel_time_min": 13.77, "osm_id": 79611}, "geometry": {"type": "LineString", "coordinates": [[94.55467509342252, 27.483907075371167], [94.55, 27.524999999999995]]}}, {"id": "53", "type": "Feature", "properties": {"road_type": "residential", "name": "Jiadhal Nalkata Link Road", "speed_kmh": 20, "length_m": 5333.9, "travel_time_min": 16.0, "osm_id": 700937}, "geometry": {"type": "LineString", "coordinates": [[94.75, 27.51], [94.75368750784082, 27.55791117399171]]}}, {"id": "54", "type": "Feature", "properties": {"road_type": "residential", "name": "Jiadhal Nalkata Link Road", "speed_kmh": 20, "length_m": 7458.1, "travel_time_min": 22.37, "osm_id": 88402}, "geometry": {"type": "LineString", "coordinates": [[94.75368750784082, 27.55791117399171], [94.75, 27.624999999999996]]}}, {"id": "55", "type": "Feature", "properties": {"road_type": "residential", "name": "Auni-ati Chapori Link Road", "speed_kmh": 20, "length_m": 2889.1, "travel_time_min": 8.67, "osm_id": 614041}, "geometry": {"type": "LineString", "coordinates": [[94.48, 27.44], [94.48878450301308, 27.464500740890138]]}}, {"id": "56", "type": "Feature", "properties": {"road_type": "residential", "name": "Auni-ati Chapori Link Road", "speed_kmh": 20, "length_m": 2993.7, "travel_time_min": 8.98, "osm_id": 504745}, "geometry": {"type": "LineString", "coordinates": [[94.48878450301308, 27.464500740890138], [94.48, 27.49]]}}, {"id": "57", "type": "Feature", "properties": {"road_type": "residential", "name": "Joypur Link Road", "speed_kmh": 20, "length_m": 3689.9, "travel_time_min": 11.07, "osm_id": 385307}, "geometry": {"type": "LineString", "coordinates": [[94.6, 27.47], [94.59815137636454, 27.50319070455596]]}}, {"id": "58", "type": "Feature", "properties": {"road_type": "residential", "name": "Joypur Link Road", "speed_kmh": 20, "length_m": 5199.9, "travel_time_min": 15.6, "osm_id": 307227}, "geometry": {"type": "LineString", "coordinates": [[94.59815137636454, 27.50319070455596], [94.6, 27.549999999999994]]}}, {"id": "59", "type": "Feature", "properties": {"road_type": "residential", "name": "North Lakhimpur Link Road", "speed_kmh": 20, "length_m": 3797.7, "travel_time_min": 11.39, "osm_id": 855634}, "geometry": {"type": "LineString", "coordinates": [[94.1056, 27.2358], [94.11782541338674, 27.26775470517931]]}}, {"id": "60", "type": "Feature", "properties": {"road_type": "residential", "name": "North Lakhimpur Link Road", "speed_kmh": 20, "length_m": 4119.9, "travel_time_min": 12.36, "osm_id": 658160}, "geometry": {"type": "LineString", "coordinates": [[94.11782541338674, 27.26775470517931], [94.1056, 27.302799999999994]]}}, {"id": "61", "type": "Feature", "properties": {"road_type": "residential", "name": "Dhakuakhana Link Road", "speed_kmh": 20, "length_m": 14324.5, "travel_time_min": 42.97, "osm_id": 401866}, "geometry": {"type": "LineString", "coordinates": [[94.17, 27.07], [94.16571672177837, 27.19897866449512]]}}, {"id": "62", "type": "Feature", "properties": {"road_type": "residential", "name": "Dhakuakhana Link Road", "speed_kmh": 20, "length_m": 15105.9, "travel_time_min": 45.32, "osm_id": 282712}, "geometry": {"type": "LineString", "coordinates": [[94.16571672177837, 27.19897866449512], [94.17, 27.334999999999997]]}}, {"id": "63", "type": "Feature", "properties": {"road_type": "residential", "name": "Narayanpur Link Road", "speed_kmh": 20, "length_m": 4606.2, "travel_time_min": 13.82, "osm_id": 319497}, "geometry": {"type": "LineString", "coordinates": [[94.05, 27.2], [94.05532309185553, 27.241154440643637]]}}, {"id": "64", "type": "Feature", "properties": {"road_type": "residential", "name": "Narayanpur Link Road", "speed_kmh": 20, "length_m": 3803.0, "travel_time_min": 11.41, "osm_id": 73914}, "geometry": {"type": "LineString", "coordinates": [[94.05532309185553, 27.241154440643637], [94.05, 27.274999999999995]]}}, {"id": "65", "type": "Feature", "properties": {"road_type": "residential", "name": "Bihpuria Link Road", "speed_kmh": 20, "length_m": 10755.5, "travel_time_min": 32.27, "osm_id": 584328}, "geometry": {"type": "LineString", "coordinates": [[93.91, 27.02], [93.91412732611596, 27.116808210030076]]}}, {"id": "66", "type": "Feature", "properties": {"road_type": "residential", "name": "Bihpuria Link Road", "speed_kmh": 20, "length_m": 9800.0, "travel_time_min": 29.4, "osm_id": 892355}, "geometry": {"type": "LineString", "coordinates": [[93.91412732611596, 27.116808210030076], [93.91, 27.204999999999995]]}}, {"id": "67", "type": "Feature", "properties": {"road_type": "residential", "name": "Bandarmari Link Road", "speed_kmh": 20, "length_m": 7695.3, "travel_time_min": 23.09, "osm_id": 463967}, "geometry": {"type": "LineString", "coordinates": [[94.08, 27.15], [94.10141647600871, 27.215935849836153]]}}, {"id": "68", "type": "Feature", "properties": {"road_type": "residential", "name": "Bandarmari Link Road", "speed_kmh": 20, "length_m": 8557.9, "travel_time_min": 25.67, "osm_id": 485512}, "geometry": {"type": "LineString", "coordinates": [[94.10141647600871, 27.215935849836153], [94.08, 27.289999999999996]]}}, {"id": "69", "type": "Feature", "properties": {"road_type": "residential", "name": "Ghunasuti Link Road", "speed_kmh": 20, "length_m": 7166.8, "travel_time_min": 21.5, "osm_id": 660506}, "geometry": {"type": "LineString", "coordinates": [[94.15, 27.18], [94.14487757270929, 27.24436227271752]]}}, {"id": "70", "type": "Feature", "properties": {"road_type": "residential", "name": "Ghunasuti Link Road", "speed_kmh": 20, "length_m": 8968.8, "travel_time_min": 26.91, "osm_id": 301917}, "geometry": {"type": "LineString", "coordinates": [[94.14487757270929, 27.24436227271752], [94.15, 27.325]]}}, {"id": "71", "type": "Feature", "properties": {"road_type": "residential", "name": "Kadam Link Road", "speed_kmh": 20, "length_m": 13480.5, "travel_time_min": 40.44, "osm_id": 460744}, "geometry": {"type": "LineString", "coordinates": [[94.2, 27.13], [94.20615979422575, 27.251289722927208]]}}, {"id": "72", "type": "Feature", "properties": {"road_type": "residential", "name": "Kadam Link Road", "speed_kmh": 20, "length_m": 10978.2, "travel_time_min": 32.93, "osm_id": 648150}, "geometry": {"type": "LineString", "coordinates": [[94.20615979422575, 27.251289722927208], [94.2, 27.349999999999998]]}}, {"id": "73", "type": "Feature", "properties": {"road_type": "residential", "name": "Boginadi Link Road", "speed_kmh": 20, "length_m": 2677.9, "travel_time_min": 8.03, "osm_id": 223191}, "geometry": {"type": "LineString", "coordinates": [[94.23, 27.3], [94.22886052542346, 27.324098435230376]]}}, {"id": "74", "type": "Feature", "properties": {"road_type": "residential", "name": "Boginadi Link Road", "speed_kmh": 20, "length_m": 4541.8, "travel_time_min": 13.63, "osm_id": 405985}, "geometry": {"type": "LineString", "coordinates": [[94.22886052542346, 27.324098435230376], [94.23, 27.365]]}}, {"id": "75", "type": "Feature", "properties": {"road_type": "residential", "name": "Harmoti Link Road", "speed_kmh": 20, "length_m": 2763.8, "travel_time_min": 8.29, "osm_id": 560266}, "geometry": {"type": "LineString", "coordinates": [[94.02, 27.32], [94.01175518784308, 27.296505927878247]]}}, {"id": "76", "type": "Feature", "properties": {"road_type": "residential", "name": "Harmoti Link Road", "speed_kmh": 20, "length_m": 4154.2, "travel_time_min": 12.46, "osm_id": 167011}, "geometry": {"type": "LineString", "coordinates": [[94.01175518784308, 27.296505927878247], [94.02, 27.259999999999994]]}}, {"id": "77", "type": "Feature", "properties": {"road_type": "residential", "name": "Panigaon Link Road", "speed_kmh": 20, "length_m": 8965.9, "travel_time_min": 26.9, "osm_id": 929413}, "geometry": {"type": "LineString", "coordinates": [[93.96, 27.08], [93.96743254171203, 27.160431542683046]]}}, {"id": "78", "type": "Feature", "properties": {"road_type": "residential", "name": "Panigaon Link Road", "speed_kmh": 20, "length_m": 7766.0, "travel_time_min": 23.3, "osm_id": 920838}, "geometry": {"type": "LineString", "coordinates": [[93.96743254171203, 27.160431542683046], [93.96, 27.229999999999993]]}}, {"id": "79", "type": "Feature", "properties": {"road_type": "residential", "name": "Telahi Link Road", "speed_kmh": 20, "length_m": 5304.4, "travel_time_min": 15.91, "osm_id": 72687}, "geometry": {"type": "LineString", "coordinates": [[94.0, 27.16], [93.9933449029271, 27.207321613230665]]}}, {"id": "80", "type": "Feature", "properties": {"road_type": "residential", "name": "Telahi Link Road", "speed_kmh": 20, "length_m": 4794.6, "travel_time_min": 14.38, "osm_id": 393078}, "geometry": {"type": "LineString", "coordinates": [[93.9933449029271, 27.207321613230665], [94.0, 27.249999999999996]]}}, {"id": "81", "type": "Feature", "properties": {"road_type": "residential", "name": "Dikrong Chapori Link Road", "speed_kmh": 20, "length_m": 4129.8, "travel_time_min": 12.39, "osm_id": 417657}, "geometry": {"type": "LineString", "coordinates": [[94.18, 27.27], [94.18116685809142, 27.30718688596729]]}}, {"id": "82", "type": "Feature", "properties": {"road_type": "residential", "name": "Dikrong Chapori Link Road", "speed_kmh": 20, "length_m": 3644.6, "travel_time_min": 10.93, "osm_id": 668987}, "geometry": {"type": "LineString", "coordinates": [[94.18116685809142, 27.30718688596729], [94.18, 27.34]]}}]}