{"type": "FeatureCollection", "features": [{"id": "0", "type": "Feature", "properties": {"name": "Dhemaji", "settlement_type": "town", "est_population": 25340, "district": "Dhemaji", "place": "town", "osm_id": 442576}, "geometry": {"type": "Point", "coordinates": [94.5833, 27.4833]}}, {"id": "1", "type": "Feature", "properties": {"name": "Silapathar", "settlement_type": "town", "est_population": 22985, "district": "Dhemaji", "place": "town", "osm_id": 215447}, "geometry": {"type": "Point", "coordinates": [94.72, 27.5953]}}, {"id": "2", "type": "Feature", "properties": {"name": "Jonai", "settlement_type": "town", "est_population": 15420, "district": "Dhemaji", "place": "town", "osm_id": 54043}, "geometry": {"type": "Point", "coordinates": [95.22, 27.83]}}, {"id": "3", "type": "Feature", "properties": {"name": "Gogamukh", "settlement_type": "town", "est_population": 12750, "district": "Dhemaji", "place": "town", "osm_id": 648490}, "geometry": {"type": "Point", "coordinates": [94.43, 27.38]}}, {"id": "4", "type": "Feature", "properties": {"name": "Sissiborgaon", "settlement_type": "village", "est_population": 5200, "district": "Dhemaji", "place": "village", "osm_id": 887574}, "geometry": {"type": "Point", "coordinates": [94.68, 27.55]}}, {"id": "5", "type": "Feature", "properties": {"name": "Machkhowa", "settlement_type": "village", "est_population": 3800, "district": "Dhemaji", "place": "village", "osm_id": 107842}, "geometry": {"type": "Point", "coordinates": [94.5, 27.42]}}, {"id": "6", "type": "Feature", "properties": {"name": "Bordoloni", "settlement_type": "village", "est_population": 4100, "district": "Dhemaji", "place": "village", "osm_id": 525282}, "geometry": {"type": "Point", "coordinates": [94.62, 27.52]}}, {"id": "7", "type": "Feature", "properties": {"name": "Dimow", "settlement_type": "village", "est_population": 3200, "district": "Dhemaji", "place": "village", "osm_id": 810374}, "geometry": {"type": "Point", "coordinates": [94.8108, 27.6761]}}, {"id": "8", "type": "Feature", "properties": {"name": "Jonai Bazar", "settlement_type": "village", "est_population": 8500, "district": "Dhemaji", "place": "village", "osm_id": 830667}, "geometry": {"type": "Point", "coordinates": [95.2214, 27.8329]}}, {"id": "9", "type": "Feature", "properties": {"name": "Telam", "settlement_type": "village", "est_population": 2100, "district": "Dhemaji", "place": "village", "osm_id": 276454}, "geometry": {"type": "Point", "coordinates": [95.05, 27.7]}}, {"id": "10", "type": "Feature", "properties": {"name": "Murkongselek", "settlement_type": "village", "est_population": 6200, "district": "Dhemaji", "place": "village", "osm_id": 840979}, "geometry": {"type": "Point", "coordinates": [95.02, 27.63]}}, {"id": "11", "type": "Feature", "properties": {"name": "Kulajan", "settlement_type": "village", "est_population": 1800, "district": "Dhemaji", "place": "village", "osm_id": 36528}, "geometry": {"type": "Point", "coordinates": [94.55, 27.46]}}, {"id": "12", "type": "Feature", "properties": {"name": "Jiadhal Nalkata", "settlement_type": "hamlet", "est_population": 950, "district": "Dhemaji", "place": "hamlet", "osm_id": 540001}, "geometry": {"type": "Point", "coordinates": [94.75, 27.51]}}, {"id": "13", "type": "Feature", "properties": {"name": "Auni-ati Chapori", "settlement_type": "hamlet", "est_population": 680, "district": "Dhemaji", "place": "hamlet", "osm_id": 682919}, "geometry": {"type": "Point", "coordinates": [94.48, 27.44]}}, {"id": "14", "type": "Feature", "properties": {"name": "Ghilamora", "settlement_type": "village", "est_population": 2800, "district": "Dhemaji", "place": "village", "osm_id": 690028}, "geometry": {"type": "Point", "coordinates": [94.7, 27.58]}}, {"id": "15", "type": "Feature", "properties": {"name": "Joypur", "settlement_type": "village", "est_population": 1650, "district": "Dhemaji", "place": "village", "osm_id": 345168}, "geometry": {"type": "Point", "coordinates": [94.6, 27.47]}}, {"id": "16", "type": "Feature", "properties": {"name": "North Lakhimpur", "settlement_type": "town", "est_population": 105376, "district": "Lakhimpur", "place": "town", "osm_id": 665090}, "geometry": {"type": "Point", "coordinates": [94.1056, 27.2358]}}, {"id": "17", "type": "Feature", "properties": {"name": "Dhakuakhana", "settlement_type": "town", "est_population": 12800, "district": "Lakhimpur", "place": "town", "osm_id": 17984}, "geometry": {"type": "Point", "coordinates": [94.17, 27.07]}}, {"id": "18", "type": "Feature", "properties": {"name": "Narayanpur", "settlement_type": "town", "est_population": 8900, "district": "Lakhimpur", "place": "town", "osm_id": 871778}, "geometry": {"type": "Point", "coordinates": [94.05, 27.2]}}, {"id": "19", "type": "Feature", "properties": {"name": "Bihpuria", "settlement_type": "town", "est_population": 10500, "district": "Lakhimpur", "place": "town", "osm_id": 68271}, "geometry": {"type": "Point", "coordinates": [93.91, 27.02]}}, {"id": "20", "type": "Feature", "properties": {"name": "Laluk", "settlement_type": "village", "est_population": 5400, "district": "Lakhimpur", "place": "village", "osm_id": 227116}, "geometry": {"type": "Point", "coordinates": [94.07, 27.28]}}, {"id": "21", "type": "Feature", "properties": {"name": "Nowboicha", "settlement_type": "village", "est_population": 4200, "district": "Lakhimpur", "place": "village", "osm_id": 500825}, "geometry": {"type": "Point", "coordinates": [93.98, 27.25]}}, {"id": "22", "type": "Feature", "properties": {"name": "Bandarmari", "settlement_type": "village", "est_population": 2800, "district": "Lakhimpur", "place": "village", "osm_id": 219772}, "geometry": {"type": "Point", "coordinates": [94.08, 27.15]}}, {"id": "23", "type": "Feature", "properties": {"name": "Ghunasuti", "settlement_type": "village", "est_population": 3100, "district": "Lakhimpur", "place": "village", "osm_id": 62287}, "geometry": {"type": "Point", "coordinates": [94.15, 27.18]}}, {"id": "24", "type": "Feature", "properties": {"name": "Kadam", "settlement_type": "village", "est_population": 2200, "district": "Lakhimpur", "place": "village", "osm_id": 62098}, "geometry": {"type": "Point", "coordinates": [94.2, 27.13]}}, {"id": "25", "type": "Feature", "properties": {"name": "Boginadi", "settlement_type": "village", "est_population": 3500, "district": "Lakhimpur", "place": "village", "osm_id": 439498}, "geometry": {"type": "Point", "coordinates": [94.23, 27.3]}}, {"id": "26", "type": "Feature", "properties": {"name": "Harmoti", "settlement_type": "village", "est_population": 4800, "district": "Lakhimpur", "place": "village", "osm_id": 271272}, "geometry": {"type": "Point", "coordinates": [94.02, 27.32]}}, {"id": "27", "type": "Feature", "properties": {"name": "Panigaon", "settlement_type": "village", "est_population": 1900, "district": "Lakhimpur", "place": "village", "osm_id": 366273}, "geometry": {"type": "Point", "coordinates": [93.96, 27.08]}}, {"id": "28", "type": "Feature", "properties": {"name": "Telahi", "settlement_type": "village", "est_population": 2600, "district": "Lakhimpur", "place": "village", "osm_id": 900649}, "geometry": {"type": "Point", "coordinates": [94.0, 27.16]}}, {"id": "29", "type": "Feature", "properties": {"name": "Naoboicha Pathar", "settlement_type": "hamlet", "est_population": 1100, "district": "Lakhimpur", "place": "hamlet", "osm_id": 692760}, "geometry": {"type": "Point", "coordinates": [93.95, 27.22]}}, {"id": "30", "type": "Feature", "properties": {"name": "Dikrong Chapori", "settlement_type": "hamlet", "est_population": 750, "district": "Lakhimpur", "place": "hamlet", "osm_id": 39741}, "geometry": {"type": "Point", "coordinates": [94.18, 27.27]}}, {"id": "31", "type": "Feature", "properties": {"name": "Garamur", "settlement_type": "town", "est_population": 8500, "district": "Majuli", "place": "town", "osm_id": 615762}, "geometry": {"type": "Point", "coordinates": [94.17, 26.95]}}, {"id": "32", "type": "Feature", "properties": {"name": "Kamalabari", "settlement_type": "town", "est_population": 12200, "district": "Majuli", "place": "town", "osm_id": 615338}, "geometry": {"type": "Point", "coordinates": [94.22, 26.93]}}, {"id": "33", "type": "Feature", "properties": {"name": "Jengraimukh", "settlement_type": "town", "est_population": 7800, "district": "Majuli", "place": "town", "osm_id": 505496}, "geometry": {"type": "Point", "coordinates": [94.3, 26.98]}}, {"id": "34", "type": "Feature", "properties": {"name": "Auniati", "settlement_type": "village", "est_population": 4500, "district": "Majuli", "place": "village", "osm_id": 869889}, "geometry": {"type": "Point", "coordinates": [94.2, 26.96]}}, {"id": "35", "type": "Feature", "properties": {"name": "Dakhinpat", "settlement_type": "village", "est_population": 3200, "district": "Majuli", "place": "village", "osm_id": 548206}, "geometry": {"type": "Point", "coordinates": [94.28, 26.92]}}, {"id": "36", "type": "Feature", "properties": {"name": "Bengena-ati", "settlement_type": "village", "est_population": 2800, "district": "Majuli", "place": "village", "osm_id": 820831}, "geometry": {"type": "Point", "coordinates": [94.15, 26.91]}}, {"id": "37", "type": "Feature", "properties": {"name": "Salmora", "settlement_type": "village", "est_population": 3100, "district": "Majuli", "place": "village", "osm_id": 322239}, "geometry": {"type": "Point", "coordinates": [94.25, 26.89]}}, {"id": "38", "type": "Feature", "properties": {"name": "Rawnapar", "settlement_type": "village", "est_population": 1800, "district": "Majuli", "place": "village", "osm_id": 312003}, "geometry": {"type": "Point", "coordinates": [94.25, 26.97]}}, {"id": "39", "type": "Feature", "properties": {"name": "Bongaon", "settlement_type": "village", "est_population": 2200, "district": "Majuli", "place": "village", "osm_id": 934388}, "geometry": {"type": "Point", "coordinates": [94.12, 26.94]}}, {"id": "40", "type": "Feature", "properties": {"name": "Ahatguri", "settlement_type": "village", "est_population": 1500, "district": "Majuli", "place": "village", "osm_id": 642374}, "geometry": {"type": "Point", "coordinates": [94.27, 26.965]}}, {"id": "41", "type": "Feature", "properties": {"name": "Ratanpur", "settlement_type": "village", "est_population": 1900, "district": "Majuli", "place": "village", "osm_id": 727910}, "geometry": {"type": "Point", "coordinates": [94.18, 26.925]}}, {"id": "42", "type": "Feature", "properties": {"name": "Rangachahi", "settlement_type": "village", "est_population": 1400, "district": "Majuli", "place": "village", "osm_id": 457413}, "geometry": {"type": "Point", "coordinates": [94.2, 26.9]}}, {"id": "43", "type": "Feature", "properties": {"name": "Phulani", "settlement_type": "village", "est_population": 1100, "district": "Majuli", "place": "village", "osm_id": 226941}, "geometry": {"type": "Point", "coordinates": [94.32, 26.935]}}, {"id": "44", "type": "Feature", "properties": {"name": "Nayabazaar", "settlement_type": "village", "est_population": 2500, "district": "Majuli", "place": "village", "osm_id": 139766}, "geometry": {"type": "Point", "coordinates": [94.19, 26.955]}}, {"id": "45", "type": "Feature", "properties": {"name": "Karatipar", "settlement_type": "village", "est_population": 900, "district": "Majuli", "place": "village", "osm_id": 284334}, "geometry": {"type": "Point", "coordinates": [94.3, 26.915]}}, {"id": "46", "type": "Feature", "properties": {"name": "Borguri", "settlement_type": "village", "est_population": 1600, "district": "Majuli", "place": "village", "osm_id": 799116}, "geometry": {"type": "Point", "coordinates": [94.13, 26.97]}}, {"id": "47", "type": "Feature", "properties": {"name": "Bali Chapori", "settlement_type": "hamlet", "est_population": 500, "district": "Majuli", "place": "hamlet", "osm_id": 52514}, "geometry": {"type": "Point", "coordinates": [94.17, 26.88]}}, {"id": "48", "type": "Feature", "properties": {"name": "Maijan Chapori", "settlement_type": "hamlet", "est_population": 350, "district": "Majuli", "place": "hamlet", "osm_id": 357397}, "geometry": {"type": "Point", "coordinates": [94.35, 26.98]}}]}